<?xml version='1.0' encoding='UTF-8' ?>
<kml xmlns="http://www.opengis.net/kml/2.2" xmlns:gx="http://www.google.com/kml/ext/2.2"><Document><name>2025/11/07 @ 09:59:50</name><Style id="mm_folder_color_16"><IconStyle><color>ff3aef39</color><colorMode>normal</colorMode><scale>1</scale></IconStyle><LineStyle><color>ff3aef39</color><width>4</width></LineStyle><PolyStyle><color>ff3aef39</color></PolyStyle></Style><Folder id="16"><styleUrl>#mm_folder_color_16</styleUrl><name>Célula 05 Pádua</name><ExtendedData><Data name="com_exlyo_mapmarker_piniconcode"><value>-1</value></Data><Data name="com_exlyo_mapmarker_customfields"><value>[]</value></Data></ExtendedData><Style id="mm_marker_color_1488"><IconStyle><color>ff3aef39</color><colorMode>normal</colorMode><scale>1</scale></IconStyle><LineStyle><color>ff3aef39</color><width>4</width></LineStyle><PolyStyle><color>ff3aef39</color></PolyStyle></Style><Placemark id="1488"><name></name><description><![CDATA[<pre id="com.exlyo.mapmarker.description_p_tag"></pre>]]></description><phoneNumber></phoneNumber><LineString><coordinates> -42.201286889612675,-21.53029235183542 -42.2013683617115,-21.53024213885878 -42.20136031508446,-21.529863513742928 -42.20138546079397,-21.52963303223769 -42.20125503838062,-21.529474595483386 -42.2015118598938,-21.529237251911898 -42.201923578977585,-21.5280626918136</coordinates></LineString><TimeStamp><when>2025-10-21T13:36:08Z</when></TimeStamp><ExtendedData><Data name="com_exlyo_mapmarker_piniconcode"><value>-1</value></Data><Data name="com_exlyo_mapmarker_customfields"><value>[]</value></Data></ExtendedData><styleUrl>#mm_marker_color_1488</styleUrl></Placemark><Style id="mm_marker_color_1485"><IconStyle><color>ff3aef39</color><colorMode>normal</colorMode><scale>1</scale></IconStyle><LineStyle><color>ff3aef39</color><width>4</width></LineStyle><PolyStyle><color>ff3aef39</color></PolyStyle></Style><Placemark id="1485"><name></name><description><![CDATA[<pre id="com.exlyo.mapmarker.description_p_tag"></pre>]]></description><phoneNumber></phoneNumber><LineString><coordinates> -42.202126421034336,-21.529928385332028 -42.20201879739761,-21.530000430187894 -42.20190513879061,-21.530003549012015 -42.201884016394615,-21.5299592617032 -42.20177203416824,-21.530033489720168 -42.20209591090679,-21.530410243103663 -42.2025840729475,-21.53109232641991 -42.20272555947304,-21.530789490555588 -42.20305345952511,-21.53087931217546 -42.203378677368164,-21.529859771150367</coordinates></LineString><TimeStamp><when>2025-10-21T13:31:08Z</when></TimeStamp><ExtendedData><Data name="com_exlyo_mapmarker_piniconcode"><value>-1</value></Data><Data name="com_exlyo_mapmarker_customfields"><value>[]</value></Data></ExtendedData><styleUrl>#mm_marker_color_1485</styleUrl></Placemark><Style id="mm_marker_color_1477"><IconStyle><color>ff3aef39</color><colorMode>normal</colorMode><scale>1</scale></IconStyle><LineStyle><color>ff3aef39</color><width>4</width></LineStyle><PolyStyle><color>ff3aef39</color></PolyStyle></Style><Placemark id="1477"><name></name><description><![CDATA[<pre id="com.exlyo.mapmarker.description_p_tag"></pre>]]></description><phoneNumber></phoneNumber><LineString><coordinates> -42.20128387212753,-21.53030451522467 -42.201450169086456,-21.53047885702526 -42.2019349783659,-21.531015915782508 -42.20215357840061,-21.531369587538016 -42.20234736800194,-21.531544863697288 -42.202235385775566,-21.531757565086856 -42.202561274170876,-21.532081606634286 -42.202735617756844,-21.53220355085998 -42.202810384333134,-21.532353563948554 -42.20247745513916,-21.533530584342166 -42.20238324254751,-21.533461971862494 -42.203112468123436,-21.533547113707428 -42.203276082873344,-21.53288032385741</coordinates></LineString><TimeStamp><when>2025-10-21T13:17:47Z</when></TimeStamp><ExtendedData><Data name="com_exlyo_mapmarker_piniconcode"><value>-1</value></Data><Data name="com_exlyo_mapmarker_customfields"><value>[]</value></Data></ExtendedData><styleUrl>#mm_marker_color_1477</styleUrl></Placemark><Style id="mm_marker_color_1478"><IconStyle><color>ff3aef39</color><colorMode>normal</colorMode><scale>1</scale></IconStyle><LineStyle><color>ff3aef39</color><width>4</width></LineStyle><PolyStyle><color>ff3aef39</color></PolyStyle></Style><Placemark id="1478"><name></name><description><![CDATA[<pre id="com.exlyo.mapmarker.description_p_tag"></pre>]]></description><phoneNumber></phoneNumber><LineString><coordinates> -42.20311414450407,-21.533542435585368 -42.20353826880455,-21.53376012403852 -42.203763239085674,-21.53328856926935</coordinates></LineString><TimeStamp><when>2025-10-21T13:18:35Z</when></TimeStamp><ExtendedData><Data name="com_exlyo_mapmarker_piniconcode"><value>-1</value></Data><Data name="com_exlyo_mapmarker_customfields"><value>[]</value></Data></ExtendedData><styleUrl>#mm_marker_color_1478</styleUrl></Placemark><Style id="mm_marker_color_1479"><IconStyle><color>ff3aef39</color><colorMode>normal</colorMode><scale>1</scale></IconStyle><LineStyle><color>ff3aef39</color><width>4</width></LineStyle><PolyStyle><color>ff3aef39</color></PolyStyle></Style><Placemark id="1479"><name></name><description><![CDATA[<pre id="com.exlyo.mapmarker.description_p_tag"></pre>]]></description><phoneNumber></phoneNumber><LineString><coordinates> -42.20313996076584,-21.533536509963888 -42.20317717641592,-21.533644106737345 -42.2034665197134,-21.533801291445688 -42.20355335623026,-21.533753886551565 -42.20391511917114,-21.534057651854933 -42.2043077275157,-21.53314417090876</coordinates></LineString><TimeStamp><when>2025-10-21T13:19:39Z</when></TimeStamp><ExtendedData><Data name="com_exlyo_mapmarker_piniconcode"><value>-1</value></Data><Data name="com_exlyo_mapmarker_customfields"><value>[]</value></Data></ExtendedData><styleUrl>#mm_marker_color_1479</styleUrl></Placemark><Style id="mm_marker_color_1480"><IconStyle><color>ff3aef39</color><colorMode>normal</colorMode><scale>1</scale></IconStyle><LineStyle><color>ff3aef39</color><width>4</width></LineStyle><PolyStyle><color>ff3aef39</color></PolyStyle></Style><Placemark id="1480"><name></name><description><![CDATA[<pre id="com.exlyo.mapmarker.description_p_tag"></pre>]]></description><phoneNumber></phoneNumber><LineString><coordinates> -42.203025966882706,-21.52953853159599 -42.20274232327938,-21.529717240678497 -42.20241475850344,-21.529864137508362 -42.202106304466724,-21.5299286972146 -42.20186624675989,-21.52993618239608 -42.20173481851816,-21.53001415301352 -42.20137506723404,-21.529875677168093 -42.20128186047077,-21.530287049844915</coordinates></LineString><TimeStamp><when>2025-10-21T13:20:32Z</when></TimeStamp><ExtendedData><Data name="com_exlyo_mapmarker_piniconcode"><value>-1</value></Data><Data name="com_exlyo_mapmarker_customfields"><value>[]</value></Data></ExtendedData><styleUrl>#mm_marker_color_1480</styleUrl></Placemark><Style id="mm_marker_color_2578"><IconStyle><color>ff3aef39</color><colorMode>normal</colorMode><scale>1</scale></IconStyle><LineStyle><color>ff3aef39</color><width>4</width></LineStyle><PolyStyle><color>ff3aef39</color></PolyStyle></Style><Placemark id="2578"><name>C5-01</name><description><![CDATA[<pre id="com.exlyo.mapmarker.description_p_tag"></pre>]]></description><phoneNumber></phoneNumber><Point><coordinates>-42.20132660188709,-21.530101216291587</coordinates></Point><TimeStamp><when>2025-09-19T12:01:07Z</when></TimeStamp><ExtendedData><Data name="com_exlyo_mapmarker_piniconcode"><value>-1</value></Data><Data name="com_exlyo_mapmarker_customfields"><value>[]</value></Data></ExtendedData><styleUrl>#mm_marker_color_2578</styleUrl></Placemark><Style id="mm_marker_color_1469"><IconStyle><color>ff3aef39</color><colorMode>normal</colorMode><scale>1</scale></IconStyle><LineStyle><color>ff3aef39</color><width>4</width></LineStyle><PolyStyle><color>ff3aef39</color></PolyStyle></Style><Placemark id="1469"><name>C5-02</name><description><![CDATA[<pre id="com.exlyo.mapmarker.description_p_tag"></pre>]]></description><phoneNumber></phoneNumber><Point><coordinates>-42.202160376482155,-21.531362186808064</coordinates></Point><TimeStamp><when>2025-10-21T12:45:00Z</when></TimeStamp><ExtendedData><Data name="com_exlyo_mapmarker_piniconcode"><value>-1</value></Data><Data name="com_exlyo_mapmarker_customfields"><value>[]</value></Data></ExtendedData><styleUrl>#mm_marker_color_1469</styleUrl></Placemark><Style id="mm_marker_color_1470"><IconStyle><color>ff3aef39</color><colorMode>normal</colorMode><scale>1</scale></IconStyle><LineStyle><color>ff3aef39</color><width>4</width></LineStyle><PolyStyle><color>ff3aef39</color></PolyStyle></Style><Placemark id="1470"><name>C5-03</name><description><![CDATA[<pre id="com.exlyo.mapmarker.description_p_tag"></pre>]]></description><phoneNumber></phoneNumber><Point><coordinates>-42.20273450142581,-21.5322163</coordinates></Point><TimeStamp><when>2025-10-21T12:47:48Z</when></TimeStamp><ExtendedData><Data name="com_exlyo_mapmarker_piniconcode"><value>-1</value></Data><Data name="com_exlyo_mapmarker_customfields"><value>[]</value></Data></ExtendedData><styleUrl>#mm_marker_color_1470</styleUrl></Placemark><Style id="mm_marker_color_1476"><IconStyle><color>ff3aef39</color><colorMode>normal</colorMode><scale>1</scale></IconStyle><LineStyle><color>ff3aef39</color><width>4</width></LineStyle><PolyStyle><color>ff3aef39</color></PolyStyle></Style><Placemark id="1476"><name>C5-04</name><description><![CDATA[<pre id="com.exlyo.mapmarker.description_p_tag"></pre>]]></description><phoneNumber></phoneNumber><Point><coordinates>-42.202416,-21.533466</coordinates></Point><TimeStamp><when>2025-10-21T13:12:36Z</when></TimeStamp><ExtendedData><Data name="com_exlyo_mapmarker_piniconcode"><value>-1</value></Data><Data name="com_exlyo_mapmarker_customfields"><value>[]</value></Data></ExtendedData><styleUrl>#mm_marker_color_1476</styleUrl></Placemark><Style id="mm_marker_color_1472"><IconStyle><color>ff3aef39</color><colorMode>normal</colorMode><scale>1</scale></IconStyle><LineStyle><color>ff3aef39</color><width>4</width></LineStyle><PolyStyle><color>ff3aef39</color></PolyStyle></Style><Placemark id="1472"><name>C5-05</name><description><![CDATA[<pre id="com.exlyo.mapmarker.description_p_tag"></pre>]]></description><phoneNumber></phoneNumber><Point><coordinates>-42.20314063131809,-21.533515614349355</coordinates></Point><TimeStamp><when>2025-10-21T12:58:17Z</when></TimeStamp><ExtendedData><Data name="com_exlyo_mapmarker_piniconcode"><value>-1</value></Data><Data name="com_exlyo_mapmarker_customfields"><value>[]</value></Data></ExtendedData><styleUrl>#mm_marker_color_1472</styleUrl></Placemark><Style id="mm_marker_color_1473"><IconStyle><color>ff3aef39</color><colorMode>normal</colorMode><scale>1</scale></IconStyle><LineStyle><color>ff3aef39</color><width>4</width></LineStyle><PolyStyle><color>ff3aef39</color></PolyStyle></Style><Placemark id="1473"><name>C5-06</name><description><![CDATA[<pre id="com.exlyo.mapmarker.description_p_tag"></pre>]]></description><phoneNumber></phoneNumber><Point><coordinates>-42.2037657,-21.533256</coordinates></Point><TimeStamp><when>2025-10-21T13:01:16Z</when></TimeStamp><ExtendedData><Data name="com_exlyo_mapmarker_piniconcode"><value>-1</value></Data><Data name="com_exlyo_mapmarker_customfields"><value>[]</value></Data></ExtendedData><styleUrl>#mm_marker_color_1473</styleUrl></Placemark><Style id="mm_marker_color_1471"><IconStyle><color>ff3aef39</color><colorMode>normal</colorMode><scale>1</scale></IconStyle><LineStyle><color>ff3aef39</color><width>4</width></LineStyle><PolyStyle><color>ff3aef39</color></PolyStyle></Style><Placemark id="1471"><name>C5-07</name><description><![CDATA[<pre id="com.exlyo.mapmarker.description_p_tag"></pre>]]></description><phoneNumber></phoneNumber><Point><coordinates>-42.2032899,-21.532851</coordinates></Point><TimeStamp><when>2025-10-21T12:56:05Z</when></TimeStamp><ExtendedData><Data name="com_exlyo_mapmarker_piniconcode"><value>-1</value></Data><Data name="com_exlyo_mapmarker_customfields"><value>[]</value></Data></ExtendedData><styleUrl>#mm_marker_color_1471</styleUrl></Placemark><Style id="mm_marker_color_1474"><IconStyle><color>ff3aef39</color><colorMode>normal</colorMode><scale>1</scale></IconStyle><LineStyle><color>ff3aef39</color><width>4</width></LineStyle><PolyStyle><color>ff3aef39</color></PolyStyle></Style><Placemark id="1474"><name>C5-08</name><description><![CDATA[<pre id="com.exlyo.mapmarker.description_p_tag"></pre>]]></description><phoneNumber></phoneNumber><Point><coordinates>-42.2039258480072,-21.53403176633537</coordinates></Point><TimeStamp><when>2025-10-21T13:05:58Z</when></TimeStamp><ExtendedData><Data name="com_exlyo_mapmarker_piniconcode"><value>-1</value></Data><Data name="com_exlyo_mapmarker_customfields"><value>[]</value></Data></ExtendedData><styleUrl>#mm_marker_color_1474</styleUrl></Placemark><Style id="mm_marker_color_1486"><IconStyle><color>ff3aef39</color><colorMode>normal</colorMode><scale>1</scale></IconStyle><LineStyle><color>ff3aef39</color><width>4</width></LineStyle><PolyStyle><color>ff3aef39</color></PolyStyle></Style><Placemark id="1486"><name>C5-09</name><description><![CDATA[<pre id="com.exlyo.mapmarker.description_p_tag"></pre>]]></description><phoneNumber></phoneNumber><Point><coordinates>-42.20150669999998,-21.52913819999996</coordinates></Point><TimeStamp><when>2025-10-21T13:34:10Z</when></TimeStamp><ExtendedData><Data name="com_exlyo_mapmarker_piniconcode"><value>-1</value></Data><Data name="com_exlyo_mapmarker_customfields"><value>[]</value></Data></ExtendedData><styleUrl>#mm_marker_color_1486</styleUrl></Placemark><Style id="mm_marker_color_1487"><IconStyle><color>ff3aef39</color><colorMode>normal</colorMode><scale>1</scale></IconStyle><LineStyle><color>ff3aef39</color><width>4</width></LineStyle><PolyStyle><color>ff3aef39</color></PolyStyle></Style><Placemark id="1487"><name>C5-10</name><description><![CDATA[<pre id="com.exlyo.mapmarker.description_p_tag"></pre>]]></description><phoneNumber></phoneNumber><Point><coordinates>-42.20192548797839,-21.528076767008102</coordinates></Point><TimeStamp><when>2025-10-21T13:34:53Z</when></TimeStamp><ExtendedData><Data name="com_exlyo_mapmarker_piniconcode"><value>-1</value></Data><Data name="com_exlyo_mapmarker_customfields"><value>[]</value></Data></ExtendedData><styleUrl>#mm_marker_color_1487</styleUrl></Placemark><Style id="mm_marker_color_1468"><IconStyle><color>ff3aef39</color><colorMode>normal</colorMode><scale>1</scale></IconStyle><LineStyle><color>ff3aef39</color><width>4</width></LineStyle><PolyStyle><color>ff3aef39</color></PolyStyle></Style><Placemark id="1468"><name>C5-11</name><description><![CDATA[<pre id="com.exlyo.mapmarker.description_p_tag"></pre>]]></description><phoneNumber></phoneNumber><Point><coordinates>-42.20212839999999,-21.52993</coordinates></Point><TimeStamp><when>2025-10-21T12:37:38Z</when></TimeStamp><ExtendedData><Data name="com_exlyo_mapmarker_piniconcode"><value>-1</value></Data><Data name="com_exlyo_mapmarker_customfields"><value>[]</value></Data></ExtendedData><styleUrl>#mm_marker_color_1468</styleUrl></Placemark><Style id="mm_marker_color_1467"><IconStyle><color>ff3aef39</color><colorMode>normal</colorMode><scale>1</scale></IconStyle><LineStyle><color>ff3aef39</color><width>4</width></LineStyle><PolyStyle><color>ff3aef39</color></PolyStyle></Style><Placemark id="1467"><name>C5-12</name><description><![CDATA[<pre id="com.exlyo.mapmarker.description_p_tag"></pre>]]></description><phoneNumber></phoneNumber><Point><coordinates>-42.203034800003906,-21.52953849999609</coordinates></Point><TimeStamp><when>2025-10-21T12:34:40Z</when></TimeStamp><ExtendedData><Data name="com_exlyo_mapmarker_piniconcode"><value>-1</value></Data><Data name="com_exlyo_mapmarker_customfields"><value>[]</value></Data></ExtendedData><styleUrl>#mm_marker_color_1467</styleUrl></Placemark><Style id="mm_marker_color_1481"><IconStyle><color>ff3aef39</color><colorMode>normal</colorMode><scale>1</scale></IconStyle><LineStyle><color>ff3aef39</color><width>4</width></LineStyle><PolyStyle><color>ff3aef39</color></PolyStyle></Style><Placemark id="1481"><name>C5-13</name><description><![CDATA[<pre id="com.exlyo.mapmarker.description_p_tag"></pre>]]></description><phoneNumber></phoneNumber><Point><coordinates>-42.2021002,-21.5303966</coordinates></Point><TimeStamp><when>2025-10-21T13:23:06Z</when></TimeStamp><ExtendedData><Data name="com_exlyo_mapmarker_piniconcode"><value>-1</value></Data><Data name="com_exlyo_mapmarker_customfields"><value>[]</value></Data></ExtendedData><styleUrl>#mm_marker_color_1481</styleUrl></Placemark><Style id="mm_marker_color_1484"><IconStyle><color>ff3aef39</color><colorMode>normal</colorMode><scale>1</scale></IconStyle><LineStyle><color>ff3aef39</color><width>4</width></LineStyle><PolyStyle><color>ff3aef39</color></PolyStyle></Style><Placemark id="1484"><name>C5-14</name><description><![CDATA[<pre id="com.exlyo.mapmarker.description_p_tag"></pre>]]></description><phoneNumber></phoneNumber><Point><coordinates>-42.20260956499104,-21.531064889982108</coordinates></Point><TimeStamp><when>2025-10-21T13:28:38Z</when></TimeStamp><ExtendedData><Data name="com_exlyo_mapmarker_piniconcode"><value>-1</value></Data><Data name="com_exlyo_mapmarker_customfields"><value>[]</value></Data></ExtendedData><styleUrl>#mm_marker_color_1484</styleUrl></Placemark><Style id="mm_marker_color_1483"><IconStyle><color>ff3aef39</color><colorMode>normal</colorMode><scale>1</scale></IconStyle><LineStyle><color>ff3aef39</color><width>4</width></LineStyle><PolyStyle><color>ff3aef39</color></PolyStyle></Style><Placemark id="1483"><name>C5-15</name><description><![CDATA[<pre id="com.exlyo.mapmarker.description_p_tag"></pre>]]></description><phoneNumber></phoneNumber><Point><coordinates>-42.20305781811476,-21.53085654489512</coordinates></Point><TimeStamp><when>2025-10-21T13:27:34Z</when></TimeStamp><ExtendedData><Data name="com_exlyo_mapmarker_piniconcode"><value>-1</value></Data><Data name="com_exlyo_mapmarker_customfields"><value>[]</value></Data></ExtendedData><styleUrl>#mm_marker_color_1483</styleUrl></Placemark><Style id="mm_marker_color_1482"><IconStyle><color>ff3aef39</color><colorMode>normal</colorMode><scale>1</scale></IconStyle><LineStyle><color>ff3aef39</color><width>4</width></LineStyle><PolyStyle><color>ff3aef39</color></PolyStyle></Style><Placemark id="1482"><name>C5-16</name><description><![CDATA[<pre id="com.exlyo.mapmarker.description_p_tag"></pre>]]></description><phoneNumber></phoneNumber><Point><coordinates>-42.20338470000052,-21.529859299993625</coordinates></Point><TimeStamp><when>2025-10-21T13:25:44Z</when></TimeStamp><ExtendedData><Data name="com_exlyo_mapmarker_piniconcode"><value>-1</value></Data><Data name="com_exlyo_mapmarker_customfields"><value>[]</value></Data></ExtendedData><styleUrl>#mm_marker_color_1482</styleUrl></Placemark><Style id="mm_marker_color_1475"><IconStyle><color>ff3aef39</color><colorMode>normal</colorMode><scale>1</scale></IconStyle><LineStyle><color>ff3aef39</color><width>4</width></LineStyle><PolyStyle><color>ff3aef39</color></PolyStyle></Style><Placemark id="1475"><name>C5-17</name><description><![CDATA[<pre id="com.exlyo.mapmarker.description_p_tag"></pre>]]></description><phoneNumber></phoneNumber><Point><coordinates>-42.204305715858936,-21.53313730964399</coordinates></Point><TimeStamp><when>2025-10-21T13:09:33Z</when></TimeStamp><ExtendedData><Data name="com_exlyo_mapmarker_piniconcode"><value>-1</value></Data><Data name="com_exlyo_mapmarker_customfields"><value>[]</value></Data></ExtendedData><styleUrl>#mm_marker_color_1475</styleUrl></Placemark></Folder></Document></kml>