<?xml version='1.0' encoding='UTF-8' ?>
<kml xmlns="http://www.opengis.net/kml/2.2" xmlns:gx="http://www.google.com/kml/ext/2.2"><Document><name>2025/01/24 @ 08:27:52</name><Style id="mm_folder_color_46"><IconStyle><color>ff3bebff</color><colorMode>normal</colorMode><scale>1</scale></IconStyle><LineStyle><color>ff3bebff</color><width>4</width></LineStyle><PolyStyle><color>ff3bebff</color></PolyStyle></Style><Folder id="46"><styleUrl>#mm_folder_color_46</styleUrl><name>Célula 08 Pádua </name><ExtendedData><Data name="com_exlyo_mapmarker_piniconcode"><value>-1</value></Data><Data name="com_exlyo_mapmarker_customfields"><value>[]</value></Data></ExtendedData><Style id="mm_marker_color_3648"><IconStyle><color>ff3bebff</color><colorMode>normal</colorMode><scale>1</scale></IconStyle><LineStyle><color>ff3bebff</color><width>4</width></LineStyle><PolyStyle><color>ff3bebff</color></PolyStyle></Style><Placemark id="3648"><name></name><description><![CDATA[<pre id="com.exlyo.mapmarker.description_p_tag"></pre>]]></description><phoneNumber></phoneNumber><LineString><coordinates> -42.197586203266575,-21.530137904121435 -42.19783651324306,-21.53058806936229 -42.198362164575684,-21.53015342685118 -42.19887947236979,-21.529695498519175 -42.19887947236979,-21.529695498519175</coordinates></LineString><TimeStamp><when>2026-03-27T23:56:26Z</when></TimeStamp><ExtendedData><Data name="com_exlyo_mapmarker_piniconcode"><value>-1</value></Data><Data name="com_exlyo_mapmarker_customfields"><value>[]</value></Data></ExtendedData><styleUrl>#mm_marker_color_3648</styleUrl></Placemark><Style id="mm_marker_color_3656"><IconStyle><color>ff3bebff</color><colorMode>normal</colorMode><scale>1</scale></IconStyle><LineStyle><color>ff3bebff</color><width>4</width></LineStyle><PolyStyle><color>ff3bebff</color></PolyStyle></Style><Placemark id="3656"><name></name><description><![CDATA[<pre id="com.exlyo.mapmarker.description_p_tag"></pre>]]></description><phoneNumber></phoneNumber><LineString><coordinates> -42.19720509593441,-21.53041873078517 -42.1972962788522,-21.53064234850674 -42.19778535196965,-21.53129777834847 -42.198125216262135,-21.531806698394288 -42.198125216262135,-21.531806698394288</coordinates></LineString><TimeStamp><when>2026-03-27T23:59:55Z</when></TimeStamp><ExtendedData><Data name="com_exlyo_mapmarker_piniconcode"><value>-1</value></Data><Data name="com_exlyo_mapmarker_customfields"><value>[]</value></Data></ExtendedData><styleUrl>#mm_marker_color_3656</styleUrl></Placemark><Style id="mm_marker_color_3645"><IconStyle><color>ff3bebff</color><colorMode>normal</colorMode><scale>1</scale></IconStyle><LineStyle><color>ff3bebff</color><width>4</width></LineStyle><PolyStyle><color>ff3bebff</color></PolyStyle></Style><Placemark id="3645"><name>C7-01</name><description><![CDATA[<pre id="com.exlyo.mapmarker.description_p_tag"></pre>]]></description><phoneNumber></phoneNumber><Point><coordinates>-42.197602729059675,-21.530145463404867</coordinates></Point><TimeStamp><when>2025-12-29T19:35:17Z</when></TimeStamp><ExtendedData><Data name="com_exlyo_mapmarker_piniconcode"><value>-1</value></Data><Data name="com_exlyo_mapmarker_customfields"><value>[]</value></Data></ExtendedData><styleUrl>#mm_marker_color_3645</styleUrl></Placemark><Style id="mm_marker_color_3644"><IconStyle><color>ff3bebff</color><colorMode>normal</colorMode><scale>1</scale></IconStyle><LineStyle><color>ff3bebff</color><width>4</width></LineStyle><PolyStyle><color>ff3bebff</color></PolyStyle></Style><Placemark id="3644"><name>C7-02</name><description><![CDATA[<pre id="com.exlyo.mapmarker.description_p_tag"></pre>]]></description><phoneNumber></phoneNumber><Point><coordinates>-42.197826504707336,-21.530616708533366</coordinates></Point><TimeStamp><when>2025-12-29T20:53:42Z</when></TimeStamp><ExtendedData><Data name="com_exlyo_mapmarker_piniconcode"><value>-1</value></Data><Data name="com_exlyo_mapmarker_customfields"><value>[]</value></Data></ExtendedData><styleUrl>#mm_marker_color_3644</styleUrl></Placemark><Style id="mm_marker_color_3643"><IconStyle><color>ff3bebff</color><colorMode>normal</colorMode><scale>1</scale></IconStyle><LineStyle><color>ff3bebff</color><width>4</width></LineStyle><PolyStyle><color>ff3bebff</color></PolyStyle></Style><Placemark id="3643"><name>C7-03</name><description><![CDATA[<pre id="com.exlyo.mapmarker.description_p_tag"></pre>]]></description><phoneNumber></phoneNumber><Point><coordinates>-42.198346853256226,-21.530179138702035</coordinates></Point><TimeStamp><when>2025-12-29T20:54:14Z</when></TimeStamp><ExtendedData><Data name="com_exlyo_mapmarker_piniconcode"><value>-1</value></Data><Data name="com_exlyo_mapmarker_customfields"><value>[]</value></Data></ExtendedData><styleUrl>#mm_marker_color_3643</styleUrl></Placemark><Style id="mm_marker_color_3642"><IconStyle><color>ff3bebff</color><colorMode>normal</colorMode><scale>1</scale></IconStyle><LineStyle><color>ff3bebff</color><width>4</width></LineStyle><PolyStyle><color>ff3bebff</color></PolyStyle></Style><Placemark id="3642"><name>C7-04</name><description><![CDATA[<pre id="com.exlyo.mapmarker.description_p_tag"></pre>]]></description><phoneNumber></phoneNumber><Point><coordinates>-42.198876524446355,-21.529686770539218</coordinates></Point><TimeStamp><when>2025-12-29T20:54:45Z</when></TimeStamp><ExtendedData><Data name="com_exlyo_mapmarker_piniconcode"><value>-1</value></Data><Data name="com_exlyo_mapmarker_customfields"><value>[]</value></Data></ExtendedData><styleUrl>#mm_marker_color_3642</styleUrl></Placemark><Style id="mm_marker_color_3640"><IconStyle><color>ff3bebff</color><colorMode>normal</colorMode><scale>1</scale></IconStyle><LineStyle><color>ff3bebff</color><width>4</width></LineStyle><PolyStyle><color>ff3bebff</color></PolyStyle></Style><Placemark id="3640"><name>C7-05</name><description><![CDATA[<pre id="com.exlyo.mapmarker.description_p_tag"></pre>]]></description><phoneNumber></phoneNumber><Point><coordinates>-42.19907718931324,-21.530654473572113</coordinates></Point><TimeStamp><when>2025-12-29T20:55:06Z</when></TimeStamp><ExtendedData><Data name="com_exlyo_mapmarker_piniconcode"><value>-1</value></Data><Data name="com_exlyo_mapmarker_customfields"><value>[]</value></Data></ExtendedData><styleUrl>#mm_marker_color_3640</styleUrl></Placemark><Style id="mm_marker_color_3636"><IconStyle><color>ff3bebff</color><colorMode>normal</colorMode><scale>1</scale></IconStyle><LineStyle><color>ff3bebff</color><width>4</width></LineStyle><PolyStyle><color>ff3bebff</color></PolyStyle></Style><Placemark id="3636"><name>C7-06</name><description><![CDATA[<pre id="com.exlyo.mapmarker.description_p_tag"></pre>]]></description><phoneNumber></phoneNumber><Point><coordinates>-42.198623052349824,-21.530683946657433</coordinates></Point><TimeStamp><when>2025-12-29T20:55:41Z</when></TimeStamp><ExtendedData><Data name="com_exlyo_mapmarker_piniconcode"><value>-1</value></Data><Data name="com_exlyo_mapmarker_customfields"><value>[]</value></Data></ExtendedData><styleUrl>#mm_marker_color_3636</styleUrl></Placemark><Style id="mm_marker_color_3632"><IconStyle><color>ff3bebff</color><colorMode>normal</colorMode><scale>1</scale></IconStyle><LineStyle><color>ff3bebff</color><width>4</width></LineStyle><PolyStyle><color>ff3bebff</color></PolyStyle></Style><Placemark id="3632"><name>C7-07</name><description><![CDATA[<pre id="com.exlyo.mapmarker.description_p_tag"></pre>]]></description><phoneNumber></phoneNumber><Point><coordinates>-42.19902612268925,-21.53103119791321</coordinates></Point><TimeStamp><when>2026-03-27T20:54:55Z</when></TimeStamp><ExtendedData><Data name="com_exlyo_mapmarker_piniconcode"><value>-1</value></Data><Data name="com_exlyo_mapmarker_customfields"><value>[]</value></Data></ExtendedData><styleUrl>#mm_marker_color_3632</styleUrl></Placemark><Style id="mm_marker_color_3630"><IconStyle><color>ff3bebff</color><colorMode>normal</colorMode><scale>1</scale></IconStyle><LineStyle><color>ff3bebff</color><width>4</width></LineStyle><PolyStyle><color>ff3bebff</color></PolyStyle></Style><Placemark id="3630"><name>C7-08</name><description><![CDATA[<pre id="com.exlyo.mapmarker.description_p_tag"></pre>]]></description><phoneNumber></phoneNumber><Point><coordinates>-42.19918140000052,-21.531496200000102</coordinates></Point><TimeStamp><when>2026-03-27T20:55:53Z</when></TimeStamp><ExtendedData><Data name="com_exlyo_mapmarker_piniconcode"><value>-1</value></Data><Data name="com_exlyo_mapmarker_customfields"><value>[]</value></Data></ExtendedData><styleUrl>#mm_marker_color_3630</styleUrl></Placemark><Style id="mm_marker_color_3601"><IconStyle><color>ff3bebff</color><colorMode>normal</colorMode><scale>1</scale></IconStyle><LineStyle><color>ff3bebff</color><width>4</width></LineStyle><PolyStyle><color>ff3bebff</color></PolyStyle></Style><Placemark id="3601"><name>C7-09</name><description><![CDATA[<pre id="com.exlyo.mapmarker.description_p_tag"></pre>]]></description><phoneNumber></phoneNumber><Point><coordinates>-42.197273299098015,-21.530688129285892</coordinates></Point><TimeStamp><when>2026-03-27T21:02:22Z</when></TimeStamp><ExtendedData><Data name="com_exlyo_mapmarker_piniconcode"><value>-1</value></Data><Data name="com_exlyo_mapmarker_customfields"><value>[]</value></Data></ExtendedData><styleUrl>#mm_marker_color_3601</styleUrl></Placemark><Style id="mm_marker_color_3573"><IconStyle><color>ff3bebff</color><colorMode>normal</colorMode><scale>1</scale></IconStyle><LineStyle><color>ff3bebff</color><width>4</width></LineStyle><PolyStyle><color>ff3bebff</color></PolyStyle></Style><Placemark id="3573"><name>C7-10</name><description><![CDATA[<pre id="com.exlyo.mapmarker.description_p_tag"></pre>]]></description><phoneNumber></phoneNumber><Point><coordinates>-42.19778976996806,-21.531382902500045</coordinates></Point><TimeStamp><when>2026-03-27T21:05:22Z</when></TimeStamp><ExtendedData><Data name="com_exlyo_mapmarker_piniconcode"><value>-1</value></Data><Data name="com_exlyo_mapmarker_customfields"><value>[]</value></Data></ExtendedData><styleUrl>#mm_marker_color_3573</styleUrl></Placemark><Style id="mm_marker_color_3628"><IconStyle><color>ff3bebff</color><colorMode>normal</colorMode><scale>1</scale></IconStyle><LineStyle><color>ff3bebff</color><width>4</width></LineStyle><PolyStyle><color>ff3bebff</color></PolyStyle></Style><Placemark id="3628"><name>C7-11</name><description><![CDATA[<pre id="com.exlyo.mapmarker.description_p_tag"></pre>]]></description><phoneNumber></phoneNumber><Point><coordinates>-42.19810349638232,-21.531871198070633</coordinates></Point><TimeStamp><when>2026-03-27T20:57:46Z</when></TimeStamp><ExtendedData><Data name="com_exlyo_mapmarker_piniconcode"><value>-1</value></Data><Data name="com_exlyo_mapmarker_customfields"><value>[]</value></Data></ExtendedData><styleUrl>#mm_marker_color_3628</styleUrl></Placemark><Style id="mm_marker_color_3626"><IconStyle><color>ff3bebff</color><colorMode>normal</colorMode><scale>1</scale></IconStyle><LineStyle><color>ff3bebff</color><width>4</width></LineStyle><PolyStyle><color>ff3bebff</color></PolyStyle></Style><Placemark id="3626"><name>C7-12</name><description><![CDATA[<pre id="com.exlyo.mapmarker.description_p_tag"></pre>]]></description><phoneNumber></phoneNumber><Point><coordinates>-42.19694180159968,-21.5306529</coordinates></Point><TimeStamp><when>2026-03-27T21:01:01Z</when></TimeStamp><ExtendedData><Data name="com_exlyo_mapmarker_piniconcode"><value>-1</value></Data><Data name="com_exlyo_mapmarker_customfields"><value>[]</value></Data></ExtendedData><styleUrl>#mm_marker_color_3626</styleUrl></Placemark><Style id="mm_marker_color_3568"><IconStyle><color>ff3bebff</color><colorMode>normal</colorMode><scale>1</scale></IconStyle><LineStyle><color>ff3bebff</color><width>4</width></LineStyle><PolyStyle><color>ff3bebff</color></PolyStyle></Style><Placemark id="3568"><name>C7-13</name><description><![CDATA[<pre id="com.exlyo.mapmarker.description_p_tag"></pre>]]></description><phoneNumber></phoneNumber><Point><coordinates>-42.19565580000768,-21.53148020000633</coordinates></Point><TimeStamp><when>2026-03-27T21:19:52Z</when></TimeStamp><ExtendedData><Data name="com_exlyo_mapmarker_piniconcode"><value>-1</value></Data><Data name="com_exlyo_mapmarker_customfields"><value>[]</value></Data></ExtendedData><styleUrl>#mm_marker_color_3568</styleUrl></Placemark><Style id="mm_marker_color_3571"><IconStyle><color>ff3bebff</color><colorMode>normal</colorMode><scale>1</scale></IconStyle><LineStyle><color>ff3bebff</color><width>4</width></LineStyle><PolyStyle><color>ff3bebff</color></PolyStyle></Style><Placemark id="3571"><name>C7-14</name><description><![CDATA[<pre id="com.exlyo.mapmarker.description_p_tag"></pre>]]></description><phoneNumber></phoneNumber><Point><coordinates>-42.19639040003118,-21.53191000001962</coordinates></Point><TimeStamp><when>2026-03-27T21:15:53Z</when></TimeStamp><ExtendedData><Data name="com_exlyo_mapmarker_piniconcode"><value>-1</value></Data><Data name="com_exlyo_mapmarker_customfields"><value>[]</value></Data></ExtendedData><styleUrl>#mm_marker_color_3571</styleUrl></Placemark><Style id="mm_marker_color_3569"><IconStyle><color>ff3bebff</color><colorMode>normal</colorMode><scale>1</scale></IconStyle><LineStyle><color>ff3bebff</color><width>4</width></LineStyle><PolyStyle><color>ff3bebff</color></PolyStyle></Style><Placemark id="3569"><name>C7-15</name><description><![CDATA[<pre id="com.exlyo.mapmarker.description_p_tag"></pre>]]></description><phoneNumber></phoneNumber><Point><coordinates>-42.19624266028404,-21.53210624498995</coordinates></Point><TimeStamp><when>2026-03-27T21:19:19Z</when></TimeStamp><ExtendedData><Data name="com_exlyo_mapmarker_piniconcode"><value>-1</value></Data><Data name="com_exlyo_mapmarker_customfields"><value>[]</value></Data></ExtendedData><styleUrl>#mm_marker_color_3569</styleUrl></Placemark><Style id="mm_marker_color_2326"><IconStyle><color>ff3bebff</color><colorMode>normal</colorMode><scale>1</scale></IconStyle><LineStyle><color>ff3bebff</color><width>4</width></LineStyle><PolyStyle><color>ff3bebff</color></PolyStyle></Style><Placemark id="2326"><name>C7-16</name><description><![CDATA[<pre id="com.exlyo.mapmarker.description_p_tag"></pre>]]></description><phoneNumber></phoneNumber><Point><coordinates>-42.195468560934174,-21.531823402456897</coordinates></Point><TimeStamp><when>2026-03-27T21:22:57Z</when></TimeStamp><ExtendedData><Data name="com_exlyo_mapmarker_piniconcode"><value>-1</value></Data><Data name="com_exlyo_mapmarker_customfields"><value>[]</value></Data></ExtendedData><styleUrl>#mm_marker_color_2326</styleUrl></Placemark><Style id="mm_marker_color_3638"><IconStyle><color>ff3bebff</color><colorMode>normal</colorMode><scale>1</scale></IconStyle><LineStyle><color>ff3bebff</color><width>4</width></LineStyle><PolyStyle><color>ff3bebff</color></PolyStyle></Style><Placemark id="3638"><name>C7-17</name><description><![CDATA[<pre id="com.exlyo.mapmarker.description_p_tag"></pre>]]></description><phoneNumber></phoneNumber><Point><coordinates>-42.19595693386663,-21.53236409679872</coordinates></Point><TimeStamp><when>2026-03-27T21:24:12Z</when></TimeStamp><ExtendedData><Data name="com_exlyo_mapmarker_piniconcode"><value>-1</value></Data><Data name="com_exlyo_mapmarker_customfields"><value>[]</value></Data></ExtendedData><styleUrl>#mm_marker_color_3638</styleUrl></Placemark><Style id="mm_marker_color_3713"><IconStyle><color>ffb0279c</color><colorMode>normal</colorMode><scale>1</scale></IconStyle><LineStyle><color>ffb0279c</color><width>4</width></LineStyle><PolyStyle><color>ffb0279c</color></PolyStyle></Style><Placemark id="3713"><name>C8-01</name><description><![CDATA[<pre id="com.exlyo.mapmarker.description_p_tag"></pre>]]></description><phoneNumber></phoneNumber><Point><coordinates>-42.200363874435425,-21.528018092026304</coordinates></Point><TimeStamp><when>2025-12-29T18:51:58Z</when></TimeStamp><ExtendedData><Data name="com_exlyo_mapmarker_piniconcode"><value>-1</value></Data><Data name="com_exlyo_mapmarker_customfields"><value>[]</value></Data></ExtendedData><styleUrl>#mm_marker_color_3713</styleUrl></Placemark><Style id="mm_marker_color_3715"><IconStyle><color>ffb0279c</color><colorMode>normal</colorMode><scale>1</scale></IconStyle><LineStyle><color>ffb0279c</color><width>4</width></LineStyle><PolyStyle><color>ffb0279c</color></PolyStyle></Style><Placemark id="3715"><name>C8-02</name><description><![CDATA[<pre id="com.exlyo.mapmarker.description_p_tag"></pre>]]></description><phoneNumber></phoneNumber><Point><coordinates>-42.20076855272055,-21.527600787059168</coordinates></Point><TimeStamp><when>2025-12-29T18:45:20Z</when></TimeStamp><ExtendedData><Data name="com_exlyo_mapmarker_piniconcode"><value>-1</value></Data><Data name="com_exlyo_mapmarker_customfields"><value>[]</value></Data></ExtendedData><styleUrl>#mm_marker_color_3715</styleUrl></Placemark><Style id="mm_marker_color_3717"><IconStyle><color>ffb0279c</color><colorMode>normal</colorMode><scale>1</scale></IconStyle><LineStyle><color>ffb0279c</color><width>4</width></LineStyle><PolyStyle><color>ffb0279c</color></PolyStyle></Style><Placemark id="3717"><name>C8-03</name><description><![CDATA[<pre id="com.exlyo.mapmarker.description_p_tag"></pre>]]></description><phoneNumber></phoneNumber><Point><coordinates>-42.20022641122341,-21.52699853091587</coordinates></Point><TimeStamp><when>2025-12-29T18:42:49Z</when></TimeStamp><ExtendedData><Data name="com_exlyo_mapmarker_piniconcode"><value>-1</value></Data><Data name="com_exlyo_mapmarker_customfields"><value>[]</value></Data></ExtendedData><styleUrl>#mm_marker_color_3717</styleUrl></Placemark><Style id="mm_marker_color_3719"><IconStyle><color>ffb0279c</color><colorMode>normal</colorMode><scale>1</scale></IconStyle><LineStyle><color>ffb0279c</color><width>4</width></LineStyle><PolyStyle><color>ffb0279c</color></PolyStyle></Style><Placemark id="3719"><name>C8-04</name><description><![CDATA[<pre id="com.exlyo.mapmarker.description_p_tag"></pre>]]></description><phoneNumber></phoneNumber><Point><coordinates>-42.20114431148128,-21.527513733610068</coordinates></Point><TimeStamp><when>2025-12-29T18:46:32Z</when></TimeStamp><ExtendedData><Data name="com_exlyo_mapmarker_piniconcode"><value>-1</value></Data><Data name="com_exlyo_mapmarker_customfields"><value>[]</value></Data></ExtendedData><styleUrl>#mm_marker_color_3719</styleUrl></Placemark><Style id="mm_marker_color_3721"><IconStyle><color>ffb0279c</color><colorMode>normal</colorMode><scale>1</scale></IconStyle><LineStyle><color>ffb0279c</color><width>4</width></LineStyle><PolyStyle><color>ffb0279c</color></PolyStyle></Style><Placemark id="3721"><name>C8-05</name><description><![CDATA[<pre id="com.exlyo.mapmarker.description_p_tag"></pre>]]></description><phoneNumber></phoneNumber><Point><coordinates>-42.20122721405264,-21.5285094898226</coordinates></Point><TimeStamp><when>2025-12-29T18:48:37Z</when></TimeStamp><ExtendedData><Data name="com_exlyo_mapmarker_piniconcode"><value>-1</value></Data><Data name="com_exlyo_mapmarker_customfields"><value>[]</value></Data></ExtendedData><styleUrl>#mm_marker_color_3721</styleUrl></Placemark><Style id="mm_marker_color_3723"><IconStyle><color>ffb0279c</color><colorMode>normal</colorMode><scale>1</scale></IconStyle><LineStyle><color>ffb0279c</color><width>4</width></LineStyle><PolyStyle><color>ffb0279c</color></PolyStyle></Style><Placemark id="3723"><name>C8-06</name><description><![CDATA[<pre id="com.exlyo.mapmarker.description_p_tag"></pre>]]></description><phoneNumber></phoneNumber><Point><coordinates>-42.2003665,-21.5286915</coordinates></Point><TimeStamp><when>2025-12-29T18:54:09Z</when></TimeStamp><ExtendedData><Data name="com_exlyo_mapmarker_piniconcode"><value>-1</value></Data><Data name="com_exlyo_mapmarker_customfields"><value>[]</value></Data></ExtendedData><styleUrl>#mm_marker_color_3723</styleUrl></Placemark><Style id="mm_marker_color_3725"><IconStyle><color>ffb0279c</color><colorMode>normal</colorMode><scale>1</scale></IconStyle><LineStyle><color>ffb0279c</color><width>4</width></LineStyle><PolyStyle><color>ffb0279c</color></PolyStyle></Style><Placemark id="3725"><name>C8-07</name><description><![CDATA[<pre id="com.exlyo.mapmarker.description_p_tag"></pre>]]></description><phoneNumber></phoneNumber><Point><coordinates>-42.20025558024645,-21.52885488155786</coordinates></Point><TimeStamp><when>2025-12-29T19:14:26Z</when></TimeStamp><ExtendedData><Data name="com_exlyo_mapmarker_piniconcode"><value>-1</value></Data><Data name="com_exlyo_mapmarker_customfields"><value>[]</value></Data></ExtendedData><styleUrl>#mm_marker_color_3725</styleUrl></Placemark><Style id="mm_marker_color_3727"><IconStyle><color>ffb0279c</color><colorMode>normal</colorMode><scale>1</scale></IconStyle><LineStyle><color>ffb0279c</color><width>4</width></LineStyle><PolyStyle><color>ffb0279c</color></PolyStyle></Style><Placemark id="3727"><name>C8-08</name><description><![CDATA[<pre id="com.exlyo.mapmarker.description_p_tag"></pre>]]></description><phoneNumber></phoneNumber><Point><coordinates>-42.2007849,-21.5297845</coordinates></Point><TimeStamp><when>2025-12-29T19:15:25Z</when></TimeStamp><ExtendedData><Data name="com_exlyo_mapmarker_piniconcode"><value>-1</value></Data><Data name="com_exlyo_mapmarker_customfields"><value>[]</value></Data></ExtendedData><styleUrl>#mm_marker_color_3727</styleUrl></Placemark><Style id="mm_marker_color_3729"><IconStyle><color>ffb0279c</color><colorMode>normal</colorMode><scale>1</scale></IconStyle><LineStyle><color>ffb0279c</color><width>4</width></LineStyle><PolyStyle><color>ffb0279c</color></PolyStyle></Style><Placemark id="3729"><name>C8-09</name><description><![CDATA[<pre id="com.exlyo.mapmarker.description_p_tag"></pre>]]></description><phoneNumber></phoneNumber><Point><coordinates>-42.20009498298168,-21.530598307547777</coordinates></Point><TimeStamp><when>2025-12-29T19:16:35Z</when></TimeStamp><ExtendedData><Data name="com_exlyo_mapmarker_piniconcode"><value>-1</value></Data><Data name="com_exlyo_mapmarker_customfields"><value>[]</value></Data></ExtendedData><styleUrl>#mm_marker_color_3729</styleUrl></Placemark><Style id="mm_marker_color_3731"><IconStyle><color>ffb0279c</color><colorMode>normal</colorMode><scale>1</scale></IconStyle><LineStyle><color>ffb0279c</color><width>4</width></LineStyle><PolyStyle><color>ffb0279c</color></PolyStyle></Style><Placemark id="3731"><name>C8-10</name><description><![CDATA[<pre id="com.exlyo.mapmarker.description_p_tag"></pre>]]></description><phoneNumber></phoneNumber><Point><coordinates>-42.20087601348423,-21.530438932333936</coordinates></Point><TimeStamp><when>2025-12-29T19:08:39Z</when></TimeStamp><ExtendedData><Data name="com_exlyo_mapmarker_piniconcode"><value>-1</value></Data><Data name="com_exlyo_mapmarker_customfields"><value>[]</value></Data></ExtendedData><styleUrl>#mm_marker_color_3731</styleUrl></Placemark><Style id="mm_marker_color_3733"><IconStyle><color>ffb0279c</color><colorMode>normal</colorMode><scale>1</scale></IconStyle><LineStyle><color>ffb0279c</color><width>4</width></LineStyle><PolyStyle><color>ffb0279c</color></PolyStyle></Style><Placemark id="3733"><name>C8-11</name><description><![CDATA[<pre id="com.exlyo.mapmarker.description_p_tag"></pre>]]></description><phoneNumber></phoneNumber><Point><coordinates>-42.20023391616619,-21.530941102424443</coordinates></Point><TimeStamp><when>2025-12-29T19:10:57Z</when></TimeStamp><ExtendedData><Data name="com_exlyo_mapmarker_piniconcode"><value>-1</value></Data><Data name="com_exlyo_mapmarker_customfields"><value>[]</value></Data></ExtendedData><styleUrl>#mm_marker_color_3733</styleUrl></Placemark><Style id="mm_marker_color_3735"><IconStyle><color>ffb0279c</color><colorMode>normal</colorMode><scale>1</scale></IconStyle><LineStyle><color>ffb0279c</color><width>4</width></LineStyle><PolyStyle><color>ffb0279c</color></PolyStyle></Style><Placemark id="3735"><name>C8-12</name><description><![CDATA[<pre id="com.exlyo.mapmarker.description_p_tag"></pre>]]></description><phoneNumber></phoneNumber><Point><coordinates>-42.199968017491955,-21.52911581092079</coordinates></Point><TimeStamp><when>2025-12-29T19:19:18Z</when></TimeStamp><ExtendedData><Data name="com_exlyo_mapmarker_piniconcode"><value>-1</value></Data><Data name="com_exlyo_mapmarker_customfields"><value>[]</value></Data></ExtendedData><styleUrl>#mm_marker_color_3735</styleUrl></Placemark><Style id="mm_marker_color_3737"><IconStyle><color>ffb0279c</color><colorMode>normal</colorMode><scale>1</scale></IconStyle><LineStyle><color>ffb0279c</color><width>4</width></LineStyle><PolyStyle><color>ffb0279c</color></PolyStyle></Style><Placemark id="3737"><name>C8-13</name><description><![CDATA[<pre id="com.exlyo.mapmarker.description_p_tag"></pre>]]></description><phoneNumber></phoneNumber><Point><coordinates>-42.20023582566395,-21.529702894344005</coordinates></Point><TimeStamp><when>2025-12-29T19:03:37Z</when></TimeStamp><ExtendedData><Data name="com_exlyo_mapmarker_piniconcode"><value>-1</value></Data><Data name="com_exlyo_mapmarker_customfields"><value>[]</value></Data></ExtendedData><styleUrl>#mm_marker_color_3737</styleUrl></Placemark><Style id="mm_marker_color_3739"><IconStyle><color>ffb0279c</color><colorMode>normal</colorMode><scale>1</scale></IconStyle><LineStyle><color>ffb0279c</color><width>4</width></LineStyle><PolyStyle><color>ffb0279c</color></PolyStyle></Style><Placemark id="3739"><name>C8-14</name><description><![CDATA[<pre id="com.exlyo.mapmarker.description_p_tag"></pre>]]></description><phoneNumber></phoneNumber><Point><coordinates>-42.19984855502844,-21.529884098000302</coordinates></Point><TimeStamp><when>2025-12-29T19:02:23Z</when></TimeStamp><ExtendedData><Data name="com_exlyo_mapmarker_piniconcode"><value>-1</value></Data><Data name="com_exlyo_mapmarker_customfields"><value>[]</value></Data></ExtendedData><styleUrl>#mm_marker_color_3739</styleUrl></Placemark><Style id="mm_marker_color_3741"><IconStyle><color>ffb0279c</color><colorMode>normal</colorMode><scale>1</scale></IconStyle><LineStyle><color>ffb0279c</color><width>4</width></LineStyle><PolyStyle><color>ffb0279c</color></PolyStyle></Style><Placemark id="3741"><name>C8-15</name><description><![CDATA[<pre id="com.exlyo.mapmarker.description_p_tag"></pre>]]></description><phoneNumber></phoneNumber><Point><coordinates>-42.19926316291094,-21.529777745972478</coordinates></Point><TimeStamp><when>2025-12-29T19:24:08Z</when></TimeStamp><ExtendedData><Data name="com_exlyo_mapmarker_piniconcode"><value>-1</value></Data><Data name="com_exlyo_mapmarker_customfields"><value>[]</value></Data></ExtendedData><styleUrl>#mm_marker_color_3741</styleUrl></Placemark><Style id="mm_marker_color_3743"><IconStyle><color>ffb0279c</color><colorMode>normal</colorMode><scale>1</scale></IconStyle><LineStyle><color>ffb0279c</color><width>4</width></LineStyle><PolyStyle><color>ffb0279c</color></PolyStyle></Style><Placemark id="3743"><name>C8-16</name><description><![CDATA[<pre id="com.exlyo.mapmarker.description_p_tag"></pre>]]></description><phoneNumber></phoneNumber><Point><coordinates>-42.19899728894234,-21.529098151557022</coordinates></Point><TimeStamp><when>2025-12-29T19:31:50Z</when></TimeStamp><ExtendedData><Data name="com_exlyo_mapmarker_piniconcode"><value>-1</value></Data><Data name="com_exlyo_mapmarker_customfields"><value>[]</value></Data></ExtendedData><styleUrl>#mm_marker_color_3743</styleUrl></Placemark><Style id="mm_marker_color_3654"><IconStyle><color>ff3bebff</color><colorMode>normal</colorMode><scale>1</scale></IconStyle><LineStyle><color>ff3bebff</color><width>4</width></LineStyle><PolyStyle><color>ff3bebff</color></PolyStyle></Style><Placemark id="3654"><name>Célula 07</name><description><![CDATA[<pre id="com.exlyo.mapmarker.description_p_tag"></pre>]]></description><phoneNumber></phoneNumber><Point><coordinates>-42.19721338594576,-21.53042644163722</coordinates></Point><TimeStamp><when>2026-03-27T23:58:42Z</when></TimeStamp><ExtendedData><Data name="com_exlyo_mapmarker_piniconcode"><value>-4</value></Data><Data name="com_exlyo_mapmarker_customfields"><value>[]</value></Data></ExtendedData><styleUrl>#mm_marker_color_3654</styleUrl></Placemark><Style id="mm_marker_color_3745"><IconStyle><color>ffb0279c</color><colorMode>normal</colorMode><scale>1</scale></IconStyle><LineStyle><color>ffb0279c</color><width>4</width></LineStyle><PolyStyle><color>ffb0279c</color></PolyStyle></Style><Placemark id="3745"><name>Célula 08</name><description><![CDATA[<pre id="com.exlyo.mapmarker.description_p_tag"></pre>]]></description><phoneNumber></phoneNumber><Point><coordinates>-42.199975697717285,-21.52848001629592</coordinates></Point><TimeStamp><when>2025-12-29T20:50:49Z</when></TimeStamp><ExtendedData><Data name="com_exlyo_mapmarker_piniconcode"><value>-1</value></Data><Data name="com_exlyo_mapmarker_customfields"><value>[]</value></Data></ExtendedData><styleUrl>#mm_marker_color_3745</styleUrl></Placemark><Style id="mm_marker_color_3747"><IconStyle><color>ffb0279c</color><colorMode>normal</colorMode><scale>1</scale></IconStyle><LineStyle><color>ffb0279c</color><width>4</width></LineStyle><PolyStyle><color>ffb0279c</color></PolyStyle></Style><Placemark id="3747"><name>Marcador 17</name><description><![CDATA[<pre id="com.exlyo.mapmarker.description_p_tag"></pre>]]></description><phoneNumber></phoneNumber><LineString><coordinates> -42.20022821256559,-21.530925186107044 -42.20054190121251,-21.530691746502296 -42.20088410681918,-21.530415862783123 -42.20114076102431,-21.530060396738733 -42.20126053298666,-21.529747373528426 -42.20077574153672,-21.52975267892986 -42.20051338373104,-21.530171811587962 -42.200102737003235,-21.530569721066396 -42.200102737003235,-21.530569721066396</coordinates></LineString><TimeStamp><when>2025-12-29T20:37:21Z</when></TimeStamp><ExtendedData><Data name="com_exlyo_mapmarker_piniconcode"><value>-1</value></Data><Data name="com_exlyo_mapmarker_customfields"><value>[]</value></Data></ExtendedData><styleUrl>#mm_marker_color_3747</styleUrl></Placemark><Style id="mm_marker_color_3749"><IconStyle><color>ffb0279c</color><colorMode>normal</colorMode><scale>1</scale></IconStyle><LineStyle><color>ffb0279c</color><width>4</width></LineStyle><PolyStyle><color>ffb0279c</color></PolyStyle></Style><Placemark id="3749"><name>Marcador 18</name><description><![CDATA[<pre id="com.exlyo.mapmarker.description_p_tag"></pre>]]></description><phoneNumber></phoneNumber><LineString><coordinates> -42.20075863073482,-21.529747373528362 -42.20076433381349,-21.529540459564068 -42.200541900169206,-21.529248657399393 -42.20025672900448,-21.528818911206557 -42.20006851592098,-21.528527107592463 -42.19998866812021,-21.528489968979176 -42.19998866812021,-21.528489968979176</coordinates></LineString><TimeStamp><when>2025-12-29T20:38:26Z</when></TimeStamp><ExtendedData><Data name="com_exlyo_mapmarker_piniconcode"><value>-1</value></Data><Data name="com_exlyo_mapmarker_customfields"><value>[]</value></Data></ExtendedData><styleUrl>#mm_marker_color_3749</styleUrl></Placemark><Style id="mm_marker_color_3751"><IconStyle><color>ffb0279c</color><colorMode>normal</colorMode><scale>1</scale></IconStyle><LineStyle><color>ffb0279c</color><width>4</width></LineStyle><PolyStyle><color>ffb0279c</color></PolyStyle></Style><Placemark id="3751"><name>Marcador 19</name><description><![CDATA[<pre id="com.exlyo.mapmarker.description_p_tag"></pre>]]></description><phoneNumber></phoneNumber><LineString><coordinates> -42.19999437172228,-21.528479357841572 -42.20036509428909,-21.528627912733942</coordinates></LineString><TimeStamp><when>2025-12-29T20:39:30Z</when></TimeStamp><ExtendedData><Data name="com_exlyo_mapmarker_piniconcode"><value>-1</value></Data><Data name="com_exlyo_mapmarker_customfields"><value>[]</value></Data></ExtendedData><styleUrl>#mm_marker_color_3751</styleUrl></Placemark><Style id="mm_marker_color_3753"><IconStyle><color>ffb0279c</color><colorMode>normal</colorMode><scale>1</scale></IconStyle><LineStyle><color>ffb0279c</color><width>4</width></LineStyle><PolyStyle><color>ffb0279c</color></PolyStyle></Style><Placemark id="3753"><name>Marcador 20</name><description><![CDATA[<pre id="com.exlyo.mapmarker.description_p_tag"></pre>]]></description><phoneNumber></phoneNumber><LineString><coordinates> -42.19996585424069,-21.528479358084315 -42.19986319255879,-21.528436913766676 -42.200376500968986,-21.52801247063712 -42.200758630737255,-21.527588026267324 -42.200211101766975,-21.526930135249 -42.200211101766975,-21.526930135249</coordinates></LineString><TimeStamp><when>2025-12-29T20:40:16Z</when></TimeStamp><ExtendedData><Data name="com_exlyo_mapmarker_piniconcode"><value>-1</value></Data><Data name="com_exlyo_mapmarker_customfields"><value>[]</value></Data></ExtendedData><styleUrl>#mm_marker_color_3753</styleUrl></Placemark><Style id="mm_marker_color_3755"><IconStyle><color>ffb0279c</color><colorMode>normal</colorMode><scale>1</scale></IconStyle><LineStyle><color>ffb0279c</color><width>4</width></LineStyle><PolyStyle><color>ffb0279c</color></PolyStyle></Style><Placemark id="3755"><name>Marcador 21</name><description><![CDATA[<pre id="com.exlyo.mapmarker.description_p_tag"></pre>]]></description><phoneNumber></phoneNumber><LineString><coordinates> -42.20074981145002,-21.527580573032452 -42.20115072831876,-21.52722581605764 -42.2011507283188,-21.527480512905402 -42.201228955673095,-21.52849929791218 -42.201228955673095,-21.52849929791218</coordinates></LineString><TimeStamp><when>2025-12-29T20:41:17Z</when></TimeStamp><ExtendedData><Data name="com_exlyo_mapmarker_piniconcode"><value>-1</value></Data><Data name="com_exlyo_mapmarker_customfields"><value>[]</value></Data></ExtendedData><styleUrl>#mm_marker_color_3755</styleUrl></Placemark><Style id="mm_marker_color_3757"><IconStyle><color>ffb0279c</color><colorMode>normal</colorMode><scale>1</scale></IconStyle><LineStyle><color>ffb0279c</color><width>4</width></LineStyle><PolyStyle><color>ffb0279c</color></PolyStyle></Style><Placemark id="3757"><name>Marcador 22</name><description><![CDATA[<pre id="com.exlyo.mapmarker.description_p_tag"></pre>]]></description><phoneNumber></phoneNumber><LineString><coordinates> -42.19995775602071,-21.52846291299028 -42.199967533880574,-21.52907236141624 -42.20025110882282,-21.52966361476496 -42.20012398858914,-21.52990921171756 -42.19994797637102,-21.529763672555223 -42.19984041364717,-21.52985463465286 -42.19984041364717,-21.52985463465286</coordinates></LineString><TimeStamp><when>2025-12-29T20:42:10Z</when></TimeStamp><ExtendedData><Data name="com_exlyo_mapmarker_piniconcode"><value>-1</value></Data><Data name="com_exlyo_mapmarker_customfields"><value>[]</value></Data></ExtendedData><styleUrl>#mm_marker_color_3757</styleUrl></Placemark><Style id="mm_marker_color_3650"><IconStyle><color>ff3bebff</color><colorMode>normal</colorMode><scale>1</scale></IconStyle><LineStyle><color>ff3bebff</color><width>4</width></LineStyle><PolyStyle><color>ff3bebff</color></PolyStyle></Style><Placemark id="3650"><name>Marcador 23</name><description><![CDATA[<pre id="com.exlyo.mapmarker.description_p_tag"></pre>]]></description><phoneNumber></phoneNumber><LineString><coordinates> -42.19834547749874,-21.530137903766192 -42.19908806427158,-21.53062687641865 -42.19908806427158,-21.53062687641865</coordinates></LineString><TimeStamp><when>2026-03-27T23:56:51Z</when></TimeStamp><ExtendedData><Data name="com_exlyo_mapmarker_piniconcode"><value>-1</value></Data><Data name="com_exlyo_mapmarker_customfields"><value>[]</value></Data></ExtendedData><styleUrl>#mm_marker_color_3650</styleUrl></Placemark><Style id="mm_marker_color_3759"><IconStyle><color>ffb0279c</color><colorMode>normal</colorMode><scale>1</scale></IconStyle><LineStyle><color>ffb0279c</color><width>4</width></LineStyle><PolyStyle><color>ffb0279c</color></PolyStyle></Style><Placemark id="3759"><name>Marcador 23</name><description><![CDATA[<pre id="com.exlyo.mapmarker.description_p_tag"></pre>]]></description><phoneNumber></phoneNumber><LineString><coordinates> -42.197617754062776,-21.530147010700855 -42.19808773276114,-21.529778595341934 -42.198990725386565,-21.52908597193697 -42.19983035010837,-21.528452292311353 -42.19998348928918,-21.528496502607528 -42.19998348928918,-21.528496502607528</coordinates></LineString><TimeStamp><when>2025-12-29T20:49:37Z</when></TimeStamp><ExtendedData><Data name="com_exlyo_mapmarker_piniconcode"><value>-1</value></Data><Data name="com_exlyo_mapmarker_customfields"><value>[]</value></Data></ExtendedData><styleUrl>#mm_marker_color_3759</styleUrl></Placemark><Style id="mm_marker_color_3652"><IconStyle><color>ff3bebff</color><colorMode>normal</colorMode><scale>1</scale></IconStyle><LineStyle><color>ff3bebff</color><width>4</width></LineStyle><PolyStyle><color>ff3bebff</color></PolyStyle></Style><Placemark id="3652"><name>Marcador 24</name><description><![CDATA[<pre id="com.exlyo.mapmarker.description_p_tag"></pre>]]></description><phoneNumber></phoneNumber><LineString><coordinates> -42.19782679974949,-21.530565238317696 -42.19802574484931,-21.53085825435021 -42.19859771201116,-21.530688613895595 -42.19903704885359,-21.53099705202892 -42.19941007091575,-21.53132862227399 -42.19920283694286,-21.53146741879756 -42.19920283694286,-21.53146741879756</coordinates></LineString><TimeStamp><when>2026-03-27T23:58:11Z</when></TimeStamp><ExtendedData><Data name="com_exlyo_mapmarker_piniconcode"><value>-1</value></Data><Data name="com_exlyo_mapmarker_customfields"><value>[]</value></Data></ExtendedData><styleUrl>#mm_marker_color_3652</styleUrl></Placemark><Style id="mm_marker_color_3761"><IconStyle><color>ffb0279c</color><colorMode>normal</colorMode><scale>1</scale></IconStyle><LineStyle><color>ffb0279c</color><width>4</width></LineStyle><PolyStyle><color>ffb0279c</color></PolyStyle></Style><Placemark id="3761"><name>Marcador 24</name><description><![CDATA[<pre id="com.exlyo.mapmarker.description_p_tag"></pre>]]></description><phoneNumber></phoneNumber><LineString><coordinates> -42.19997820895315,-21.529076147842225 -42.19989371825407,-21.529218602430934 -42.19957159791709,-21.529483862606405 -42.1992600392196,-21.529778595566494 -42.1992600392196,-21.529778595566494</coordinates></LineString><TimeStamp><when>2025-12-29T20:50:04Z</when></TimeStamp><ExtendedData><Data name="com_exlyo_mapmarker_piniconcode"><value>-1</value></Data><Data name="com_exlyo_mapmarker_customfields"><value>[]</value></Data></ExtendedData><styleUrl>#mm_marker_color_3761</styleUrl></Placemark><Style id="mm_marker_color_3660"><IconStyle><color>ff3bebff</color><colorMode>normal</colorMode><scale>1</scale></IconStyle><LineStyle><color>ff3bebff</color><width>4</width></LineStyle><PolyStyle><color>ff3bebff</color></PolyStyle></Style><Placemark id="3660"><name>Marcador 26</name><description><![CDATA[<pre id="com.exlyo.mapmarker.description_p_tag"></pre>]]></description><phoneNumber></phoneNumber><LineString><coordinates> -42.195680433845176,-21.531476200310284 -42.19623582250167,-21.532077650342917 -42.19623582250167,-21.532077650342917</coordinates></LineString><TimeStamp><when>2026-03-28T00:02:06Z</when></TimeStamp><ExtendedData><Data name="com_exlyo_mapmarker_piniconcode"><value>-1</value></Data><Data name="com_exlyo_mapmarker_customfields"><value>[]</value></Data></ExtendedData><styleUrl>#mm_marker_color_3660</styleUrl></Placemark><Style id="mm_marker_color_3658"><IconStyle><color>ff3bebff</color><colorMode>normal</colorMode><scale>1</scale></IconStyle><LineStyle><color>ff3bebff</color><width>4</width></LineStyle><PolyStyle><color>ff3bebff</color></PolyStyle></Style><Placemark id="3658"><name>Marcador 27</name><description><![CDATA[<pre id="com.exlyo.mapmarker.description_p_tag"></pre>]]></description><phoneNumber></phoneNumber><LineString><coordinates> -42.197205095176194,-21.530472707094013 -42.19713049076434,-21.530418730078612 -42.19607774011797,-21.53115898130911 -42.195737875825614,-21.531182114099284 -42.195737875825614,-21.531182114099284 -42.195663271413366,-21.531459707293635 -42.19536485376383,-21.531637058340984 -42.19546432631371,-21.531768144142372 -42.195945110557865,-21.532300195504618 -42.195945110557865,-21.532300195504618</coordinates></LineString><TimeStamp><when>2026-03-28T00:01:23Z</when></TimeStamp><ExtendedData><Data name="com_exlyo_mapmarker_piniconcode"><value>-1</value></Data><Data name="com_exlyo_mapmarker_customfields"><value>[]</value></Data></ExtendedData><styleUrl>#mm_marker_color_3658</styleUrl></Placemark><Style id="mm_marker_color_3662"><IconStyle><color>ff3bebff</color><colorMode>normal</colorMode><scale>1</scale></IconStyle><LineStyle><color>ff3bebff</color><width>4</width></LineStyle><PolyStyle><color>ff3bebff</color></PolyStyle></Style><Placemark id="3662"><name>Marcador 27</name><description><![CDATA[<pre id="com.exlyo.mapmarker.description_p_tag"></pre>]]></description><phoneNumber></phoneNumber><LineString><coordinates> -42.195688723477524,-21.531453067567032 -42.19589595782992,-21.531329692638437 -42.19641818871704,-21.53188487793256 -42.19641818871704,-21.53188487793256</coordinates></LineString><TimeStamp><when>2026-03-28T00:02:27Z</when></TimeStamp><ExtendedData><Data name="com_exlyo_mapmarker_piniconcode"><value>-1</value></Data><Data name="com_exlyo_mapmarker_customfields"><value>[]</value></Data></ExtendedData><styleUrl>#mm_marker_color_3662</styleUrl></Placemark><Style id="mm_marker_color_3664"><IconStyle><color>ff3bebff</color><colorMode>normal</colorMode><scale>1</scale></IconStyle><LineStyle><color>ff3bebff</color><width>4</width></LineStyle><PolyStyle><color>ff3bebff</color></PolyStyle></Style><Placemark id="3664"><name>Marcador 28</name><description><![CDATA[<pre id="com.exlyo.mapmarker.description_p_tag"></pre>]]></description><phoneNumber></phoneNumber><LineString><coordinates> -42.19721338594576,-21.53042644163722 -42.19762785540959,-21.530218245309854 -42.19762785540959,-21.530218245309854</coordinates></LineString><TimeStamp><when>2026-03-28T00:06:16Z</when></TimeStamp><ExtendedData><Data name="com_exlyo_mapmarker_piniconcode"><value>-1</value></Data><Data name="com_exlyo_mapmarker_customfields"><value>[]</value></Data></ExtendedData><styleUrl>#mm_marker_color_3664</styleUrl></Placemark></Folder></Document></kml>