<?xml version='1.0' encoding='UTF-8' ?>
<kml xmlns="http://www.opengis.net/kml/2.2" xmlns:gx="http://www.google.com/kml/ext/2.2"><Document><name>2025/10/23 @ 16:53:33</name><Style id="mm_folder_color_25"><IconStyle><color>ff00b371</color><colorMode>normal</colorMode><scale>1</scale></IconStyle><LineStyle><color>ff00b371</color><width>4</width></LineStyle><PolyStyle><color>ff00b371</color></PolyStyle></Style><Folder id="25"><styleUrl>#mm_folder_color_25</styleUrl><name>Célula 01 Pádua </name><ExtendedData><Data name="com_exlyo_mapmarker_piniconcode"><value>-1</value></Data><Data name="com_exlyo_mapmarker_customfields"><value>[]</value></Data></ExtendedData><Style id="mm_marker_color_379"><IconStyle><color>ff00b371</color><colorMode>normal</colorMode><scale>1</scale></IconStyle><LineStyle><color>ff00b371</color><width>4</width></LineStyle><PolyStyle><color>ff00b371</color></PolyStyle></Style><Placemark id="379"><name></name><description><![CDATA[<pre id="com.exlyo.mapmarker.description_p_tag"></pre>]]></description><phoneNumber></phoneNumber><LineString><coordinates> -42.204973585903645,-21.525461846366134 -42.20401402562857,-21.52476227056421 -42.20372837036848,-21.525130928406256</coordinates></LineString><TimeStamp><when>2025-09-18T14:22:11Z</when></TimeStamp><ExtendedData><Data name="com_exlyo_mapmarker_piniconcode"><value>-1</value></Data><Data name="com_exlyo_mapmarker_customfields"><value>[]</value></Data></ExtendedData><styleUrl>#mm_marker_color_379</styleUrl></Placemark><Style id="mm_marker_color_380"><IconStyle><color>ff00b371</color><colorMode>normal</colorMode><scale>1</scale></IconStyle><LineStyle><color>ff00b371</color><width>4</width></LineStyle><PolyStyle><color>ff00b371</color></PolyStyle></Style><Placemark id="380"><name></name><description><![CDATA[<pre id="com.exlyo.mapmarker.description_p_tag"></pre>]]></description><phoneNumber></phoneNumber><LineString><coordinates> -42.20586106181145,-21.52618605815899 -42.20495514571667,-21.525457167983653 -42.20521230250597,-21.52511970026244 -42.20551673322916,-21.52525319036049 -42.20426548272371,-21.524382383585795 -42.20502018928528,-21.52276925638575 -42.20544163137674,-21.522838185814567 -42.205611281096935,-21.522199417728306 -42.205763161182404,-21.521636438644254 -42.20623590052128,-21.521750594136222 -42.20615543425083,-21.521822331148133 -42.20615543425083,-21.521822331148133</coordinates></LineString><TimeStamp><when>2025-09-18T14:19:43Z</when></TimeStamp><ExtendedData><Data name="com_exlyo_mapmarker_piniconcode"><value>-1</value></Data><Data name="com_exlyo_mapmarker_customfields"><value>[]</value></Data></ExtendedData><styleUrl>#mm_marker_color_380</styleUrl></Placemark><Style id="mm_marker_color_381"><IconStyle><color>ff00b371</color><colorMode>normal</colorMode><scale>1</scale></IconStyle><LineStyle><color>ff00b371</color><width>4</width></LineStyle><PolyStyle><color>ff00b371</color></PolyStyle></Style><Placemark id="381"><name></name><description><![CDATA[<pre id="com.exlyo.mapmarker.description_p_tag"></pre>]]></description><phoneNumber></phoneNumber><LineString><coordinates> -42.208176143467426,-21.52629054147448 -42.20715321600437,-21.525578182095654 -42.20671232789755,-21.525275958519163 -42.20603071153164,-21.526195726767458 -42.20603071153164,-21.526195726767458</coordinates></LineString><TimeStamp><when>2025-09-18T13:51:55Z</when></TimeStamp><ExtendedData><Data name="com_exlyo_mapmarker_piniconcode"><value>-1</value></Data><Data name="com_exlyo_mapmarker_customfields"><value>[]</value></Data></ExtendedData><styleUrl>#mm_marker_color_381</styleUrl></Placemark><Style id="mm_marker_color_382"><IconStyle><color>ff00b371</color><colorMode>normal</colorMode><scale>1</scale></IconStyle><LineStyle><color>ff00b371</color><width>4</width></LineStyle><PolyStyle><color>ff00b371</color></PolyStyle></Style><Placemark id="382"><name></name><description><![CDATA[<pre id="com.exlyo.mapmarker.description_p_tag"></pre>]]></description><phoneNumber></phoneNumber><LineString><coordinates> -42.20753241330385,-21.523667207785632 -42.207895182073116,-21.523927640724043</coordinates></LineString><TimeStamp><when>2025-09-18T13:45:08Z</when></TimeStamp><ExtendedData><Data name="com_exlyo_mapmarker_piniconcode"><value>-1</value></Data><Data name="com_exlyo_mapmarker_customfields"><value>[]</value></Data></ExtendedData><styleUrl>#mm_marker_color_382</styleUrl></Placemark><Style id="mm_marker_color_383"><IconStyle><color>ff00b371</color><colorMode>normal</colorMode><scale>1</scale></IconStyle><LineStyle><color>ff00b371</color><width>4</width></LineStyle><PolyStyle><color>ff00b371</color></PolyStyle></Style><Placemark id="383"><name></name><description><![CDATA[<pre id="com.exlyo.mapmarker.description_p_tag"></pre>]]></description><phoneNumber></phoneNumber><LineString><coordinates> -42.20555327832699,-21.525268473097537 -42.20523443073034,-21.524993695477917 -42.20551036298275,-21.524688351747233 -42.20551036298275,-21.524688351747233</coordinates></LineString><TimeStamp><when>2025-09-18T14:20:26Z</when></TimeStamp><ExtendedData><Data name="com_exlyo_mapmarker_piniconcode"><value>-1</value></Data><Data name="com_exlyo_mapmarker_customfields"><value>[]</value></Data></ExtendedData><styleUrl>#mm_marker_color_383</styleUrl></Placemark><Style id="mm_marker_color_384"><IconStyle><color>ff00b371</color><colorMode>normal</colorMode><scale>1</scale></IconStyle><LineStyle><color>ff00b371</color><width>4</width></LineStyle><PolyStyle><color>ff00b371</color></PolyStyle></Style><Placemark id="384"><name></name><description><![CDATA[<pre id="com.exlyo.mapmarker.description_p_tag"></pre>]]></description><phoneNumber></phoneNumber><LineString><coordinates> -42.20591705292463,-21.526170775518484 -42.207463681697845,-21.52442823206692 -42.2079012170434,-21.523916412487218</coordinates></LineString><TimeStamp><when>2025-09-18T13:44:21Z</when></TimeStamp><ExtendedData><Data name="com_exlyo_mapmarker_piniconcode"><value>-1</value></Data><Data name="com_exlyo_mapmarker_customfields"><value>[]</value></Data></ExtendedData><styleUrl>#mm_marker_color_384</styleUrl></Placemark><Style id="mm_marker_color_385"><IconStyle><color>ff00b371</color><colorMode>normal</colorMode><scale>1</scale></IconStyle><LineStyle><color>ff00b371</color><width>4</width></LineStyle><PolyStyle><color>ff00b371</color></PolyStyle></Style><Placemark id="385"><name>?C1-07</name><description><![CDATA[<pre id="com.exlyo.mapmarker.description_p_tag"></pre>]]></description><phoneNumber></phoneNumber><Point><coordinates>-42.20502957701683,-21.5228026294617</coordinates></Point><TimeStamp><when>2025-09-18T14:02:51Z</when></TimeStamp><ExtendedData><Data name="com_exlyo_mapmarker_piniconcode"><value>-1</value></Data><Data name="com_exlyo_mapmarker_customfields"><value>[]</value></Data></ExtendedData><styleUrl>#mm_marker_color_385</styleUrl></Placemark><Style id="mm_marker_color_386"><IconStyle><color>ff00b371</color><colorMode>normal</colorMode><scale>1</scale></IconStyle><LineStyle><color>ff00b371</color><width>4</width></LineStyle><PolyStyle><color>ff00b371</color></PolyStyle></Style><Placemark id="386"><name>C1-01</name><description><![CDATA[<pre id="com.exlyo.mapmarker.description_p_tag"></pre>]]></description><phoneNumber></phoneNumber><Point><coordinates>-42.20575578510761,-21.52611369952034</coordinates></Point><TimeStamp><when>2025-09-18T13:51:01Z</when></TimeStamp><ExtendedData><Data name="com_exlyo_mapmarker_piniconcode"><value>-1</value></Data><Data name="com_exlyo_mapmarker_customfields"><value>[]</value></Data></ExtendedData><styleUrl>#mm_marker_color_386</styleUrl></Placemark><Style id="mm_marker_color_387"><IconStyle><color>ff00b371</color><colorMode>normal</colorMode><scale>1</scale></IconStyle><LineStyle><color>ff00b371</color><width>4</width></LineStyle><PolyStyle><color>ff00b371</color></PolyStyle></Style><Placemark id="387"><name>C1-02</name><description><![CDATA[<pre id="com.exlyo.mapmarker.description_p_tag"></pre>]]></description><phoneNumber></phoneNumber><Point><coordinates>-42.2050017490983,-21.525498649636493</coordinates></Point><TimeStamp><when>2025-09-18T14:17:48Z</when></TimeStamp><ExtendedData><Data name="com_exlyo_mapmarker_piniconcode"><value>-1</value></Data><Data name="com_exlyo_mapmarker_customfields"><value>[]</value></Data></ExtendedData><styleUrl>#mm_marker_color_387</styleUrl></Placemark><Style id="mm_marker_color_388"><IconStyle><color>ff00b371</color><colorMode>normal</colorMode><scale>1</scale></IconStyle><LineStyle><color>ff00b371</color><width>4</width></LineStyle><PolyStyle><color>ff00b371</color></PolyStyle></Style><Placemark id="388"><name>C1-03</name><description><![CDATA[<pre id="com.exlyo.mapmarker.description_p_tag"></pre>]]></description><phoneNumber></phoneNumber><Point><coordinates>-42.20379140228033,-21.525109095903606</coordinates></Point><TimeStamp><when>2025-09-18T14:23:21Z</when></TimeStamp><ExtendedData><Data name="com_exlyo_mapmarker_piniconcode"><value>-1</value></Data><Data name="com_exlyo_mapmarker_customfields"><value>[]</value></Data></ExtendedData><styleUrl>#mm_marker_color_388</styleUrl></Placemark><Style id="mm_marker_color_389"><IconStyle><color>ff00b371</color><colorMode>normal</colorMode><scale>1</scale></IconStyle><LineStyle><color>ff00b371</color><width>4</width></LineStyle><PolyStyle><color>ff00b371</color></PolyStyle></Style><Placemark id="389"><name>C1-04</name><description><![CDATA[<pre id="com.exlyo.mapmarker.description_p_tag"></pre>]]></description><phoneNumber></phoneNumber><Point><coordinates>-42.205528132617474,-21.525318064008697</coordinates></Point><TimeStamp><when>2025-09-18T14:14:29Z</when></TimeStamp><ExtendedData><Data name="com_exlyo_mapmarker_piniconcode"><value>-1</value></Data><Data name="com_exlyo_mapmarker_customfields"><value>[]</value></Data></ExtendedData><styleUrl>#mm_marker_color_389</styleUrl></Placemark><Style id="mm_marker_color_390"><IconStyle><color>ff00b371</color><colorMode>normal</colorMode><scale>1</scale></IconStyle><LineStyle><color>ff00b371</color><width>4</width></LineStyle><PolyStyle><color>ff00b371</color></PolyStyle></Style><Placemark id="390"><name>C1-05</name><description><![CDATA[<pre id="com.exlyo.mapmarker.description_p_tag"></pre>]]></description><phoneNumber></phoneNumber><Point><coordinates>-42.2054748237133,-21.5247092486318</coordinates></Point><TimeStamp><when>2025-09-18T14:06:04Z</when></TimeStamp><ExtendedData><Data name="com_exlyo_mapmarker_piniconcode"><value>-1</value></Data><Data name="com_exlyo_mapmarker_customfields"><value>[]</value></Data></ExtendedData><styleUrl>#mm_marker_color_390</styleUrl></Placemark><Style id="mm_marker_color_391"><IconStyle><color>ff00b371</color><colorMode>normal</colorMode><scale>1</scale></IconStyle><LineStyle><color>ff00b371</color><width>4</width></LineStyle><PolyStyle><color>ff00b371</color></PolyStyle></Style><Placemark id="391"><name>C1-06</name><description><![CDATA[<pre id="com.exlyo.mapmarker.description_p_tag"></pre>]]></description><phoneNumber></phoneNumber><Point><coordinates>-42.20425844192505,-21.524437588898042</coordinates></Point><TimeStamp><when>2025-09-18T14:10:42Z</when></TimeStamp><ExtendedData><Data name="com_exlyo_mapmarker_piniconcode"><value>-1</value></Data><Data name="com_exlyo_mapmarker_customfields"><value>[]</value></Data></ExtendedData><styleUrl>#mm_marker_color_391</styleUrl></Placemark><Style id="mm_marker_color_392"><IconStyle><color>ff00b371</color><colorMode>normal</colorMode><scale>1</scale></IconStyle><LineStyle><color>ff00b371</color><width>4</width></LineStyle><PolyStyle><color>ff00b371</color></PolyStyle></Style><Placemark id="392"><name>C1-08</name><description><![CDATA[<pre id="com.exlyo.mapmarker.description_p_tag"></pre>]]></description><phoneNumber></phoneNumber><Point><coordinates>-42.205592170357704,-21.52226273324506</coordinates></Point><TimeStamp><when>2025-09-18T13:58:01Z</when></TimeStamp><ExtendedData><Data name="com_exlyo_mapmarker_piniconcode"><value>-1</value></Data><Data name="com_exlyo_mapmarker_customfields"><value>[]</value></Data></ExtendedData><styleUrl>#mm_marker_color_392</styleUrl></Placemark><Style id="mm_marker_color_393"><IconStyle><color>ff00b371</color><colorMode>normal</colorMode><scale>1</scale></IconStyle><LineStyle><color>ff00b371</color><width>4</width></LineStyle><PolyStyle><color>ff00b371</color></PolyStyle></Style><Placemark id="393"><name>C1-09</name><description><![CDATA[<pre id="com.exlyo.mapmarker.description_p_tag"></pre>]]></description><phoneNumber></phoneNumber><Point><coordinates>-42.206177562475204,-21.521885646829222</coordinates></Point><TimeStamp><when>2025-09-18T13:56:23Z</when></TimeStamp><ExtendedData><Data name="com_exlyo_mapmarker_piniconcode"><value>-1</value></Data><Data name="com_exlyo_mapmarker_customfields"><value>[]</value></Data></ExtendedData><styleUrl>#mm_marker_color_393</styleUrl></Placemark><Style id="mm_marker_color_394"><IconStyle><color>ff00b371</color><colorMode>normal</colorMode><scale>1</scale></IconStyle><LineStyle><color>ff00b371</color><width>4</width></LineStyle><PolyStyle><color>ff00b371</color></PolyStyle></Style><Placemark id="394"><name>C1-10</name><description><![CDATA[<pre id="com.exlyo.mapmarker.description_p_tag"></pre>]]></description><phoneNumber></phoneNumber><Point><coordinates>-42.207163609564304,-21.52560313344642</coordinates></Point><TimeStamp><when>2025-09-18T13:49:13Z</when></TimeStamp><ExtendedData><Data name="com_exlyo_mapmarker_piniconcode"><value>-1</value></Data><Data name="com_exlyo_mapmarker_customfields"><value>[]</value></Data></ExtendedData><styleUrl>#mm_marker_color_394</styleUrl></Placemark><Style id="mm_marker_color_395"><IconStyle><color>ff00b371</color><colorMode>normal</colorMode><scale>1</scale></IconStyle><LineStyle><color>ff00b371</color><width>4</width></LineStyle><PolyStyle><color>ff00b371</color></PolyStyle></Style><Placemark id="395"><name>C1-11</name><description><![CDATA[<pre id="com.exlyo.mapmarker.description_p_tag"></pre>]]></description><phoneNumber></phoneNumber><Point><coordinates>-42.208194583654404,-21.526345122281054</coordinates></Point><TimeStamp><when>2025-09-18T13:34:19Z</when></TimeStamp><ExtendedData><Data name="com_exlyo_mapmarker_piniconcode"><value>-1</value></Data><Data name="com_exlyo_mapmarker_customfields"><value>[]</value></Data></ExtendedData><styleUrl>#mm_marker_color_395</styleUrl></Placemark><Style id="mm_marker_color_396"><IconStyle><color>ff00b371</color><colorMode>normal</colorMode><scale>1</scale></IconStyle><LineStyle><color>ff00b371</color><width>4</width></LineStyle><PolyStyle><color>ff00b371</color></PolyStyle></Style><Placemark id="396"><name>C1-12</name><description><![CDATA[<pre id="com.exlyo.mapmarker.description_p_tag"></pre>]]></description><phoneNumber></phoneNumber><Point><coordinates>-42.207485139369965,-21.524474080533594</coordinates></Point><TimeStamp><when>2025-09-18T13:29:17Z</when></TimeStamp><ExtendedData><Data name="com_exlyo_mapmarker_piniconcode"><value>-1</value></Data><Data name="com_exlyo_mapmarker_customfields"><value>[]</value></Data></ExtendedData><styleUrl>#mm_marker_color_396</styleUrl></Placemark><Style id="mm_marker_color_397"><IconStyle><color>ff00b371</color><colorMode>normal</colorMode><scale>1</scale></IconStyle><LineStyle><color>ff00b371</color><width>4</width></LineStyle><PolyStyle><color>ff00b371</color></PolyStyle></Style><Placemark id="397"><name>C1-13</name><description><![CDATA[<pre id="com.exlyo.mapmarker.description_p_tag"></pre>]]></description><phoneNumber></phoneNumber><Point><coordinates>-42.20753241330385,-21.523667207785632</coordinates></Point><TimeStamp><when>2025-09-18T13:22:55Z</when></TimeStamp><ExtendedData><Data name="com_exlyo_mapmarker_piniconcode"><value>-1</value></Data><Data name="com_exlyo_mapmarker_customfields"><value>[]</value></Data></ExtendedData><styleUrl>#mm_marker_color_397</styleUrl></Placemark><Style id="mm_marker_color_398"><IconStyle><color>ff00b371</color><colorMode>normal</colorMode><scale>1</scale></IconStyle><LineStyle><color>ff00b371</color><width>4</width></LineStyle><PolyStyle><color>ff00b371</color></PolyStyle></Style><Placemark id="398"><name>C1-14</name><description><![CDATA[<pre id="com.exlyo.mapmarker.description_p_tag"></pre>]]></description><phoneNumber></phoneNumber><Point><coordinates>-42.20781370997429,-21.524823089815794</coordinates></Point><TimeStamp><when>2025-09-18T13:43:01Z</when></TimeStamp><ExtendedData><Data name="com_exlyo_mapmarker_piniconcode"><value>-1</value></Data><Data name="com_exlyo_mapmarker_customfields"><value>[]</value></Data></ExtendedData><styleUrl>#mm_marker_color_398</styleUrl></Placemark><Style id="mm_marker_color_399"><IconStyle><color>ff00b371</color><colorMode>normal</colorMode><scale>1</scale></IconStyle><LineStyle><color>ff00b371</color><width>4</width></LineStyle><PolyStyle><color>ff00b371</color></PolyStyle></Style><Placemark id="399"><name>C1-15</name><description><![CDATA[<pre id="com.exlyo.mapmarker.description_p_tag"></pre>]]></description><phoneNumber></phoneNumber><Point><coordinates>-42.20909480005503,-21.525189876147035</coordinates></Point><TimeStamp><when>2025-09-18T13:31:57Z</when></TimeStamp><ExtendedData><Data name="com_exlyo_mapmarker_piniconcode"><value>-1</value></Data><Data name="com_exlyo_mapmarker_customfields"><value>[]</value></Data></ExtendedData><styleUrl>#mm_marker_color_399</styleUrl></Placemark><Style id="mm_marker_color_400"><IconStyle><color>ff00b371</color><colorMode>normal</colorMode><scale>1</scale></IconStyle><LineStyle><color>ff00b371</color><width>4</width></LineStyle><PolyStyle><color>ff00b371</color></PolyStyle></Style><Placemark id="400"><name>C1-16</name><description><![CDATA[<pre id="com.exlyo.mapmarker.description_p_tag"></pre>]]></description><phoneNumber></phoneNumber><Point><coordinates>-42.20856573432684,-21.5256570907278</coordinates></Point><TimeStamp><when>2025-09-18T13:39:28Z</when></TimeStamp><ExtendedData><Data name="com_exlyo_mapmarker_piniconcode"><value>-1</value></Data><Data name="com_exlyo_mapmarker_customfields"><value>[]</value></Data></ExtendedData><styleUrl>#mm_marker_color_400</styleUrl></Placemark><Style id="mm_marker_color_401"><IconStyle><color>ff3643f4</color><colorMode>normal</colorMode><scale>1</scale></IconStyle><LineStyle><color>ff3643f4</color><width>4</width></LineStyle><PolyStyle><color>ff3643f4</color></PolyStyle></Style><Placemark id="401"><name>Celula 01</name><description><![CDATA[<pre id="com.exlyo.mapmarker.description_p_tag"></pre>]]></description><phoneNumber></phoneNumber><Point><coordinates>-42.20588821917772,-21.526169216065284</coordinates></Point><TimeStamp><when>2025-09-18T13:19:02Z</when></TimeStamp><ExtendedData><Data name="com_exlyo_mapmarker_piniconcode"><value>-1</value></Data><Data name="com_exlyo_mapmarker_customfields"><value>[]</value></Data></ExtendedData><styleUrl>#mm_marker_color_401</styleUrl></Placemark><Style id="mm_marker_color_402"><IconStyle><color>ff00b371</color><colorMode>normal</colorMode><scale>1</scale></IconStyle><LineStyle><color>ff00b371</color><width>4</width></LineStyle><PolyStyle><color>ff00b371</color></PolyStyle></Style><Placemark id="402"><name>Marcador 24</name><description><![CDATA[<pre id="com.exlyo.mapmarker.description_p_tag"></pre>]]></description><phoneNumber></phoneNumber><LineString><coordinates> -42.20714714058842,-21.52558731802663 -42.20783227325489,-21.524771511233155 -42.20844432510355,-21.52523040311798 -42.20911118756543,-21.525179415202324 -42.20910205246327,-21.52542585662878 -42.20857221653483,-21.52562130987663 -42.20857221653483,-21.52562130987663</coordinates></LineString><TimeStamp><when>2025-09-19T20:06:08Z</when></TimeStamp><ExtendedData><Data name="com_exlyo_mapmarker_piniconcode"><value>-1</value></Data><Data name="com_exlyo_mapmarker_customfields"><value>[]</value></Data></ExtendedData><styleUrl>#mm_marker_color_402</styleUrl></Placemark></Folder><Style id="mm_folder_color_26"><IconStyle><color>ff3bebff</color><colorMode>normal</colorMode><scale>1</scale></IconStyle><LineStyle><color>ff3bebff</color><width>4</width></LineStyle><PolyStyle><color>ff3bebff</color></PolyStyle></Style><Folder id="26"><styleUrl>#mm_folder_color_26</styleUrl><name>Célula 02 Pádua </name><ExtendedData><Data name="com_exlyo_mapmarker_piniconcode"><value>-1</value></Data><Data name="com_exlyo_mapmarker_customfields"><value>[]</value></Data></ExtendedData><Style id="mm_marker_color_403"><IconStyle><color>ff3bebff</color><colorMode>normal</colorMode><scale>1</scale></IconStyle><LineStyle><color>ff3bebff</color><width>4</width></LineStyle><PolyStyle><color>ff3bebff</color></PolyStyle></Style><Placemark id="403"><name></name><description><![CDATA[<pre id="com.exlyo.mapmarker.description_p_tag"></pre>]]></description><phoneNumber></phoneNumber><LineString><coordinates> -42.204783484339714,-21.52744765018231 -42.204716093838215,-21.5275324836656 -42.20447067171335,-21.52740055510219 -42.203917130827904,-21.527051240123917 -42.2037548571825,-21.527132643064462 -42.203811183571815,-21.526989174249714 -42.20365226268768,-21.526898726445847 -42.20365226268768,-21.526898726445847</coordinates></LineString><TimeStamp><when>2025-09-18T17:30:51Z</when></TimeStamp><ExtendedData><Data name="com_exlyo_mapmarker_piniconcode"><value>-1</value></Data><Data name="com_exlyo_mapmarker_customfields"><value>[]</value></Data></ExtendedData><styleUrl>#mm_marker_color_403</styleUrl></Placemark><Style id="mm_marker_color_404"><IconStyle><color>ff3bebff</color><colorMode>normal</colorMode><scale>1</scale></IconStyle><LineStyle><color>ff3bebff</color><width>4</width></LineStyle><PolyStyle><color>ff3bebff</color></PolyStyle></Style><Placemark id="404"><name></name><description><![CDATA[<pre id="com.exlyo.mapmarker.description_p_tag"></pre>]]></description><phoneNumber></phoneNumber><LineString><coordinates> -42.20792569220066,-21.527491314481377 -42.20741540193558,-21.52745544737954 -42.20709286630154,-21.52710207798103 -42.206941321492195,-21.527074008000778 -42.206941321492195,-21.527074008000778</coordinates></LineString><TimeStamp><when>2025-09-18T17:52:33Z</when></TimeStamp><ExtendedData><Data name="com_exlyo_mapmarker_piniconcode"><value>-1</value></Data><Data name="com_exlyo_mapmarker_customfields"><value>[]</value></Data></ExtendedData><styleUrl>#mm_marker_color_404</styleUrl></Placemark><Style id="mm_marker_color_405"><IconStyle><color>ff3bebff</color><colorMode>normal</colorMode><scale>1</scale></IconStyle><LineStyle><color>ff3bebff</color><width>4</width></LineStyle><PolyStyle><color>ff3bebff</color></PolyStyle></Style><Placemark id="405"><name></name><description><![CDATA[<pre id="com.exlyo.mapmarker.description_p_tag"></pre>]]></description><phoneNumber></phoneNumber><LineString><coordinates> -42.206499092280865,-21.526781456105947 -42.2070325165987,-21.526826368162197 -42.20712438225746,-21.52696328747022 -42.20694802701473,-21.527086171659562 -42.20524784177542,-21.52691650412209 -42.20524784177542,-21.52691650412209 -42.20524784177542,-21.52691650412209</coordinates></LineString><TimeStamp><when>2025-09-18T17:42:13Z</when></TimeStamp><ExtendedData><Data name="com_exlyo_mapmarker_piniconcode"><value>-1</value></Data><Data name="com_exlyo_mapmarker_customfields"><value>[]</value></Data></ExtendedData><styleUrl>#mm_marker_color_405</styleUrl></Placemark><Style id="mm_marker_color_406"><IconStyle><color>ff3bebff</color><colorMode>normal</colorMode><scale>1</scale></IconStyle><LineStyle><color>ff3bebff</color><width>4</width></LineStyle><PolyStyle><color>ff3bebff</color></PolyStyle></Style><Placemark id="406"><name></name><description><![CDATA[<pre id="com.exlyo.mapmarker.description_p_tag"></pre>]]></description><phoneNumber></phoneNumber><LineString><coordinates> -42.203043065965176,-21.526482353932675 -42.20327541232109,-21.526628630254947 -42.203112468123436,-21.52676087140885 -42.20337130129337,-21.526661066775542 -42.20364421606064,-21.52690683556159 -42.20364421606064,-21.52690683556159</coordinates></LineString><TimeStamp><when>2025-09-18T17:21:41Z</when></TimeStamp><ExtendedData><Data name="com_exlyo_mapmarker_piniconcode"><value>-1</value></Data><Data name="com_exlyo_mapmarker_customfields"><value>[]</value></Data></ExtendedData><styleUrl>#mm_marker_color_406</styleUrl></Placemark><Style id="mm_marker_color_407"><IconStyle><color>ff3bebff</color><colorMode>normal</colorMode><scale>1</scale></IconStyle><LineStyle><color>ff3bebff</color><width>4</width></LineStyle><PolyStyle><color>ff3bebff</color></PolyStyle></Style><Placemark id="407"><name></name><description><![CDATA[<pre id="com.exlyo.mapmarker.description_p_tag"></pre>]]></description><phoneNumber></phoneNumber><LineString><coordinates> -42.20478482544422,-21.52745669493106 -42.20525085926056,-21.52690621178347 -42.20435567200184,-21.526150190734864 -42.20461316406727,-21.525796506269526 -42.204897813498974,-21.525988631271122 -42.204897813498974,-21.525988631271122</coordinates></LineString><TimeStamp><when>2025-09-18T17:19:48Z</when></TimeStamp><ExtendedData><Data name="com_exlyo_mapmarker_piniconcode"><value>-1</value></Data><Data name="com_exlyo_mapmarker_customfields"><value>[]</value></Data></ExtendedData><styleUrl>#mm_marker_color_407</styleUrl></Placemark><Style id="mm_marker_color_408"><IconStyle><color>ff3bebff</color><colorMode>normal</colorMode><scale>1</scale></IconStyle><LineStyle><color>ff3bebff</color><width>4</width></LineStyle><PolyStyle><color>ff3bebff</color></PolyStyle></Style><Placemark id="408"><name>C2-01</name><description><![CDATA[<pre id="com.exlyo.mapmarker.description_p_tag"></pre>]]></description><phoneNumber></phoneNumber><Point><coordinates>-42.20445055514574,-21.527415213837372</coordinates></Point><TimeStamp><when>2025-09-18T17:26:12Z</when></TimeStamp><ExtendedData><Data name="com_exlyo_mapmarker_piniconcode"><value>-1</value></Data><Data name="com_exlyo_mapmarker_customfields"><value>[]</value></Data></ExtendedData><styleUrl>#mm_marker_color_408</styleUrl></Placemark><Style id="mm_marker_color_409"><IconStyle><color>ff3bebff</color><colorMode>normal</colorMode><scale>1</scale></IconStyle><LineStyle><color>ff3bebff</color><width>4</width></LineStyle><PolyStyle><color>ff3bebff</color></PolyStyle></Style><Placemark id="409"><name>C2-02</name><description><![CDATA[<pre id="com.exlyo.mapmarker.description_p_tag"></pre>]]></description><phoneNumber></phoneNumber><Point><coordinates>-42.2038034722209,-21.52811103422494</coordinates></Point><TimeStamp><when>2025-09-18T17:27:23Z</when></TimeStamp><ExtendedData><Data name="com_exlyo_mapmarker_piniconcode"><value>-1</value></Data><Data name="com_exlyo_mapmarker_customfields"><value>[]</value></Data></ExtendedData><styleUrl>#mm_marker_color_409</styleUrl></Placemark><Style id="mm_marker_color_410"><IconStyle><color>ff3bebff</color><colorMode>normal</colorMode><scale>1</scale></IconStyle><LineStyle><color>ff3bebff</color><width>4</width></LineStyle><PolyStyle><color>ff3bebff</color></PolyStyle></Style><Placemark id="410"><name>C2-03</name><description><![CDATA[<pre id="com.exlyo.mapmarker.description_p_tag"></pre>]]></description><phoneNumber></phoneNumber><Point><coordinates>-42.203566049619624,-21.527855015085144</coordinates></Point><TimeStamp><when>2025-09-18T17:29:27Z</when></TimeStamp><ExtendedData><Data name="com_exlyo_mapmarker_piniconcode"><value>-1</value></Data><Data name="com_exlyo_mapmarker_customfields"><value>[]</value></Data></ExtendedData><styleUrl>#mm_marker_color_410</styleUrl></Placemark><Style id="mm_marker_color_411"><IconStyle><color>ff3bebff</color><colorMode>normal</colorMode><scale>1</scale></IconStyle><LineStyle><color>ff3bebff</color><width>4</width></LineStyle><PolyStyle><color>ff3bebff</color></PolyStyle></Style><Placemark id="411"><name>C2-04</name><description><![CDATA[<pre id="com.exlyo.mapmarker.description_p_tag"></pre>]]></description><phoneNumber></phoneNumber><Point><coordinates>-42.2037722915411,-21.527124222072725</coordinates></Point><TimeStamp><when>2025-09-18T17:24:55Z</when></TimeStamp><ExtendedData><Data name="com_exlyo_mapmarker_piniconcode"><value>-1</value></Data><Data name="com_exlyo_mapmarker_customfields"><value>[]</value></Data></ExtendedData><styleUrl>#mm_marker_color_411</styleUrl></Placemark><Style id="mm_marker_color_412"><IconStyle><color>ff3bebff</color><colorMode>normal</colorMode><scale>1</scale></IconStyle><LineStyle><color>ff3bebff</color><width>4</width></LineStyle><PolyStyle><color>ff3bebff</color></PolyStyle></Style><Placemark id="412"><name>C2-05</name><description><![CDATA[<pre id="com.exlyo.mapmarker.description_p_tag"></pre>]]></description><phoneNumber></phoneNumber><Point><coordinates>-42.203633822500706,-21.526911825786442</coordinates></Point><TimeStamp><when>2025-09-18T17:18:54Z</when></TimeStamp><ExtendedData><Data name="com_exlyo_mapmarker_piniconcode"><value>-1</value></Data><Data name="com_exlyo_mapmarker_customfields"><value>[]</value></Data></ExtendedData><styleUrl>#mm_marker_color_412</styleUrl></Placemark><Style id="mm_marker_color_413"><IconStyle><color>ff3bebff</color><colorMode>normal</colorMode><scale>1</scale></IconStyle><LineStyle><color>ff3bebff</color><width>4</width></LineStyle><PolyStyle><color>ff3bebff</color></PolyStyle></Style><Placemark id="413"><name>C2-06</name><description><![CDATA[<pre id="com.exlyo.mapmarker.description_p_tag"></pre>]]></description><phoneNumber></phoneNumber><Point><coordinates>-42.20314096659422,-21.5268054715822</coordinates></Point><TimeStamp><when>2025-09-18T17:17:36Z</when></TimeStamp><ExtendedData><Data name="com_exlyo_mapmarker_piniconcode"><value>-1</value></Data><Data name="com_exlyo_mapmarker_customfields"><value>[]</value></Data></ExtendedData><styleUrl>#mm_marker_color_413</styleUrl></Placemark><Style id="mm_marker_color_414"><IconStyle><color>ff3bebff</color><colorMode>normal</colorMode><scale>1</scale></IconStyle><LineStyle><color>ff3bebff</color><width>4</width></LineStyle><PolyStyle><color>ff3bebff</color></PolyStyle></Style><Placemark id="414"><name>C2-07</name><description><![CDATA[<pre id="com.exlyo.mapmarker.description_p_tag"></pre>]]></description><phoneNumber></phoneNumber><Point><coordinates>-42.203093357384205,-21.526476739913104</coordinates></Point><TimeStamp><when>2025-09-18T17:15:08Z</when></TimeStamp><ExtendedData><Data name="com_exlyo_mapmarker_piniconcode"><value>-1</value></Data><Data name="com_exlyo_mapmarker_customfields"><value>[]</value></Data></ExtendedData><styleUrl>#mm_marker_color_414</styleUrl></Placemark><Style id="mm_marker_color_415"><IconStyle><color>ff3bebff</color><colorMode>normal</colorMode><scale>1</scale></IconStyle><LineStyle><color>ff3bebff</color><width>4</width></LineStyle><PolyStyle><color>ff3bebff</color></PolyStyle></Style><Placemark id="415"><name>C2-08</name><description><![CDATA[<pre id="com.exlyo.mapmarker.description_p_tag"></pre>]]></description><phoneNumber></phoneNumber><Point><coordinates>-42.20435466617346,-21.526713464216577</coordinates></Point><TimeStamp><when>2025-09-18T17:11:14Z</when></TimeStamp><ExtendedData><Data name="com_exlyo_mapmarker_piniconcode"><value>-1</value></Data><Data name="com_exlyo_mapmarker_customfields"><value>[]</value></Data></ExtendedData><styleUrl>#mm_marker_color_415</styleUrl></Placemark><Style id="mm_marker_color_416"><IconStyle><color>ff3bebff</color><colorMode>normal</colorMode><scale>1</scale></IconStyle><LineStyle><color>ff3bebff</color><width>4</width></LineStyle><PolyStyle><color>ff3bebff</color></PolyStyle></Style><Placemark id="416"><name>C2-09</name><description><![CDATA[<pre id="com.exlyo.mapmarker.description_p_tag"></pre>]]></description><phoneNumber></phoneNumber><Point><coordinates>-42.2031470015645,-21.525901301756434</coordinates></Point><TimeStamp><when>2025-09-18T17:13:07Z</when></TimeStamp><ExtendedData><Data name="com_exlyo_mapmarker_piniconcode"><value>-1</value></Data><Data name="com_exlyo_mapmarker_customfields"><value>[]</value></Data></ExtendedData><styleUrl>#mm_marker_color_416</styleUrl></Placemark><Style id="mm_marker_color_417"><IconStyle><color>ff3bebff</color><colorMode>normal</colorMode><scale>1</scale></IconStyle><LineStyle><color>ff3bebff</color><width>4</width></LineStyle><PolyStyle><color>ff3bebff</color></PolyStyle></Style><Placemark id="417"><name>C2-10</name><description><![CDATA[<pre id="com.exlyo.mapmarker.description_p_tag"></pre>]]></description><phoneNumber></phoneNumber><Point><coordinates>-42.205257564783096,-21.52690683556159</coordinates></Point><TimeStamp><when>2025-09-18T17:09:51Z</when></TimeStamp><ExtendedData><Data name="com_exlyo_mapmarker_piniconcode"><value>-1</value></Data><Data name="com_exlyo_mapmarker_customfields"><value>[]</value></Data></ExtendedData><styleUrl>#mm_marker_color_417</styleUrl></Placemark><Style id="mm_marker_color_418"><IconStyle><color>ff3bebff</color><colorMode>normal</colorMode><scale>1</scale></IconStyle><LineStyle><color>ff3bebff</color><width>4</width></LineStyle><PolyStyle><color>ff3bebff</color></PolyStyle></Style><Placemark id="418"><name>C2-11</name><description><![CDATA[<pre id="com.exlyo.mapmarker.description_p_tag"></pre>]]></description><phoneNumber></phoneNumber><Point><coordinates>-42.204370088875294,-21.526143952921064</coordinates></Point><TimeStamp><when>2025-09-18T17:07:34Z</when></TimeStamp><ExtendedData><Data name="com_exlyo_mapmarker_piniconcode"><value>-1</value></Data><Data name="com_exlyo_mapmarker_customfields"><value>[]</value></Data></ExtendedData><styleUrl>#mm_marker_color_418</styleUrl></Placemark><Style id="mm_marker_color_419"><IconStyle><color>ff3bebff</color><colorMode>normal</colorMode><scale>1</scale></IconStyle><LineStyle><color>ff3bebff</color><width>4</width></LineStyle><PolyStyle><color>ff3bebff</color></PolyStyle></Style><Placemark id="419"><name>C2-13</name><description><![CDATA[<pre id="com.exlyo.mapmarker.description_p_tag"></pre>]]></description><phoneNumber></phoneNumber><Point><coordinates>-42.206148728728294,-21.52701537291342</coordinates></Point><TimeStamp><when>2025-09-18T17:45:29Z</when></TimeStamp><ExtendedData><Data name="com_exlyo_mapmarker_piniconcode"><value>-1</value></Data><Data name="com_exlyo_mapmarker_customfields"><value>[]</value></Data></ExtendedData><styleUrl>#mm_marker_color_419</styleUrl></Placemark><Style id="mm_marker_color_420"><IconStyle><color>ff3bebff</color><colorMode>normal</colorMode><scale>1</scale></IconStyle><LineStyle><color>ff3bebff</color><width>4</width></LineStyle><PolyStyle><color>ff3bebff</color></PolyStyle></Style><Placemark id="420"><name>C2-13</name><description><![CDATA[<pre id="com.exlyo.mapmarker.description_p_tag"></pre>]]></description><phoneNumber></phoneNumber><Point><coordinates>-42.20492530614138,-21.526002042584793</coordinates></Point><TimeStamp><when>2025-09-18T17:06:23Z</when></TimeStamp><ExtendedData><Data name="com_exlyo_mapmarker_piniconcode"><value>-1</value></Data><Data name="com_exlyo_mapmarker_customfields"><value>[]</value></Data></ExtendedData><styleUrl>#mm_marker_color_420</styleUrl></Placemark><Style id="mm_marker_color_421"><IconStyle><color>ff3bebff</color><colorMode>normal</colorMode><scale>1</scale></IconStyle><LineStyle><color>ff3bebff</color><width>4</width></LineStyle><PolyStyle><color>ff3bebff</color></PolyStyle></Style><Placemark id="421"><name>C2-14</name><description><![CDATA[<pre id="com.exlyo.mapmarker.description_p_tag"></pre>]]></description><phoneNumber></phoneNumber><Point><coordinates>-42.20696546137333,-21.52708523599353</coordinates></Point><TimeStamp><when>2025-09-18T17:38:32Z</when></TimeStamp><ExtendedData><Data name="com_exlyo_mapmarker_piniconcode"><value>-1</value></Data><Data name="com_exlyo_mapmarker_customfields"><value>[]</value></Data></ExtendedData><styleUrl>#mm_marker_color_421</styleUrl></Placemark><Style id="mm_marker_color_422"><IconStyle><color>ff3bebff</color><colorMode>normal</colorMode><scale>1</scale></IconStyle><LineStyle><color>ff3bebff</color><width>4</width></LineStyle><PolyStyle><color>ff3bebff</color></PolyStyle></Style><Placemark id="422"><name>C2-15</name><description><![CDATA[<pre id="com.exlyo.mapmarker.description_p_tag"></pre>]]></description><phoneNumber></phoneNumber><Point><coordinates>-42.206499092280865,-21.526781456105947</coordinates></Point><TimeStamp><when>2025-09-18T17:41:24Z</when></TimeStamp><ExtendedData><Data name="com_exlyo_mapmarker_piniconcode"><value>-1</value></Data><Data name="com_exlyo_mapmarker_customfields"><value>[]</value></Data></ExtendedData><styleUrl>#mm_marker_color_422</styleUrl></Placemark><Style id="mm_marker_color_423"><IconStyle><color>ff3bebff</color><colorMode>normal</colorMode><scale>1</scale></IconStyle><LineStyle><color>ff3bebff</color><width>4</width></LineStyle><PolyStyle><color>ff3bebff</color></PolyStyle></Style><Placemark id="423"><name>C2-16</name><description><![CDATA[<pre id="com.exlyo.mapmarker.description_p_tag"></pre>]]></description><phoneNumber></phoneNumber><Point><coordinates>-42.20794916152954,-21.527490690705765</coordinates></Point><TimeStamp><when>2025-09-18T17:50:21Z</when></TimeStamp><ExtendedData><Data name="com_exlyo_mapmarker_piniconcode"><value>-1</value></Data><Data name="com_exlyo_mapmarker_customfields"><value>[]</value></Data></ExtendedData><styleUrl>#mm_marker_color_423</styleUrl></Placemark><Style id="mm_marker_color_424"><IconStyle><color>ff3643f4</color><colorMode>normal</colorMode><scale>1</scale></IconStyle><LineStyle><color>ff3643f4</color><width>4</width></LineStyle><PolyStyle><color>ff3643f4</color></PolyStyle></Style><Placemark id="424"><name>Célula 02</name><description><![CDATA[<pre id="com.exlyo.mapmarker.description_p_tag"></pre>]]></description><phoneNumber></phoneNumber><Point><coordinates>-42.204788848757744,-21.52745388794012</coordinates></Point><TimeStamp><when>2025-09-18T13:13:51Z</when></TimeStamp><ExtendedData><Data name="com_exlyo_mapmarker_piniconcode"><value>-1</value></Data><Data name="com_exlyo_mapmarker_customfields"><value>[]</value></Data></ExtendedData><styleUrl>#mm_marker_color_424</styleUrl></Placemark><Style id="mm_marker_color_425"><IconStyle><color>ff3bebff</color><colorMode>normal</colorMode><scale>1</scale></IconStyle><LineStyle><color>ff3bebff</color><width>4</width></LineStyle><PolyStyle><color>ff3bebff</color></PolyStyle></Style><Placemark id="425"><name>Marcador 11</name><description><![CDATA[<pre id="com.exlyo.mapmarker.description_p_tag"></pre>]]></description><phoneNumber></phoneNumber><LineString><coordinates> -42.20474325120449,-21.527417085165165 -42.204955480992794,-21.527192213769812 -42.20432683825493,-21.526699741079085 -42.203163765370846,-21.525867305609758 -42.203163765370846,-21.525867305609758</coordinates></LineString><TimeStamp><when>2025-09-18T17:20:50Z</when></TimeStamp><ExtendedData><Data name="com_exlyo_mapmarker_piniconcode"><value>-1</value></Data><Data name="com_exlyo_mapmarker_customfields"><value>[]</value></Data></ExtendedData><styleUrl>#mm_marker_color_425</styleUrl></Placemark><Style id="mm_marker_color_426"><IconStyle><color>ff3bebff</color><colorMode>normal</colorMode><scale>1</scale></IconStyle><LineStyle><color>ff3bebff</color><width>4</width></LineStyle><PolyStyle><color>ff3bebff</color></PolyStyle></Style><Placemark id="426"><name>Marcador 12</name><description><![CDATA[<pre id="com.exlyo.mapmarker.description_p_tag"></pre>]]></description><phoneNumber></phoneNumber><LineString><coordinates> -42.203563706114515,-21.52783571173595 -42.203189337375385,-21.528327806900386 -42.20313236821943,-21.52852464449933 -42.203156783571984,-21.528676057855414 -42.20325444498225,-21.528729052492736 -42.20381599809143,-21.528085544874187 -42.20442638190586,-21.52738146856616 -42.20442638190586,-21.52738146856616</coordinates></LineString><TimeStamp><when>2025-09-25T11:45:42Z</when></TimeStamp><ExtendedData><Data name="com_exlyo_mapmarker_piniconcode"><value>-1</value></Data><Data name="com_exlyo_mapmarker_customfields"><value>[]</value></Data></ExtendedData><styleUrl>#mm_marker_color_426</styleUrl></Placemark></Folder><Style id="mm_folder_color_27"><IconStyle><color>fff39621</color><colorMode>normal</colorMode><scale>1</scale></IconStyle><LineStyle><color>fff39621</color><width>4</width></LineStyle><PolyStyle><color>fff39621</color></PolyStyle></Style><Folder id="27"><styleUrl>#mm_folder_color_27</styleUrl><name>Célula 03 Pádua </name><ExtendedData><Data name="com_exlyo_mapmarker_piniconcode"><value>-1</value></Data><Data name="com_exlyo_mapmarker_customfields"><value>[]</value></Data></ExtendedData><Style id="mm_marker_color_427"><IconStyle><color>fff39621</color><colorMode>normal</colorMode><scale>1</scale></IconStyle><LineStyle><color>fff39621</color><width>4</width></LineStyle><PolyStyle><color>fff39621</color></PolyStyle></Style><Placemark id="427"><name></name><description><![CDATA[<pre id="com.exlyo.mapmarker.description_p_tag"></pre>]]></description><phoneNumber></phoneNumber><LineString><coordinates> -42.20518011599779,-21.528207095226804 -42.205476835370064,-21.5281759065968 -42.20701206475496,-21.528335592311787 -42.20797028392553,-21.5284244797919 -42.208769246935844,-21.528499644250207 -42.208769246935844,-21.528499644250207</coordinates></LineString><TimeStamp><when>2025-09-18T18:39:06Z</when></TimeStamp><ExtendedData><Data name="com_exlyo_mapmarker_piniconcode"><value>-1</value></Data><Data name="com_exlyo_mapmarker_customfields"><value>[]</value></Data></ExtendedData><styleUrl>#mm_marker_color_427</styleUrl></Placemark><Style id="mm_marker_color_428"><IconStyle><color>fff39621</color><colorMode>normal</colorMode><scale>1</scale></IconStyle><LineStyle><color>fff39621</color><width>4</width></LineStyle><PolyStyle><color>fff39621</color></PolyStyle></Style><Placemark id="428"><name></name><description><![CDATA[<pre id="com.exlyo.mapmarker.description_p_tag"></pre>]]></description><phoneNumber></phoneNumber><LineString><coordinates> -42.20489144325256,-21.527622307299794 -42.20489144325256,-21.527622307299794 -42.20519218593836,-21.527560241669605 -42.20536921173334,-21.527586440230298 -42.20697250217199,-21.52775735453416 -42.20697250217199,-21.52775735453416</coordinates></LineString><TimeStamp><when>2025-09-18T18:17:01Z</when></TimeStamp><ExtendedData><Data name="com_exlyo_mapmarker_piniconcode"><value>-1</value></Data><Data name="com_exlyo_mapmarker_customfields"><value>[]</value></Data></ExtendedData><styleUrl>#mm_marker_color_428</styleUrl></Placemark><Style id="mm_marker_color_429"><IconStyle><color>fff39621</color><colorMode>normal</colorMode><scale>1</scale></IconStyle><LineStyle><color>fff39621</color><width>4</width></LineStyle><PolyStyle><color>fff39621</color></PolyStyle></Style><Placemark id="429"><name></name><description><![CDATA[<pre id="com.exlyo.mapmarker.description_p_tag"></pre>]]></description><phoneNumber></phoneNumber><LineString><coordinates> -42.20699228346348,-21.527739576960826 -42.20700066536665,-21.527420827820674 -42.20645718276501,-21.527367806858663 -42.20645718276501,-21.527367806858663</coordinates></LineString><TimeStamp><when>2025-09-18T18:20:35Z</when></TimeStamp><ExtendedData><Data name="com_exlyo_mapmarker_piniconcode"><value>-1</value></Data><Data name="com_exlyo_mapmarker_customfields"><value>[]</value></Data></ExtendedData><styleUrl>#mm_marker_color_429</styleUrl></Placemark><Style id="mm_marker_color_430"><IconStyle><color>fff39621</color><colorMode>normal</colorMode><scale>1</scale></IconStyle><LineStyle><color>fff39621</color><width>4</width></LineStyle><PolyStyle><color>fff39621</color></PolyStyle></Style><Placemark id="430"><name></name><description><![CDATA[<pre id="com.exlyo.mapmarker.description_p_tag"></pre>]]></description><phoneNumber></phoneNumber><LineString><coordinates> -42.205196879804134,-21.528218323131963 -42.20551539212465,-21.528496213508134 -42.20432985574007,-21.528441633509882 -42.20432985574007,-21.528441633509882</coordinates></LineString><TimeStamp><when>2025-09-18T18:55:37Z</when></TimeStamp><ExtendedData><Data name="com_exlyo_mapmarker_piniconcode"><value>-1</value></Data><Data name="com_exlyo_mapmarker_customfields"><value>[]</value></Data></ExtendedData><styleUrl>#mm_marker_color_430</styleUrl></Placemark><Style id="mm_marker_color_431"><IconStyle><color>fff39621</color><colorMode>normal</colorMode><scale>1</scale></IconStyle><LineStyle><color>fff39621</color><width>4</width></LineStyle><PolyStyle><color>fff39621</color></PolyStyle></Style><Placemark id="431"><name></name><description><![CDATA[<pre id="com.exlyo.mapmarker.description_p_tag"></pre>]]></description><phoneNumber></phoneNumber><LineString><coordinates> -42.205523774027824,-21.528493406537308 -42.20664829015732,-21.528579798837136 -42.208179496228695,-21.528678978381542 -42.208799086511135,-21.528771608272212 -42.208773605525494,-21.52904949758978 -42.20787204802036,-21.528968407608183 -42.20787204802036,-21.528968407608183</coordinates></LineString><TimeStamp><when>2025-09-18T18:56:30Z</when></TimeStamp><ExtendedData><Data name="com_exlyo_mapmarker_piniconcode"><value>-1</value></Data><Data name="com_exlyo_mapmarker_customfields"><value>[]</value></Data></ExtendedData><styleUrl>#mm_marker_color_431</styleUrl></Placemark><Style id="mm_marker_color_432"><IconStyle><color>fff39621</color><colorMode>normal</colorMode><scale>1</scale></IconStyle><LineStyle><color>fff39621</color><width>4</width></LineStyle><PolyStyle><color>fff39621</color></PolyStyle></Style><Placemark id="432"><name>C3-01</name><description><![CDATA[<pre id="com.exlyo.mapmarker.description_p_tag"></pre>]]></description><phoneNumber></phoneNumber><Point><coordinates>-42.20436003059149,-21.52845286139692</coordinates></Point><TimeStamp><when>2025-09-18T18:44:51Z</when></TimeStamp><ExtendedData><Data name="com_exlyo_mapmarker_piniconcode"><value>-1</value></Data><Data name="com_exlyo_mapmarker_customfields"><value>[]</value></Data></ExtendedData><styleUrl>#mm_marker_color_432</styleUrl></Placemark><Style id="mm_marker_color_433"><IconStyle><color>fff39621</color><colorMode>normal</colorMode><scale>1</scale></IconStyle><LineStyle><color>fff39621</color><width>4</width></LineStyle><PolyStyle><color>fff39621</color></PolyStyle></Style><Placemark id="433"><name>C3-02</name><description><![CDATA[<pre id="com.exlyo.mapmarker.description_p_tag"></pre>]]></description><phoneNumber></phoneNumber><Point><coordinates>-42.2055459022522,-21.5285080651622</coordinates></Point><TimeStamp><when>2025-09-18T18:41:54Z</when></TimeStamp><ExtendedData><Data name="com_exlyo_mapmarker_piniconcode"><value>-1</value></Data><Data name="com_exlyo_mapmarker_customfields"><value>[]</value></Data></ExtendedData><styleUrl>#mm_marker_color_433</styleUrl></Placemark><Style id="mm_marker_color_434"><IconStyle><color>fff39621</color><colorMode>normal</colorMode><scale>1</scale></IconStyle><LineStyle><color>fff39621</color><width>4</width></LineStyle><PolyStyle><color>fff39621</color></PolyStyle></Style><Placemark id="434"><name>C3-03</name><description><![CDATA[<pre id="com.exlyo.mapmarker.description_p_tag"></pre>]]></description><phoneNumber></phoneNumber><Point><coordinates>-42.20667444169521,-21.52858447711906</coordinates></Point><TimeStamp><when>2025-09-18T18:47:01Z</when></TimeStamp><ExtendedData><Data name="com_exlyo_mapmarker_piniconcode"><value>-1</value></Data><Data name="com_exlyo_mapmarker_customfields"><value>[]</value></Data></ExtendedData><styleUrl>#mm_marker_color_434</styleUrl></Placemark><Style id="mm_marker_color_435"><IconStyle><color>fff39621</color><colorMode>normal</colorMode><scale>1</scale></IconStyle><LineStyle><color>fff39621</color><width>4</width></LineStyle><PolyStyle><color>fff39621</color></PolyStyle></Style><Placemark id="435"><name>C3-04</name><description><![CDATA[<pre id="com.exlyo.mapmarker.description_p_tag"></pre>]]></description><phoneNumber></phoneNumber><Point><coordinates>-42.20824554562569,-21.528690518135456</coordinates></Point><TimeStamp><when>2025-09-18T18:49:42Z</when></TimeStamp><ExtendedData><Data name="com_exlyo_mapmarker_piniconcode"><value>-1</value></Data><Data name="com_exlyo_mapmarker_customfields"><value>[]</value></Data></ExtendedData><styleUrl>#mm_marker_color_435</styleUrl></Placemark><Style id="mm_marker_color_436"><IconStyle><color>fff39621</color><colorMode>normal</colorMode><scale>1</scale></IconStyle><LineStyle><color>fff39621</color><width>4</width></LineStyle><PolyStyle><color>fff39621</color></PolyStyle></Style><Placemark id="436"><name>C3-05</name><description><![CDATA[<pre id="com.exlyo.mapmarker.description_p_tag"></pre>]]></description><phoneNumber></phoneNumber><Point><coordinates>-42.20880512148142,-21.529060725429826</coordinates></Point><TimeStamp><when>2025-09-18T18:52:27Z</when></TimeStamp><ExtendedData><Data name="com_exlyo_mapmarker_piniconcode"><value>-1</value></Data><Data name="com_exlyo_mapmarker_customfields"><value>[]</value></Data></ExtendedData><styleUrl>#mm_marker_color_436</styleUrl></Placemark><Style id="mm_marker_color_437"><IconStyle><color>fff39621</color><colorMode>normal</colorMode><scale>1</scale></IconStyle><LineStyle><color>fff39621</color><width>4</width></LineStyle><PolyStyle><color>fff39621</color></PolyStyle></Style><Placemark id="437"><name>C3-06</name><description><![CDATA[<pre id="com.exlyo.mapmarker.description_p_tag"></pre>]]></description><phoneNumber></phoneNumber><Point><coordinates>-42.207864336669445,-21.5289808829929</coordinates></Point><TimeStamp><when>2025-09-18T18:55:01Z</when></TimeStamp><ExtendedData><Data name="com_exlyo_mapmarker_piniconcode"><value>-1</value></Data><Data name="com_exlyo_mapmarker_customfields"><value>[]</value></Data></ExtendedData><styleUrl>#mm_marker_color_437</styleUrl></Placemark><Style id="mm_marker_color_438"><IconStyle><color>fff39621</color><colorMode>normal</colorMode><scale>1</scale></IconStyle><LineStyle><color>fff39621</color><width>4</width></LineStyle><PolyStyle><color>fff39621</color></PolyStyle></Style><Placemark id="438"><name>C3-07</name><description><![CDATA[<pre id="com.exlyo.mapmarker.description_p_tag"></pre>]]></description><phoneNumber></phoneNumber><Point><coordinates>-42.205434925854206,-21.528153450779058</coordinates></Point><TimeStamp><when>2025-09-18T18:38:19Z</when></TimeStamp><ExtendedData><Data name="com_exlyo_mapmarker_piniconcode"><value>-1</value></Data><Data name="com_exlyo_mapmarker_customfields"><value>[]</value></Data></ExtendedData><styleUrl>#mm_marker_color_438</styleUrl></Placemark><Style id="mm_marker_color_439"><IconStyle><color>fff39621</color><colorMode>normal</colorMode><scale>1</scale></IconStyle><LineStyle><color>fff39621</color><width>4</width></LineStyle><PolyStyle><color>fff39621</color></PolyStyle></Style><Placemark id="439"><name>C3-08</name><description><![CDATA[<pre id="com.exlyo.mapmarker.description_p_tag"></pre>]]></description><phoneNumber></phoneNumber><Point><coordinates>-42.20699027180672,-21.52835149849643</coordinates></Point><TimeStamp><when>2025-09-18T18:36:32Z</when></TimeStamp><ExtendedData><Data name="com_exlyo_mapmarker_piniconcode"><value>-1</value></Data><Data name="com_exlyo_mapmarker_customfields"><value>[]</value></Data></ExtendedData><styleUrl>#mm_marker_color_439</styleUrl></Placemark><Style id="mm_marker_color_440"><IconStyle><color>fff39621</color><colorMode>normal</colorMode><scale>1</scale></IconStyle><LineStyle><color>fff39621</color><width>4</width></LineStyle><PolyStyle><color>fff39621</color></PolyStyle></Style><Placemark id="440"><name>C3-09</name><description><![CDATA[<pre id="com.exlyo.mapmarker.description_p_tag"></pre>]]></description><phoneNumber></phoneNumber><Point><coordinates>-42.207956202328205,-21.528434772022948</coordinates></Point><TimeStamp><when>2025-09-18T18:35:08Z</when></TimeStamp><ExtendedData><Data name="com_exlyo_mapmarker_piniconcode"><value>-1</value></Data><Data name="com_exlyo_mapmarker_customfields"><value>[]</value></Data></ExtendedData><styleUrl>#mm_marker_color_440</styleUrl></Placemark><Style id="mm_marker_color_441"><IconStyle><color>fff39621</color><colorMode>normal</colorMode><scale>1</scale></IconStyle><LineStyle><color>fff39621</color><width>4</width></LineStyle><PolyStyle><color>fff39621</color></PolyStyle></Style><Placemark id="441"><name>C3-10</name><description><![CDATA[<pre id="com.exlyo.mapmarker.description_p_tag"></pre>]]></description><phoneNumber></phoneNumber><Point><coordinates>-42.208718955516815,-21.52847594093976</coordinates></Point><TimeStamp><when>2025-09-18T18:33:44Z</when></TimeStamp><ExtendedData><Data name="com_exlyo_mapmarker_piniconcode"><value>-1</value></Data><Data name="com_exlyo_mapmarker_customfields"><value>[]</value></Data></ExtendedData><styleUrl>#mm_marker_color_441</styleUrl></Placemark><Style id="mm_marker_color_442"><IconStyle><color>fff39621</color><colorMode>normal</colorMode><scale>1</scale></IconStyle><LineStyle><color>fff39621</color><width>4</width></LineStyle><PolyStyle><color>fff39621</color></PolyStyle></Style><Placemark id="442"><name>C3-11</name><description><![CDATA[<pre id="com.exlyo.mapmarker.description_p_tag"></pre>]]></description><phoneNumber></phoneNumber><Point><coordinates>-42.20607228577137,-21.5279419916583</coordinates></Point><TimeStamp><when>2025-09-18T18:23:22Z</when></TimeStamp><ExtendedData><Data name="com_exlyo_mapmarker_piniconcode"><value>-1</value></Data><Data name="com_exlyo_mapmarker_customfields"><value>[]</value></Data></ExtendedData><styleUrl>#mm_marker_color_442</styleUrl></Placemark><Style id="mm_marker_color_443"><IconStyle><color>fff39621</color><colorMode>normal</colorMode><scale>1</scale></IconStyle><LineStyle><color>fff39621</color><width>4</width></LineStyle><PolyStyle><color>fff39621</color></PolyStyle></Style><Placemark id="443"><name>C3-12</name><description><![CDATA[<pre id="com.exlyo.mapmarker.description_p_tag"></pre>]]></description><phoneNumber></phoneNumber><Point><coordinates>-42.20726184848943,-21.528033996325732</coordinates></Point><TimeStamp><when>2025-09-18T18:26:01Z</when></TimeStamp><ExtendedData><Data name="com_exlyo_mapmarker_piniconcode"><value>-1</value></Data><Data name="com_exlyo_mapmarker_customfields"><value>[]</value></Data></ExtendedData><styleUrl>#mm_marker_color_443</styleUrl></Placemark><Style id="mm_marker_color_444"><IconStyle><color>fff39621</color><colorMode>normal</colorMode><scale>1</scale></IconStyle><LineStyle><color>fff39621</color><width>4</width></LineStyle><PolyStyle><color>fff39621</color></PolyStyle></Style><Placemark id="444"><name>C3-13</name><description><![CDATA[<pre id="com.exlyo.mapmarker.description_p_tag"></pre>]]></description><phoneNumber></phoneNumber><Point><coordinates>-42.208311930298805,-21.528130371184975</coordinates></Point><TimeStamp><when>2025-09-18T18:27:37Z</when></TimeStamp><ExtendedData><Data name="com_exlyo_mapmarker_piniconcode"><value>-1</value></Data><Data name="com_exlyo_mapmarker_customfields"><value>[]</value></Data></ExtendedData><styleUrl>#mm_marker_color_444</styleUrl></Placemark><Style id="mm_marker_color_445"><IconStyle><color>fff39621</color><colorMode>normal</colorMode><scale>1</scale></IconStyle><LineStyle><color>fff39621</color><width>4</width></LineStyle><PolyStyle><color>fff39621</color></PolyStyle></Style><Placemark id="445"><name>C3-14</name><description><![CDATA[<pre id="com.exlyo.mapmarker.description_p_tag"></pre>]]></description><phoneNumber></phoneNumber><Point><coordinates>-42.20533803105354,-21.527586752117895</coordinates></Point><TimeStamp><when>2025-09-18T18:08:18Z</when></TimeStamp><ExtendedData><Data name="com_exlyo_mapmarker_piniconcode"><value>-1</value></Data><Data name="com_exlyo_mapmarker_customfields"><value>[]</value></Data></ExtendedData><styleUrl>#mm_marker_color_445</styleUrl></Placemark><Style id="mm_marker_color_446"><IconStyle><color>fff39621</color><colorMode>normal</colorMode><scale>1</scale></IconStyle><LineStyle><color>fff39621</color><width>4</width></LineStyle><PolyStyle><color>fff39621</color></PolyStyle></Style><Placemark id="446"><name>C3-15</name><description><![CDATA[<pre id="com.exlyo.mapmarker.description_p_tag"></pre>]]></description><phoneNumber></phoneNumber><Point><coordinates>-42.20696613160629,-21.527750803852996</coordinates></Point><TimeStamp><when>2025-09-18T18:16:06Z</when></TimeStamp><ExtendedData><Data name="com_exlyo_mapmarker_piniconcode"><value>-1</value></Data><Data name="com_exlyo_mapmarker_customfields"><value>[]</value></Data></ExtendedData><styleUrl>#mm_marker_color_446</styleUrl></Placemark><Style id="mm_marker_color_447"><IconStyle><color>fff39621</color><colorMode>normal</colorMode><scale>1</scale></IconStyle><LineStyle><color>fff39621</color><width>4</width></LineStyle><PolyStyle><color>fff39621</color></PolyStyle></Style><Placemark id="447"><name>C3-16</name><description><![CDATA[<pre id="com.exlyo.mapmarker.description_p_tag"></pre>]]></description><phoneNumber></phoneNumber><Point><coordinates>-42.206519208848476,-21.527305429231518</coordinates></Point><TimeStamp><when>2025-09-18T18:19:31Z</when></TimeStamp><ExtendedData><Data name="com_exlyo_mapmarker_piniconcode"><value>-1</value></Data><Data name="com_exlyo_mapmarker_customfields"><value>[]</value></Data></ExtendedData><styleUrl>#mm_marker_color_447</styleUrl></Placemark><Style id="mm_marker_color_448"><IconStyle><color>ff3643f4</color><colorMode>normal</colorMode><scale>1</scale></IconStyle><LineStyle><color>ff3643f4</color><width>4</width></LineStyle><PolyStyle><color>ff3643f4</color></PolyStyle></Style><Placemark id="448"><name>Célula 03</name><description><![CDATA[<pre id="com.exlyo.mapmarker.description_p_tag"></pre>]]></description><phoneNumber></phoneNumber><Point><coordinates>-42.20515262335539,-21.52822830349139</coordinates></Point><TimeStamp><when>2025-09-18T18:03:05Z</when></TimeStamp><ExtendedData><Data name="com_exlyo_mapmarker_piniconcode"><value>-1</value></Data><Data name="com_exlyo_mapmarker_customfields"><value>[]</value></Data></ExtendedData><styleUrl>#mm_marker_color_448</styleUrl></Placemark><Style id="mm_marker_color_449"><IconStyle><color>fff39621</color><colorMode>normal</colorMode><scale>1</scale></IconStyle><LineStyle><color>fff39621</color><width>4</width></LineStyle><PolyStyle><color>fff39621</color></PolyStyle></Style><Placemark id="449"><name>Marcador 23</name><description><![CDATA[<pre id="com.exlyo.mapmarker.description_p_tag"></pre>]]></description><phoneNumber></phoneNumber><LineString><coordinates> -42.208306578932834,-21.52813782781052 -42.207252649547314,-21.52802048203855 -42.20605222804676,-21.527952345740268 -42.20500643711216,-21.52787663870479 -42.20518955225657,-21.52820217867763 -42.20518955225657,-21.52820217867763</coordinates></LineString><TimeStamp><when>2025-10-16T20:59:23Z</when></TimeStamp><ExtendedData><Data name="com_exlyo_mapmarker_piniconcode"><value>-1</value></Data><Data name="com_exlyo_mapmarker_customfields"><value>[]</value></Data></ExtendedData><styleUrl>#mm_marker_color_449</styleUrl></Placemark><Style id="mm_marker_color_450"><IconStyle><color>fff39621</color><colorMode>normal</colorMode><scale>1</scale></IconStyle><LineStyle><color>fff39621</color><width>4</width></LineStyle><PolyStyle><color>fff39621</color></PolyStyle></Style><Placemark id="450"><name>Marcador 24</name><description><![CDATA[<pre id="com.exlyo.mapmarker.description_p_tag"></pre>]]></description><phoneNumber></phoneNumber><LineString><coordinates> -42.20487622189901,-21.52760787840942 -42.20478669893977,-21.527441322484076 -42.2051569984542,-21.528240032114667 -42.2051569984542,-21.528240032114667</coordinates></LineString><TimeStamp><when>2025-10-16T20:59:48Z</when></TimeStamp><ExtendedData><Data name="com_exlyo_mapmarker_piniconcode"><value>-1</value></Data><Data name="com_exlyo_mapmarker_customfields"><value>[]</value></Data></ExtendedData><styleUrl>#mm_marker_color_450</styleUrl></Placemark></Folder><Style id="mm_folder_color_28"><IconStyle><color>ff485579</color><colorMode>normal</colorMode><scale>1</scale></IconStyle><LineStyle><color>ff485579</color><width>4</width></LineStyle><PolyStyle><color>ff485579</color></PolyStyle></Style><Folder id="28"><styleUrl>#mm_folder_color_28</styleUrl><name>Célula 04 Pádua </name><ExtendedData><Data name="com_exlyo_mapmarker_piniconcode"><value>-1</value></Data><Data name="com_exlyo_mapmarker_customfields"><value>[]</value></Data></ExtendedData><Style id="mm_marker_color_451"><IconStyle><color>ff485579</color><colorMode>normal</colorMode><scale>1</scale></IconStyle><LineStyle><color>ff485579</color><width>4</width></LineStyle><PolyStyle><color>ff485579</color></PolyStyle></Style><Placemark id="451"><name></name><description><![CDATA[<pre id="com.exlyo.mapmarker.description_p_tag"></pre>]]></description><phoneNumber></phoneNumber><LineString><coordinates> -42.20691550523043,-21.528926303176796 -42.20572728663683,-21.5288424061623 -42.20475699752569,-21.528775662777864 -42.20385678112507,-21.528645606655612 -42.20385678112507,-21.528645606655612</coordinates></LineString><TimeStamp><when>2025-09-18T19:11:22Z</when></TimeStamp><ExtendedData><Data name="com_exlyo_mapmarker_piniconcode"><value>-1</value></Data><Data name="com_exlyo_mapmarker_customfields"><value>[]</value></Data></ExtendedData><styleUrl>#mm_marker_color_451</styleUrl></Placemark><Style id="mm_marker_color_452"><IconStyle><color>ff485579</color><colorMode>normal</colorMode><scale>1</scale></IconStyle><LineStyle><color>ff485579</color><width>4</width></LineStyle><PolyStyle><color>ff485579</color></PolyStyle></Style><Placemark id="452"><name></name><description><![CDATA[<pre id="com.exlyo.mapmarker.description_p_tag"></pre>]]></description><phoneNumber></phoneNumber><LineString><coordinates> -42.20603607594967,-21.52953790782917 -42.20595460385084,-21.530043158072527 -42.206096425652504,-21.53006623736265 -42.20594421029091,-21.530129237568374 -42.20589995384216,-21.530301396407012 -42.205898612737656,-21.530394960907632 -42.205862402915955,-21.530654758021623 -42.205862402915955,-21.530654758021623</coordinates></LineString><TimeStamp><when>2025-09-18T19:51:19Z</when></TimeStamp><ExtendedData><Data name="com_exlyo_mapmarker_piniconcode"><value>-1</value></Data><Data name="com_exlyo_mapmarker_customfields"><value>[]</value></Data></ExtendedData><styleUrl>#mm_marker_color_452</styleUrl></Placemark><Style id="mm_marker_color_453"><IconStyle><color>ff485579</color><colorMode>normal</colorMode><scale>1</scale></IconStyle><LineStyle><color>ff485579</color><width>4</width></LineStyle><PolyStyle><color>ff485579</color></PolyStyle></Style><Placemark id="453"><name></name><description><![CDATA[<pre id="com.exlyo.mapmarker.description_p_tag"></pre>]]></description><phoneNumber></phoneNumber><LineString><coordinates> -42.20598243176937,-21.529497051096865 -42.20595058053732,-21.529811429321093 -42.20479220151901,-21.529702894058694</coordinates></LineString><TimeStamp><when>2025-09-18T19:40:24Z</when></TimeStamp><ExtendedData><Data name="com_exlyo_mapmarker_piniconcode"><value>-1</value></Data><Data name="com_exlyo_mapmarker_customfields"><value>[]</value></Data></ExtendedData><styleUrl>#mm_marker_color_453</styleUrl></Placemark><Style id="mm_marker_color_454"><IconStyle><color>ff485579</color><colorMode>normal</colorMode><scale>1</scale></IconStyle><LineStyle><color>ff485579</color><width>4</width></LineStyle><PolyStyle><color>ff485579</color></PolyStyle></Style><Placemark id="454"><name></name><description><![CDATA[<pre id="com.exlyo.mapmarker.description_p_tag"></pre>]]></description><phoneNumber></phoneNumber><LineString><coordinates> -42.20599953085184,-21.52951170962046 -42.20597941428423,-21.529812988735195 -42.20684241503477,-21.52983045417196</coordinates></LineString><TimeStamp><when>2025-09-18T19:39:05Z</when></TimeStamp><ExtendedData><Data name="com_exlyo_mapmarker_piniconcode"><value>-1</value></Data><Data name="com_exlyo_mapmarker_customfields"><value>[]</value></Data></ExtendedData><styleUrl>#mm_marker_color_454</styleUrl></Placemark><Style id="mm_marker_color_455"><IconStyle><color>ff485579</color><colorMode>normal</colorMode><scale>1</scale></IconStyle><LineStyle><color>ff485579</color><width>4</width></LineStyle><PolyStyle><color>ff485579</color></PolyStyle></Style><Placemark id="455"><name></name><description><![CDATA[<pre id="com.exlyo.mapmarker.description_p_tag"></pre>]]></description><phoneNumber></phoneNumber><LineString><coordinates> -42.20603238791227,-21.52950235311621 -42.206932939589024,-21.5295516306985 -42.207585386931896,-21.529611200411736 -42.207585386931896,-21.529611200411736</coordinates></LineString><TimeStamp><when>2025-09-18T19:29:56Z</when></TimeStamp><ExtendedData><Data name="com_exlyo_mapmarker_piniconcode"><value>-1</value></Data><Data name="com_exlyo_mapmarker_customfields"><value>[]</value></Data></ExtendedData><styleUrl>#mm_marker_color_455</styleUrl></Placemark><Style id="mm_marker_color_456"><IconStyle><color>ff485579</color><colorMode>normal</colorMode><scale>1</scale></IconStyle><LineStyle><color>ff485579</color><width>4</width></LineStyle><PolyStyle><color>ff485579</color></PolyStyle></Style><Placemark id="456"><name></name><description><![CDATA[<pre id="com.exlyo.mapmarker.description_p_tag"></pre>]]></description><phoneNumber></phoneNumber><LineString><coordinates> -42.20575913786888,-21.528832425845085 -42.20597840845585,-21.529158968993144 -42.20599785447121,-21.529515452222004 -42.204942405223846,-21.529419392085476 -42.204942405223846,-21.529419392085476</coordinates></LineString><TimeStamp><when>2025-09-18T19:29:19Z</when></TimeStamp><ExtendedData><Data name="com_exlyo_mapmarker_piniconcode"><value>-1</value></Data><Data name="com_exlyo_mapmarker_customfields"><value>[]</value></Data></ExtendedData><styleUrl>#mm_marker_color_456</styleUrl></Placemark><Style id="mm_marker_color_457"><IconStyle><color>ff485579</color><colorMode>normal</colorMode><scale>1</scale></IconStyle><LineStyle><color>ff485579</color><width>4</width></LineStyle><PolyStyle><color>ff485579</color></PolyStyle></Style><Placemark id="457"><name></name><description><![CDATA[<pre id="com.exlyo.mapmarker.description_p_tag"></pre>]]></description><phoneNumber></phoneNumber><LineString><coordinates> -42.204251401126385,-21.52902018044782 -42.205342054367065,-21.529148988697685 -42.20594085752964,-21.529163023487985 -42.20634821802378,-21.52918454349714 -42.20748379826546,-21.529249415389515 -42.20748983323574,-21.529251910461728</coordinates></LineString><TimeStamp><when>2025-09-18T19:28:37Z</when></TimeStamp><ExtendedData><Data name="com_exlyo_mapmarker_piniconcode"><value>-1</value></Data><Data name="com_exlyo_mapmarker_customfields"><value>[]</value></Data></ExtendedData><styleUrl>#mm_marker_color_457</styleUrl></Placemark><Style id="mm_marker_color_458"><IconStyle><color>ff485579</color><colorMode>normal</colorMode><scale>1</scale></IconStyle><LineStyle><color>ff485579</color><width>4</width></LineStyle><PolyStyle><color>ff485579</color></PolyStyle></Style><Placemark id="458"><name>C4-02</name><description><![CDATA[<pre id="com.exlyo.mapmarker.description_p_tag"></pre>]]></description><phoneNumber></phoneNumber><Point><coordinates>-42.20475196838379,-21.528788761949187</coordinates></Point><TimeStamp><when>2025-09-18T19:05:59Z</when></TimeStamp><ExtendedData><Data name="com_exlyo_mapmarker_piniconcode"><value>-1</value></Data><Data name="com_exlyo_mapmarker_customfields"><value>[]</value></Data></ExtendedData><styleUrl>#mm_marker_color_458</styleUrl></Placemark><Style id="mm_marker_color_459"><IconStyle><color>ff485579</color><colorMode>normal</colorMode><scale>1</scale></IconStyle><LineStyle><color>ff485579</color><width>4</width></LineStyle><PolyStyle><color>ff485579</color></PolyStyle></Style><Placemark id="459"><name>C4-03</name><description><![CDATA[<pre id="com.exlyo.mapmarker.description_p_tag"></pre>]]></description><phoneNumber></phoneNumber><Point><coordinates>-42.205753438174725,-21.52884147050759</coordinates></Point><TimeStamp><when>2025-09-18T19:04:32Z</when></TimeStamp><ExtendedData><Data name="com_exlyo_mapmarker_piniconcode"><value>-1</value></Data><Data name="com_exlyo_mapmarker_customfields"><value>[]</value></Data></ExtendedData><styleUrl>#mm_marker_color_459</styleUrl></Placemark><Style id="mm_marker_color_460"><IconStyle><color>ff485579</color><colorMode>normal</colorMode><scale>1</scale></IconStyle><LineStyle><color>ff485579</color><width>4</width></LineStyle><PolyStyle><color>ff485579</color></PolyStyle></Style><Placemark id="460"><name>C4-04</name><description><![CDATA[<pre id="com.exlyo.mapmarker.description_p_tag"></pre>]]></description><phoneNumber></phoneNumber><Point><coordinates>-42.206945680081844,-21.52893347652522</coordinates></Point><TimeStamp><when>2025-09-18T19:01:18Z</when></TimeStamp><ExtendedData><Data name="com_exlyo_mapmarker_piniconcode"><value>-1</value></Data><Data name="com_exlyo_mapmarker_customfields"><value>[]</value></Data></ExtendedData><styleUrl>#mm_marker_color_460</styleUrl></Placemark><Style id="mm_marker_color_461"><IconStyle><color>ff485579</color><colorMode>normal</colorMode><scale>1</scale></IconStyle><LineStyle><color>ff485579</color><width>4</width></LineStyle><PolyStyle><color>ff485579</color></PolyStyle></Style><Placemark id="461"><name>C4-05</name><description><![CDATA[<pre id="com.exlyo.mapmarker.description_p_tag"></pre>]]></description><phoneNumber></phoneNumber><Point><coordinates>-42.20422491431236,-21.529027041907096</coordinates></Point><TimeStamp><when>2025-09-18T19:13:06Z</when></TimeStamp><ExtendedData><Data name="com_exlyo_mapmarker_piniconcode"><value>-1</value></Data><Data name="com_exlyo_mapmarker_customfields"><value>[]</value></Data></ExtendedData><styleUrl>#mm_marker_color_461</styleUrl></Placemark><Style id="mm_marker_color_462"><IconStyle><color>ff485579</color><colorMode>normal</colorMode><scale>1</scale></IconStyle><LineStyle><color>ff485579</color><width>4</width></LineStyle><PolyStyle><color>ff485579</color></PolyStyle></Style><Placemark id="462"><name>C4-06</name><description><![CDATA[<pre id="com.exlyo.mapmarker.description_p_tag"></pre>]]></description><phoneNumber></phoneNumber><Point><coordinates>-42.205320596694946,-21.529169573056333</coordinates></Point><TimeStamp><when>2025-09-18T19:14:47Z</when></TimeStamp><ExtendedData><Data name="com_exlyo_mapmarker_piniconcode"><value>-1</value></Data><Data name="com_exlyo_mapmarker_customfields"><value>[]</value></Data></ExtendedData><styleUrl>#mm_marker_color_462</styleUrl></Placemark><Style id="mm_marker_color_463"><IconStyle><color>ff485579</color><colorMode>normal</colorMode><scale>1</scale></IconStyle><LineStyle><color>ff485579</color><width>4</width></LineStyle><PolyStyle><color>ff485579</color></PolyStyle></Style><Placemark id="463"><name>C4-08</name><description><![CDATA[<pre id="com.exlyo.mapmarker.description_p_tag"></pre>]]></description><phoneNumber></phoneNumber><Point><coordinates>-42.2074806,-21.5292537</coordinates></Point><TimeStamp><when>2025-09-18T19:18:44Z</when></TimeStamp><ExtendedData><Data name="com_exlyo_mapmarker_piniconcode"><value>-1</value></Data><Data name="com_exlyo_mapmarker_customfields"><value>[]</value></Data></ExtendedData><styleUrl>#mm_marker_color_463</styleUrl></Placemark><Style id="mm_marker_color_464"><IconStyle><color>ff485579</color><colorMode>normal</colorMode><scale>1</scale></IconStyle><LineStyle><color>ff485579</color><width>4</width></LineStyle><PolyStyle><color>ff485579</color></PolyStyle></Style><Placemark id="464"><name>C4-09</name><description><![CDATA[<pre id="com.exlyo.mapmarker.description_p_tag"></pre>]]></description><phoneNumber></phoneNumber><Point><coordinates>-42.20493368916422,-21.52942094998858</coordinates></Point><TimeStamp><when>2025-09-18T19:25:32Z</when></TimeStamp><ExtendedData><Data name="com_exlyo_mapmarker_piniconcode"><value>-1</value></Data><Data name="com_exlyo_mapmarker_customfields"><value>[]</value></Data></ExtendedData><styleUrl>#mm_marker_color_464</styleUrl></Placemark><Style id="mm_marker_color_465"><IconStyle><color>ff485579</color><colorMode>normal</colorMode><scale>1</scale></IconStyle><LineStyle><color>ff485579</color><width>4</width></LineStyle><PolyStyle><color>ff485579</color></PolyStyle></Style><Placemark id="465"><name>C4-10</name><description><![CDATA[<pre id="com.exlyo.mapmarker.description_p_tag"></pre>]]></description><phoneNumber></phoneNumber><Point><coordinates>-42.20600925385952,-21.529531046394013</coordinates></Point><TimeStamp><when>2025-09-18T19:24:26Z</when></TimeStamp><ExtendedData><Data name="com_exlyo_mapmarker_piniconcode"><value>-1</value></Data><Data name="com_exlyo_mapmarker_customfields"><value>[]</value></Data></ExtendedData><styleUrl>#mm_marker_color_465</styleUrl></Placemark><Style id="mm_marker_color_466"><IconStyle><color>ff485579</color><colorMode>normal</colorMode><scale>1</scale></IconStyle><LineStyle><color>ff485579</color><width>4</width></LineStyle><PolyStyle><color>ff485579</color></PolyStyle></Style><Placemark id="466"><name>C4-11</name><description><![CDATA[<pre id="com.exlyo.mapmarker.description_p_tag"></pre>]]></description><phoneNumber></phoneNumber><Point><coordinates>-42.2075262182036,-21.529624839626166</coordinates></Point><TimeStamp><when>2025-09-18T19:22:22Z</when></TimeStamp><ExtendedData><Data name="com_exlyo_mapmarker_piniconcode"><value>-1</value></Data><Data name="com_exlyo_mapmarker_customfields"><value>[]</value></Data></ExtendedData><styleUrl>#mm_marker_color_466</styleUrl></Placemark><Style id="mm_marker_color_467"><IconStyle><color>ff485579</color><colorMode>normal</colorMode><scale>1</scale></IconStyle><LineStyle><color>ff485579</color><width>4</width></LineStyle><PolyStyle><color>ff485579</color></PolyStyle></Style><Placemark id="467"><name>C4-12</name><description><![CDATA[<pre id="com.exlyo.mapmarker.description_p_tag"></pre>]]></description><phoneNumber></phoneNumber><Point><coordinates>-42.20474224537611,-21.529682621658736</coordinates></Point><TimeStamp><when>2025-09-18T19:27:00Z</when></TimeStamp><ExtendedData><Data name="com_exlyo_mapmarker_piniconcode"><value>-1</value></Data><Data name="com_exlyo_mapmarker_customfields"><value>[]</value></Data></ExtendedData><styleUrl>#mm_marker_color_467</styleUrl></Placemark><Style id="mm_marker_color_468"><IconStyle><color>ff485579</color><colorMode>normal</colorMode><scale>1</scale></IconStyle><LineStyle><color>ff485579</color><width>4</width></LineStyle><PolyStyle><color>ff485579</color></PolyStyle></Style><Placemark id="468"><name>C4-13</name><description><![CDATA[<pre id="com.exlyo.mapmarker.description_p_tag"></pre>]]></description><phoneNumber></phoneNumber><Point><coordinates>-42.20682330429554,-21.529841058186115</coordinates></Point><TimeStamp><when>2025-09-18T19:34:40Z</when></TimeStamp><ExtendedData><Data name="com_exlyo_mapmarker_piniconcode"><value>-1</value></Data><Data name="com_exlyo_mapmarker_customfields"><value>[]</value></Data></ExtendedData><styleUrl>#mm_marker_color_468</styleUrl></Placemark><Style id="mm_marker_color_469"><IconStyle><color>ff485579</color><colorMode>normal</colorMode><scale>1</scale></IconStyle><LineStyle><color>ff485579</color><width>4</width></LineStyle><PolyStyle><color>ff485579</color></PolyStyle></Style><Placemark id="469"><name>C4-14</name><description><![CDATA[<pre id="com.exlyo.mapmarker.description_p_tag"></pre>]]></description><phoneNumber></phoneNumber><Point><coordinates>-42.20606826245785,-21.530065925480383</coordinates></Point><TimeStamp><when>2025-09-18T19:50:20Z</when></TimeStamp><ExtendedData><Data name="com_exlyo_mapmarker_piniconcode"><value>-1</value></Data><Data name="com_exlyo_mapmarker_customfields"><value>[]</value></Data></ExtendedData><styleUrl>#mm_marker_color_469</styleUrl></Placemark><Style id="mm_marker_color_470"><IconStyle><color>ff485579</color><colorMode>normal</colorMode><scale>1</scale></IconStyle><LineStyle><color>ff485579</color><width>4</width></LineStyle><PolyStyle><color>ff485579</color></PolyStyle></Style><Placemark id="470"><name>C4-15</name><description><![CDATA[<pre id="com.exlyo.mapmarker.description_p_tag"></pre>]]></description><phoneNumber></phoneNumber><Point><coordinates>-42.20535211265087,-21.530065301715826</coordinates></Point><TimeStamp><when>2025-09-18T19:47:27Z</when></TimeStamp><ExtendedData><Data name="com_exlyo_mapmarker_piniconcode"><value>-1</value></Data><Data name="com_exlyo_mapmarker_customfields"><value>[]</value></Data></ExtendedData><styleUrl>#mm_marker_color_470</styleUrl></Placemark><Style id="mm_marker_color_471"><IconStyle><color>ff485579</color><colorMode>normal</colorMode><scale>1</scale></IconStyle><LineStyle><color>ff485579</color><width>4</width></LineStyle><PolyStyle><color>ff485579</color></PolyStyle></Style><Placemark id="471"><name>C4-16</name><description><![CDATA[<pre id="com.exlyo.mapmarker.description_p_tag"></pre>]]></description><phoneNumber></phoneNumber><Point><coordinates>-42.205876149237156,-21.530390594565613</coordinates></Point><TimeStamp><when>2025-09-18T19:41:47Z</when></TimeStamp><ExtendedData><Data name="com_exlyo_mapmarker_piniconcode"><value>-1</value></Data><Data name="com_exlyo_mapmarker_customfields"><value>[]</value></Data></ExtendedData><styleUrl>#mm_marker_color_471</styleUrl></Placemark><Style id="mm_marker_color_472"><IconStyle><color>ff485579</color><colorMode>normal</colorMode><scale>1</scale></IconStyle><LineStyle><color>ff485579</color><width>4</width></LineStyle><PolyStyle><color>ff485579</color></PolyStyle></Style><Placemark id="472"><name>C4-17</name><description><![CDATA[<pre id="com.exlyo.mapmarker.description_p_tag"></pre>]]></description><phoneNumber></phoneNumber><Point><coordinates>-42.20582216978073,-21.53065163921148</coordinates></Point><TimeStamp><when>2025-09-18T19:38:18Z</when></TimeStamp><ExtendedData><Data name="com_exlyo_mapmarker_piniconcode"><value>-1</value></Data><Data name="com_exlyo_mapmarker_customfields"><value>[]</value></Data></ExtendedData><styleUrl>#mm_marker_color_472</styleUrl></Placemark><Style id="mm_marker_color_473"><IconStyle><color>ff485579</color><colorMode>normal</colorMode><scale>1</scale></IconStyle><LineStyle><color>ff485579</color><width>4</width></LineStyle><PolyStyle><color>ff485579</color></PolyStyle></Style><Placemark id="473"><name>C4.01</name><description><![CDATA[<pre id="com.exlyo.mapmarker.description_p_tag"></pre>]]></description><phoneNumber></phoneNumber><Point><coordinates>-42.20383247815881,-21.528646122806933</coordinates></Point><TimeStamp><when>2025-09-18T19:10:00Z</when></TimeStamp><ExtendedData><Data name="com_exlyo_mapmarker_piniconcode"><value>-1</value></Data><Data name="com_exlyo_mapmarker_customfields"><value>[]</value></Data></ExtendedData><styleUrl>#mm_marker_color_473</styleUrl></Placemark><Style id="mm_marker_color_474"><IconStyle><color>ff485579</color><colorMode>normal</colorMode><scale>1</scale></IconStyle><LineStyle><color>ff485579</color><width>4</width></LineStyle><PolyStyle><color>ff485579</color></PolyStyle></Style><Placemark id="474"><name>C5-07</name><description><![CDATA[<pre id="com.exlyo.mapmarker.description_p_tag"></pre>]]></description><phoneNumber></phoneNumber><Point><coordinates>-42.20630396157503,-21.52919452379016</coordinates></Point><TimeStamp><when>2025-09-18T19:17:29Z</when></TimeStamp><ExtendedData><Data name="com_exlyo_mapmarker_piniconcode"><value>-1</value></Data><Data name="com_exlyo_mapmarker_customfields"><value>[]</value></Data></ExtendedData><styleUrl>#mm_marker_color_474</styleUrl></Placemark><Style id="mm_marker_color_475"><IconStyle><color>ff3643f4</color><colorMode>normal</colorMode><scale>1</scale></IconStyle><LineStyle><color>ff3643f4</color><width>4</width></LineStyle><PolyStyle><color>ff3643f4</color></PolyStyle></Style><Placemark id="475"><name>Celula 04</name><description><![CDATA[<pre id="com.exlyo.mapmarker.description_p_tag"></pre>]]></description><phoneNumber></phoneNumber><Point><coordinates>-42.20592577010393,-21.52917892958203</coordinates></Point><TimeStamp><when>2025-09-18T19:16:09Z</when></TimeStamp><ExtendedData><Data name="com_exlyo_mapmarker_piniconcode"><value>-1</value></Data><Data name="com_exlyo_mapmarker_customfields"><value>[]</value></Data></ExtendedData><styleUrl>#mm_marker_color_475</styleUrl></Placemark><Style id="mm_marker_color_476"><IconStyle><color>ff485579</color><colorMode>normal</colorMode><scale>1</scale></IconStyle><LineStyle><color>ff485579</color><width>4</width></LineStyle><PolyStyle><color>ff485579</color></PolyStyle></Style><Placemark id="476"><name>Marcador 28</name><description><![CDATA[<pre id="com.exlyo.mapmarker.description_p_tag"></pre>]]></description><phoneNumber></phoneNumber><LineString><coordinates> -42.20609240233898,-21.53006623736265 -42.20535311847925,-21.53004877195424 -42.20535311847925,-21.53004877195424</coordinates></LineString><TimeStamp><when>2025-09-18T19:51:53Z</when></TimeStamp><ExtendedData><Data name="com_exlyo_mapmarker_piniconcode"><value>-1</value></Data><Data name="com_exlyo_mapmarker_customfields"><value>[]</value></Data></ExtendedData><styleUrl>#mm_marker_color_476</styleUrl></Placemark></Folder></Document></kml>