<?xml version='1.0' encoding='UTF-8' ?>
<kml xmlns="http://www.opengis.net/kml/2.2" xmlns:gx="http://www.google.com/kml/ext/2.2"><Document><name>2025/01/24 @ 08:27:52</name><Style id="mm_folder_color_40"><IconStyle><color>fff4a903</color><colorMode>normal</colorMode><scale>1</scale></IconStyle><LineStyle><color>fff4a903</color><width>4</width></LineStyle><PolyStyle><color>fff4a903</color></PolyStyle></Style><Folder id="40"><styleUrl>#mm_folder_color_40</styleUrl><name>Célula 06 Pádua</name><ExtendedData><Data name="com_exlyo_mapmarker_piniconcode"><value>-1</value></Data><Data name="com_exlyo_mapmarker_customfields"><value>[]</value></Data></ExtendedData><Style id="mm_marker_color_3575"><IconStyle><color>fff4a903</color><colorMode>normal</colorMode><scale>1</scale></IconStyle><LineStyle><color>fff4a903</color><width>4</width></LineStyle><PolyStyle><color>fff4a903</color></PolyStyle></Style><Placemark id="3575"><name>AS</name><description><![CDATA[<pre id="com.exlyo.mapmarker.description_p_tag"></pre>]]></description><phoneNumber></phoneNumber><LineString><coordinates> -42.198410890996456,-21.532601818116436 -42.19849806278944,-21.532712534348423 -42.199340276420116,-21.532826369259485</coordinates></LineString><TimeStamp><when>2025-11-13T17:50:08Z</when></TimeStamp><ExtendedData><Data name="com_exlyo_mapmarker_piniconcode"><value>-1</value></Data><Data name="com_exlyo_mapmarker_customfields"><value>[]</value></Data></ExtendedData><styleUrl>#mm_marker_color_3575</styleUrl></Placemark><Style id="mm_marker_color_3577"><IconStyle><color>fff4a903</color><colorMode>normal</colorMode><scale>1</scale></IconStyle><LineStyle><color>fff4a903</color><width>4</width></LineStyle><PolyStyle><color>fff4a903</color></PolyStyle></Style><Placemark id="3577"><name>AS</name><description><![CDATA[<pre id="com.exlyo.mapmarker.description_p_tag"></pre>]]></description><phoneNumber></phoneNumber><LineString><coordinates> -42.19933994114399,-21.532817324845166 -42.20022976398468,-21.53302596998404</coordinates></LineString><TimeStamp><when>2025-11-13T17:50:38Z</when></TimeStamp><ExtendedData><Data name="com_exlyo_mapmarker_piniconcode"><value>-1</value></Data><Data name="com_exlyo_mapmarker_customfields"><value>[]</value></Data></ExtendedData><styleUrl>#mm_marker_color_3577</styleUrl></Placemark><Style id="mm_marker_color_3578"><IconStyle><color>fff4a903</color><colorMode>normal</colorMode><scale>1</scale></IconStyle><LineStyle><color>fff4a903</color><width>4</width></LineStyle><PolyStyle><color>fff4a903</color></PolyStyle></Style><Placemark id="3578"><name>AS</name><description><![CDATA[<pre id="com.exlyo.mapmarker.description_p_tag"></pre>]]></description><phoneNumber></phoneNumber><LineString><coordinates> -42.20091104507446,-21.53317785347656 -42.20084331929684,-21.533161324069262 -42.20110550522804,-21.532361672759738 -42.20117423683405,-21.53206913151592 -42.20116015523672,-21.5319699542867 -42.200868129730225,-21.53158291294235 -42.2004134953022,-21.531107296662533 -42.20026630908251,-21.531097004620896 -42.20023009926081,-21.531270097951356</coordinates></LineString><TimeStamp><when>2025-11-13T17:52:37Z</when></TimeStamp><ExtendedData><Data name="com_exlyo_mapmarker_piniconcode"><value>-1</value></Data><Data name="com_exlyo_mapmarker_customfields"><value>[]</value></Data></ExtendedData><styleUrl>#mm_marker_color_3578</styleUrl></Placemark><Style id="mm_marker_color_3579"><IconStyle><color>fff4a903</color><colorMode>normal</colorMode><scale>1</scale></IconStyle><LineStyle><color>fff4a903</color><width>4</width></LineStyle><PolyStyle><color>fff4a903</color></PolyStyle></Style><Placemark id="3579"><name>AS</name><description><![CDATA[<pre id="com.exlyo.mapmarker.description_p_tag"></pre>]]></description><phoneNumber></phoneNumber><LineString><coordinates> -42.20145754516125,-21.531493403636876 -42.20084499567747,-21.530715886686774 -42.20041383057833,-21.531140044062884 -42.20020662993193,-21.53130190967613 -42.1998455375433,-21.531504631287984 -42.19908647239208,-21.531856118704276</coordinates></LineString><TimeStamp><when>2025-11-13T17:51:30Z</when></TimeStamp><ExtendedData><Data name="com_exlyo_mapmarker_piniconcode"><value>-1</value></Data><Data name="com_exlyo_mapmarker_customfields"><value>[]</value></Data></ExtendedData><styleUrl>#mm_marker_color_3579</styleUrl></Placemark><Style id="mm_marker_color_3580"><IconStyle><color>fff4a903</color><colorMode>normal</colorMode><scale>1</scale></IconStyle><LineStyle><color>fff4a903</color><width>4</width></LineStyle><PolyStyle><color>fff4a903</color></PolyStyle></Style><Placemark id="3580"><name>AS</name><description><![CDATA[<pre id="com.exlyo.mapmarker.description_p_tag"></pre>]]></description><phoneNumber></phoneNumber><LineString><coordinates> -42.20112361013889,-21.53235605896742 -42.20054190605879,-21.532398786158986 -42.20019321888685,-21.53244556774118 -42.199785858392715,-21.53245897845861</coordinates></LineString><TimeStamp><when>2025-11-13T17:53:23Z</when></TimeStamp><ExtendedData><Data name="com_exlyo_mapmarker_piniconcode"><value>-1</value></Data><Data name="com_exlyo_mapmarker_customfields"><value>[]</value></Data></ExtendedData><styleUrl>#mm_marker_color_3580</styleUrl></Placemark><Style id="mm_marker_color_3581"><IconStyle><color>fff4a903</color><colorMode>normal</colorMode><scale>1</scale></IconStyle><LineStyle><color>fff4a903</color><width>4</width></LineStyle><PolyStyle><color>fff4a903</color></PolyStyle></Style><Placemark id="3581"><name>AS 80</name><description><![CDATA[<pre id="com.exlyo.mapmarker.description_p_tag"></pre>]]></description><phoneNumber></phoneNumber><LineString><coordinates> -42.199062667787075,-21.531890737205913 -42.198414243757725,-21.532574684829793 -42.19776917248964,-21.53267510915268 -42.19672445207834,-21.53288094760987 -42.19637040048838,-21.5329676491757 -42.19598885625601,-21.53306277133767 -42.195476554334164,-21.533279524883806</coordinates></LineString><TimeStamp><when>2025-11-13T17:48:26Z</when></TimeStamp><ExtendedData><Data name="com_exlyo_mapmarker_piniconcode"><value>-1</value></Data><Data name="com_exlyo_mapmarker_customfields"><value>[]</value></Data></ExtendedData><styleUrl>#mm_marker_color_3581</styleUrl></Placemark><Style id="mm_marker_color_3582"><IconStyle><color>fff4a903</color><colorMode>normal</colorMode><scale>1</scale></IconStyle><LineStyle><color>fff4a903</color><width>4</width></LineStyle><PolyStyle><color>fff4a903</color></PolyStyle></Style><Placemark id="3582"><name>AS 80</name><description><![CDATA[<pre id="com.exlyo.mapmarker.description_p_tag"></pre>]]></description><phoneNumber></phoneNumber><LineString><coordinates> -42.197734639048576,-21.532686336712416 -42.19780705869198,-21.532748088275426 -42.19799414277077,-21.532713781854778 -42.19780370593071,-21.532177665009893 -42.19770044088364,-21.532207917147492</coordinates></LineString><TimeStamp><when>2025-11-13T17:49:18Z</when></TimeStamp><ExtendedData><Data name="com_exlyo_mapmarker_piniconcode"><value>-1</value></Data><Data name="com_exlyo_mapmarker_customfields"><value>[]</value></Data></ExtendedData><styleUrl>#mm_marker_color_3582</styleUrl></Placemark><Style id="mm_marker_color_3583"><IconStyle><color>fff4a903</color><colorMode>normal</colorMode><scale>1</scale></IconStyle><LineStyle><color>fff4a903</color><width>4</width></LineStyle><PolyStyle><color>fff4a903</color></PolyStyle></Style><Placemark id="3583"><name>C6-01</name><description><![CDATA[<pre id="com.exlyo.mapmarker.description_p_tag"></pre>]]></description><phoneNumber></phoneNumber><Point><coordinates>-42.1990716,-21.5319169</coordinates></Point><TimeStamp><when>2025-11-13T17:43:28Z</when></TimeStamp><ExtendedData><Data name="com_exlyo_mapmarker_piniconcode"><value>-1</value></Data><Data name="com_exlyo_mapmarker_customfields"><value>[]</value></Data></ExtendedData><styleUrl>#mm_marker_color_3583</styleUrl></Placemark><Style id="mm_marker_color_3584"><IconStyle><color>fff4a903</color><colorMode>normal</colorMode><scale>1</scale></IconStyle><LineStyle><color>fff4a903</color><width>4</width></LineStyle><PolyStyle><color>fff4a903</color></PolyStyle></Style><Placemark id="3584"><name>C6-02</name><description><![CDATA[<pre id="com.exlyo.mapmarker.description_p_tag"></pre>]]></description><phoneNumber></phoneNumber><Point><coordinates>-42.20023810000006,-21.531275800000135</coordinates></Point><TimeStamp><when>2025-11-13T17:21:30Z</when></TimeStamp><ExtendedData><Data name="com_exlyo_mapmarker_piniconcode"><value>-1</value></Data><Data name="com_exlyo_mapmarker_customfields"><value>[]</value></Data></ExtendedData><styleUrl>#mm_marker_color_3584</styleUrl></Placemark><Style id="mm_marker_color_3585"><IconStyle><color>fff4a903</color><colorMode>normal</colorMode><scale>1</scale></IconStyle><LineStyle><color>fff4a903</color><width>4</width></LineStyle><PolyStyle><color>fff4a903</color></PolyStyle></Style><Placemark id="3585"><name>C6-03</name><description><![CDATA[<pre id="com.exlyo.mapmarker.description_p_tag"></pre>]]></description><phoneNumber></phoneNumber><Point><coordinates>-42.2006602,-21.5309273</coordinates></Point><TimeStamp><when>2025-11-13T17:17:58Z</when></TimeStamp><ExtendedData><Data name="com_exlyo_mapmarker_piniconcode"><value>-1</value></Data><Data name="com_exlyo_mapmarker_customfields"><value>[]</value></Data></ExtendedData><styleUrl>#mm_marker_color_3585</styleUrl></Placemark><Style id="mm_marker_color_3586"><IconStyle><color>fff4a903</color><colorMode>normal</colorMode><scale>1</scale></IconStyle><LineStyle><color>fff4a903</color><width>4</width></LineStyle><PolyStyle><color>fff4a903</color></PolyStyle></Style><Placemark id="3586"><name>C6-04</name><description><![CDATA[<pre id="com.exlyo.mapmarker.description_p_tag"></pre>]]></description><phoneNumber></phoneNumber><Point><coordinates>-42.20146529999939,-21.531486899999944</coordinates></Point><TimeStamp><when>2025-11-13T17:15:22Z</when></TimeStamp><ExtendedData><Data name="com_exlyo_mapmarker_piniconcode"><value>-1</value></Data><Data name="com_exlyo_mapmarker_customfields"><value>[]</value></Data></ExtendedData><styleUrl>#mm_marker_color_3586</styleUrl></Placemark><Style id="mm_marker_color_3587"><IconStyle><color>fff4a903</color><colorMode>normal</colorMode><scale>1</scale></IconStyle><LineStyle><color>fff4a903</color><width>4</width></LineStyle><PolyStyle><color>fff4a903</color></PolyStyle></Style><Placemark id="3587"><name>C6-05</name><description><![CDATA[<pre id="com.exlyo.mapmarker.description_p_tag"></pre>]]></description><phoneNumber></phoneNumber><Point><coordinates>-42.20088,-21.5316158</coordinates></Point><TimeStamp><when>2025-11-13T17:22:38Z</when></TimeStamp><ExtendedData><Data name="com_exlyo_mapmarker_piniconcode"><value>-1</value></Data><Data name="com_exlyo_mapmarker_customfields"><value>[]</value></Data></ExtendedData><styleUrl>#mm_marker_color_3587</styleUrl></Placemark><Style id="mm_marker_color_3588"><IconStyle><color>fff4a903</color><colorMode>normal</colorMode><scale>1</scale></IconStyle><LineStyle><color>fff4a903</color><width>4</width></LineStyle><PolyStyle><color>fff4a903</color></PolyStyle></Style><Placemark id="3588"><name>C6-06</name><description><![CDATA[<pre id="com.exlyo.mapmarker.description_p_tag"></pre>]]></description><phoneNumber></phoneNumber><Point><coordinates>-42.20112760025809,-21.532379799974823</coordinates></Point><TimeStamp><when>2025-11-13T17:30:06Z</when></TimeStamp><ExtendedData><Data name="com_exlyo_mapmarker_piniconcode"><value>-1</value></Data><Data name="com_exlyo_mapmarker_customfields"><value>[]</value></Data></ExtendedData><styleUrl>#mm_marker_color_3588</styleUrl></Placemark><Style id="mm_marker_color_3589"><IconStyle><color>fff4a903</color><colorMode>normal</colorMode><scale>1</scale></IconStyle><LineStyle><color>fff4a903</color><width>4</width></LineStyle><PolyStyle><color>fff4a903</color></PolyStyle></Style><Placemark id="3589"><name>C6-07</name><description><![CDATA[<pre id="com.exlyo.mapmarker.description_p_tag"></pre>]]></description><phoneNumber></phoneNumber><Point><coordinates>-42.20055248754909,-21.532432212450914</coordinates></Point><TimeStamp><when>2025-11-13T17:27:23Z</when></TimeStamp><ExtendedData><Data name="com_exlyo_mapmarker_piniconcode"><value>-1</value></Data><Data name="com_exlyo_mapmarker_customfields"><value>[]</value></Data></ExtendedData><styleUrl>#mm_marker_color_3589</styleUrl></Placemark><Style id="mm_marker_color_3590"><IconStyle><color>fff4a903</color><colorMode>normal</colorMode><scale>1</scale></IconStyle><LineStyle><color>fff4a903</color><width>4</width></LineStyle><PolyStyle><color>fff4a903</color></PolyStyle></Style><Placemark id="3590"><name>C6-08</name><description><![CDATA[<pre id="com.exlyo.mapmarker.description_p_tag"></pre>]]></description><phoneNumber></phoneNumber><Point><coordinates>-42.19979539999234,-21.53246879999237</coordinates></Point><TimeStamp><when>2025-11-13T17:28:24Z</when></TimeStamp><ExtendedData><Data name="com_exlyo_mapmarker_piniconcode"><value>-1</value></Data><Data name="com_exlyo_mapmarker_customfields"><value>[]</value></Data></ExtendedData><styleUrl>#mm_marker_color_3590</styleUrl></Placemark><Style id="mm_marker_color_3591"><IconStyle><color>fff4a903</color><colorMode>normal</colorMode><scale>1</scale></IconStyle><LineStyle><color>fff4a903</color><width>4</width></LineStyle><PolyStyle><color>fff4a903</color></PolyStyle></Style><Placemark id="3591"><name>C6-09</name><description><![CDATA[<pre id="com.exlyo.mapmarker.description_p_tag"></pre>]]></description><phoneNumber></phoneNumber><Point><coordinates>-42.20092700002476,-21.533163400019188</coordinates></Point><TimeStamp><when>2025-11-13T17:31:16Z</when></TimeStamp><ExtendedData><Data name="com_exlyo_mapmarker_piniconcode"><value>-1</value></Data><Data name="com_exlyo_mapmarker_customfields"><value>[]</value></Data></ExtendedData><styleUrl>#mm_marker_color_3591</styleUrl></Placemark><Style id="mm_marker_color_3592"><IconStyle><color>fff4a903</color><colorMode>normal</colorMode><scale>1</scale></IconStyle><LineStyle><color>fff4a903</color><width>4</width></LineStyle><PolyStyle><color>fff4a903</color></PolyStyle></Style><Placemark id="3592"><name>C6-10</name><description><![CDATA[<pre id="com.exlyo.mapmarker.description_p_tag"></pre>]]></description><phoneNumber></phoneNumber><Point><coordinates>-42.20022694226221,-21.5330438</coordinates></Point><TimeStamp><when>2025-11-13T17:32:45Z</when></TimeStamp><ExtendedData><Data name="com_exlyo_mapmarker_piniconcode"><value>-1</value></Data><Data name="com_exlyo_mapmarker_customfields"><value>[]</value></Data></ExtendedData><styleUrl>#mm_marker_color_3592</styleUrl></Placemark><Style id="mm_marker_color_3593"><IconStyle><color>fff4a903</color><colorMode>normal</colorMode><scale>1</scale></IconStyle><LineStyle><color>fff4a903</color><width>4</width></LineStyle><PolyStyle><color>fff4a903</color></PolyStyle></Style><Placemark id="3593"><name>C6-11</name><description><![CDATA[<pre id="com.exlyo.mapmarker.description_p_tag"></pre>]]></description><phoneNumber></phoneNumber><Point><coordinates>-42.199275,-21.5328411</coordinates></Point><TimeStamp><when>2025-11-13T17:33:46Z</when></TimeStamp><ExtendedData><Data name="com_exlyo_mapmarker_piniconcode"><value>-1</value></Data><Data name="com_exlyo_mapmarker_customfields"><value>[]</value></Data></ExtendedData><styleUrl>#mm_marker_color_3593</styleUrl></Placemark><Style id="mm_marker_color_3594"><IconStyle><color>fff4a903</color><colorMode>normal</colorMode><scale>1</scale></IconStyle><LineStyle><color>fff4a903</color><width>4</width></LineStyle><PolyStyle><color>fff4a903</color></PolyStyle></Style><Placemark id="3594"><name>C6-12</name><description><![CDATA[<pre id="com.exlyo.mapmarker.description_p_tag"></pre>]]></description><phoneNumber></phoneNumber><Point><coordinates>-42.1984852,-21.5326933</coordinates></Point><TimeStamp><when>2025-11-13T17:35:15Z</when></TimeStamp><ExtendedData><Data name="com_exlyo_mapmarker_piniconcode"><value>-1</value></Data><Data name="com_exlyo_mapmarker_customfields"><value>[]</value></Data></ExtendedData><styleUrl>#mm_marker_color_3594</styleUrl></Placemark><Style id="mm_marker_color_3595"><IconStyle><color>fff4a903</color><colorMode>normal</colorMode><scale>1</scale></IconStyle><LineStyle><color>fff4a903</color><width>4</width></LineStyle><PolyStyle><color>fff4a903</color></PolyStyle></Style><Placemark id="3595"><name>C6-13</name><description><![CDATA[<pre id="com.exlyo.mapmarker.description_p_tag"></pre>]]></description><phoneNumber></phoneNumber><Point><coordinates>-42.19774340067737,-21.532716299496816</coordinates></Point><TimeStamp><when>2025-11-13T17:36:35Z</when></TimeStamp><ExtendedData><Data name="com_exlyo_mapmarker_piniconcode"><value>-1</value></Data><Data name="com_exlyo_mapmarker_customfields"><value>[]</value></Data></ExtendedData><styleUrl>#mm_marker_color_3595</styleUrl></Placemark><Style id="mm_marker_color_3596"><IconStyle><color>fff4a903</color><colorMode>normal</colorMode><scale>1</scale></IconStyle><LineStyle><color>fff4a903</color><width>4</width></LineStyle><PolyStyle><color>fff4a903</color></PolyStyle></Style><Placemark id="3596"><name>C6-14</name><description><![CDATA[<pre id="com.exlyo.mapmarker.description_p_tag"></pre>]]></description><phoneNumber></phoneNumber><Point><coordinates>-42.1977006,-21.5322475</coordinates></Point><TimeStamp><when>2025-11-13T17:45:13Z</when></TimeStamp><ExtendedData><Data name="com_exlyo_mapmarker_piniconcode"><value>-1</value></Data><Data name="com_exlyo_mapmarker_customfields"><value>[]</value></Data></ExtendedData><styleUrl>#mm_marker_color_3596</styleUrl></Placemark><Style id="mm_marker_color_3597"><IconStyle><color>fff4a903</color><colorMode>normal</colorMode><scale>1</scale></IconStyle><LineStyle><color>fff4a903</color><width>4</width></LineStyle><PolyStyle><color>fff4a903</color></PolyStyle></Style><Placemark id="3597"><name>C6-15</name><description><![CDATA[<pre id="com.exlyo.mapmarker.description_p_tag"></pre>]]></description><phoneNumber></phoneNumber><Point><coordinates>-42.19634039989561,-21.532998300017397</coordinates></Point><TimeStamp><when>2025-11-13T17:38:22Z</when></TimeStamp><ExtendedData><Data name="com_exlyo_mapmarker_piniconcode"><value>-1</value></Data><Data name="com_exlyo_mapmarker_customfields"><value>[]</value></Data></ExtendedData><styleUrl>#mm_marker_color_3597</styleUrl></Placemark><Style id="mm_marker_color_3598"><IconStyle><color>fff4a903</color><colorMode>normal</colorMode><scale>1</scale></IconStyle><LineStyle><color>fff4a903</color><width>4</width></LineStyle><PolyStyle><color>fff4a903</color></PolyStyle></Style><Placemark id="3598"><name>C6-16</name><description><![CDATA[<pre id="com.exlyo.mapmarker.description_p_tag"></pre>]]></description><phoneNumber></phoneNumber><Point><coordinates>-42.19547350000004,-21.533329400000028</coordinates></Point><TimeStamp><when>2025-11-13T17:39:30Z</when></TimeStamp><ExtendedData><Data name="com_exlyo_mapmarker_piniconcode"><value>-1</value></Data><Data name="com_exlyo_mapmarker_customfields"><value>[]</value></Data></ExtendedData><styleUrl>#mm_marker_color_3598</styleUrl></Placemark><Style id="mm_marker_color_3599"><IconStyle><color>ff631ee9</color><colorMode>normal</colorMode><scale>1</scale></IconStyle><LineStyle><color>ff631ee9</color><width>4</width></LineStyle><PolyStyle><color>ff631ee9</color></PolyStyle></Style><Placemark id="3599"><name>CELULA 06</name><description><![CDATA[<pre id="com.exlyo.mapmarker.description_p_tag"></pre>]]></description><phoneNumber></phoneNumber><Point><coordinates>-42.199141792953014,-21.53183397533403</coordinates></Point><TimeStamp><when>2025-11-13T17:55:17Z</when></TimeStamp><ExtendedData><Data name="com_exlyo_mapmarker_piniconcode"><value>-1</value></Data><Data name="com_exlyo_mapmarker_customfields"><value>[]</value></Data></ExtendedData><styleUrl>#mm_marker_color_3599</styleUrl></Placemark></Folder></Document></kml>