<?xml version='1.0' encoding='UTF-8' ?>
<kml xmlns="http://www.opengis.net/kml/2.2" xmlns:gx="http://www.google.com/kml/ext/2.2"><Document><name>2025/01/24 @ 08:27:52</name><Style id="mm_folder_color_39"><IconStyle><color>ff3aef39</color><colorMode>normal</colorMode><scale>1</scale></IconStyle><LineStyle><color>ff3aef39</color><width>4</width></LineStyle><PolyStyle><color>ff3aef39</color></PolyStyle></Style><Folder id="39"><styleUrl>#mm_folder_color_39</styleUrl><name>FO-Principal Mote Alegre</name><ExtendedData><Data name="com_exlyo_mapmarker_piniconcode"><value>-1</value></Data><Data name="com_exlyo_mapmarker_customfields"><value>[]</value></Data></ExtendedData><Style id="mm_marker_color_2842"><IconStyle><color>ff3aef39</color><colorMode>normal</colorMode><scale>1</scale></IconStyle><LineStyle><color>ff3aef39</color><width>4</width></LineStyle><PolyStyle><color>ff3aef39</color></PolyStyle></Style><Placemark id="2842"><name></name><description><![CDATA[<pre id="com.exlyo.mapmarker.description_p_tag"></pre>]]></description><phoneNumber></phoneNumber><LineString><coordinates> -42.03840590684526,-21.47161651215891 -42.03861006327812,-21.47134016604229 -42.038916297927436,-21.47083928736959 -42.03917613338751,-21.47031249932126 -42.03958444625325,-21.47028659166318 -42.03982572203751,-21.47007069433329 -42.03980716236194,-21.469975699406778 -42.0390090963068,-21.469759801616153 -42.03860078344134,-21.469647534638586 -42.03824814960295,-21.46982025302978 -42.03785839641327,-21.469751165697886 -42.03783055689975,-21.469526631642914 -42.03766351981843,-21.468956659026077 -42.03692113279033,-21.46847304414786 -42.03692113279033,-21.46847304414786</coordinates></LineString><TimeStamp><when>2026-06-25T13:03:45Z</when></TimeStamp><ExtendedData><Data name="com_exlyo_mapmarker_piniconcode"><value>-1</value></Data><Data name="com_exlyo_mapmarker_customfields"><value>[]</value></Data></ExtendedData><styleUrl>#mm_marker_color_2842</styleUrl></Placemark><Style id="mm_marker_color_2844"><IconStyle><color>ff3aef39</color><colorMode>normal</colorMode><scale>1</scale></IconStyle><LineStyle><color>ff3aef39</color><width>4</width></LineStyle><PolyStyle><color>ff3aef39</color></PolyStyle></Style><Placemark id="2844"><name>Caixa de Emenda</name><description><![CDATA[<pre id="com.exlyo.mapmarker.description_p_tag"></pre>]]></description><phoneNumber></phoneNumber><Point><coordinates>-42.03692113279033,-21.46847304414786</coordinates></Point><TimeStamp><when>2026-06-25T13:06:22Z</when></TimeStamp><ExtendedData><Data name="com_exlyo_mapmarker_piniconcode"><value>-13</value></Data><Data name="com_exlyo_mapmarker_customfields"><value>[]</value></Data></ExtendedData><styleUrl>#mm_marker_color_2844</styleUrl></Placemark><Style id="mm_marker_color_2846"><IconStyle><color>ff3aef39</color><colorMode>normal</colorMode><scale>1</scale></IconStyle><LineStyle><color>ff3aef39</color><width>4</width></LineStyle><PolyStyle><color>ff3aef39</color></PolyStyle></Style><Placemark id="2846"><name>Caixa de Emenda</name><description><![CDATA[<pre id="com.exlyo.mapmarker.description_p_tag"></pre>]]></description><phoneNumber></phoneNumber><Point><coordinates>-42.03841518668532,-21.471599240541252</coordinates></Point><TimeStamp><when>2026-06-25T13:07:22Z</when></TimeStamp><ExtendedData><Data name="com_exlyo_mapmarker_piniconcode"><value>-13</value></Data><Data name="com_exlyo_mapmarker_customfields"><value>[]</value></Data></ExtendedData><styleUrl>#mm_marker_color_2846</styleUrl></Placemark><Style id="mm_marker_color_2850"><IconStyle><color>ff3aef39</color><colorMode>normal</colorMode><scale>1</scale></IconStyle><LineStyle><color>ff3aef39</color><width>4</width></LineStyle><PolyStyle><color>ff3aef39</color></PolyStyle></Style><Placemark id="2850"><name>Caixa de Emenda</name><description><![CDATA[<pre id="com.exlyo.mapmarker.description_p_tag"></pre>]]></description><phoneNumber></phoneNumber><Point><coordinates>-42.03919469306542,-21.470312499321043</coordinates></Point><TimeStamp><when>2026-06-25T13:07:58Z</when></TimeStamp><ExtendedData><Data name="com_exlyo_mapmarker_piniconcode"><value>-13</value></Data><Data name="com_exlyo_mapmarker_customfields"><value>[]</value></Data></ExtendedData><styleUrl>#mm_marker_color_2850</styleUrl></Placemark><Style id="mm_marker_color_2852"><IconStyle><color>ff3aef39</color><colorMode>normal</colorMode><scale>1</scale></IconStyle><LineStyle><color>ff3aef39</color><width>4</width></LineStyle><PolyStyle><color>ff3aef39</color></PolyStyle></Style><Placemark id="2852"><name>Caixa de Emenda</name><description><![CDATA[<pre id="com.exlyo.mapmarker.description_p_tag"></pre>]]></description><phoneNumber></phoneNumber><Point><coordinates>-42.03853582457801,-21.469664806486705</coordinates></Point><TimeStamp><when>2026-06-25T13:08:42Z</when></TimeStamp><ExtendedData><Data name="com_exlyo_mapmarker_piniconcode"><value>-13</value></Data><Data name="com_exlyo_mapmarker_customfields"><value>[]</value></Data></ExtendedData><styleUrl>#mm_marker_color_2852</styleUrl></Placemark></Folder></Document></kml>