<?xml version='1.0' encoding='UTF-8' ?>
<kml xmlns="http://www.opengis.net/kml/2.2" xmlns:gx="http://www.google.com/kml/ext/2.2"><Document><name>2025/01/24 @ 08:27:52</name><Style id="mm_folder_color_35"><IconStyle><color>ff00b371</color><colorMode>normal</colorMode><scale>1</scale></IconStyle><LineStyle><color>ff00b371</color><width>4</width></LineStyle><PolyStyle><color>ff00b371</color></PolyStyle></Style><Folder id="35"><styleUrl>#mm_folder_color_35</styleUrl><name>FO- Redundancia Miracema Link</name><ExtendedData><Data name="com_exlyo_mapmarker_piniconcode"><value>-1</value></Data><Data name="com_exlyo_mapmarker_customfields"><value>[]</value></Data></ExtendedData><Style id="mm_marker_color_2108"><IconStyle><color>ff3aef39</color><colorMode>normal</colorMode><scale>1</scale></IconStyle><LineStyle><color>ff3aef39</color><width>4</width></LineStyle><PolyStyle><color>ff3aef39</color></PolyStyle></Style><Placemark id="2108"><name></name><description><![CDATA[<pre id="com.exlyo.mapmarker.description_p_tag"></pre>]]></description><phoneNumber></phoneNumber><LineString><coordinates> -42.192160388206965,-21.40443082704077 -42.19205779601439,-21.4043252565072 -42.19168522436771,-21.4045866691177 -42.191415244913564,-21.404727429560403 -42.19108586997953,-21.40477267395966 -42.19059450737289,-21.404963705713175 -42.19005994805376,-21.405139655791565 -42.18955238668007,-21.40516479149979 -42.189719773941846,-21.405375931277835 -42.19007614682191,-21.40569264037323 -42.190437919290815,-21.406094809664065 -42.19090228395264,-21.40652714041752 -42.190572909018584,-21.406959469892058 -42.190054548466556,-21.407512447588495 -42.18965497887445,-21.407979963463205 -42.18965497887445,-21.407979963463205 -42.19030832915425,-21.408502775143116 -42.19084828806329,-21.408950179807047 -42.19009774518087,-21.410222008055676 -42.1911938617659,-21.410749838663467 -42.192457365612576,-21.41142344828892 -42.193812662473746,-21.41217245833035 -42.19450380987738,-21.41250423336337 -42.195162559746244,-21.412469045138007 -42.195092365088286,-21.412735470062042 -42.194860182757814,-21.413122539369105 -42.19512476262357,-21.413499553942067 -42.19546493673634,-21.414097748401367 -42.19496817454063,-21.414504921380104 -42.19535694495511,-21.41502268291163 -42.19631267222429,-21.415897343854805 -42.19714420894425,-21.416666437943334 -42.19829432142045,-21.416450287726207 -42.19860209799871,-21.416445260973155 -42.199201452387676,-21.41700322950469 -42.199741411296635,-21.41745563485756 -42.20026517143846,-21.41691777500295 -42.20040016116585,-21.41606322723592 -42.20040016116585,-21.41606322723592</coordinates></LineString><TimeStamp><when>2026-06-24T19:06:41Z</when></TimeStamp><ExtendedData><Data name="com_exlyo_mapmarker_piniconcode"><value>-1</value></Data><Data name="com_exlyo_mapmarker_customfields"><value>[]</value></Data></ExtendedData><styleUrl>#mm_marker_color_2108</styleUrl></Placemark><Style id="mm_marker_color_2114"><IconStyle><color>ff3aef39</color><colorMode>normal</colorMode><scale>1</scale></IconStyle><LineStyle><color>ff3aef39</color><width>4</width></LineStyle><PolyStyle><color>ff3aef39</color></PolyStyle></Style><Placemark id="2114"><name></name><description><![CDATA[<pre id="com.exlyo.mapmarker.description_p_tag"></pre>]]></description><phoneNumber></phoneNumber><LineString><coordinates> -42.20467373248153,-21.421942453424403 -42.20439295384915,-21.42212340961407 -42.2039447879551,-21.422269179714895 -42.20341562822495,-21.422344577985825 -42.20321044383978,-21.422414949670202 -42.20321044383978,-21.422414949670202 -42.20309705246903,-21.423098558553683 -42.20295666315284,-21.42387766771728 -42.20285407096028,-21.424380316584443 -42.202724480822255,-21.42430491936466 -42.20265428616419,-21.42415412480824 -42.20261108945152,-21.42366152817216 -42.20258409150614,-21.423460467843242 -42.20236810794284,-21.423425282257178 -42.20215212437956,-21.423460467843242 -42.20215212437956,-21.423460467843242</coordinates></LineString><TimeStamp><when>2026-06-24T19:19:53Z</when></TimeStamp><ExtendedData><Data name="com_exlyo_mapmarker_piniconcode"><value>-1</value></Data><Data name="com_exlyo_mapmarker_customfields"><value>[]</value></Data></ExtendedData><styleUrl>#mm_marker_color_2114</styleUrl></Placemark><Style id="mm_marker_color_2265"><IconStyle><color>ff3aef39</color><colorMode>normal</colorMode><scale>1</scale></IconStyle><LineStyle><color>ff3aef39</color><width>4</width></LineStyle><PolyStyle><color>ff3aef39</color></PolyStyle></Style><Placemark id="2265"><name></name><description><![CDATA[<pre id="com.exlyo.mapmarker.description_p_tag"></pre>]]></description><phoneNumber></phoneNumber><LineString><coordinates> -42.1876471862913,-21.404521199810734 -42.18787936862227,-21.404898236575097 -42.186961438478285,-21.405848364907747 -42.187733579718376,-21.40649686165182 -42.18890529055077,-21.407441952529283 -42.18970442973612,-21.40811055036322 -42.19001220631428,-21.408356875109906 -42.19076814878679,-21.40892492855523 -42.191470095368416,-21.409487952799807 -42.191999255099454,-21.40975941014281 -42.191999255099454,-21.40975941014281</coordinates></LineString><TimeStamp><when>2026-06-24T19:27:30Z</when></TimeStamp><ExtendedData><Data name="com_exlyo_mapmarker_piniconcode"><value>-1</value></Data><Data name="com_exlyo_mapmarker_customfields"><value>[]</value></Data></ExtendedData><styleUrl>#mm_marker_color_2265</styleUrl></Placemark><Style id="mm_marker_color_2298"><IconStyle><color>ff3aef39</color><colorMode>normal</colorMode><scale>1</scale></IconStyle><LineStyle><color>ff3aef39</color><width>4</width></LineStyle><PolyStyle><color>ff3aef39</color></PolyStyle></Style><Placemark id="2298"><name></name><description><![CDATA[<pre id="com.exlyo.mapmarker.description_p_tag"></pre>]]></description><phoneNumber></phoneNumber><LineString><coordinates> -42.197454248262396,-21.41484655761494 -42.19722225231608,-21.414760165896062 -42.196312828206956,-21.415909171578377 -42.196312828206956,-21.415909171578377</coordinates></LineString><TimeStamp><when>2026-06-24T20:27:28Z</when></TimeStamp><ExtendedData><Data name="com_exlyo_mapmarker_piniconcode"><value>-1</value></Data><Data name="com_exlyo_mapmarker_customfields"><value>[]</value></Data></ExtendedData><styleUrl>#mm_marker_color_2298</styleUrl></Placemark><Style id="mm_marker_color_2307"><IconStyle><color>ff3aef39</color><colorMode>normal</colorMode><scale>1</scale></IconStyle><LineStyle><color>ff3aef39</color><width>4</width></LineStyle><PolyStyle><color>ff3aef39</color></PolyStyle></Style><Placemark id="2307"><name></name><description><![CDATA[<pre id="com.exlyo.mapmarker.description_p_tag"></pre>]]></description><phoneNumber></phoneNumber><LineString><coordinates> -42.19742640874978,-21.414863835952602 -42.1977419232369,-21.415079815000748 -42.19820591512976,-21.414405959314518 -42.19820591512976,-21.414405959314518</coordinates></LineString><TimeStamp><when>2026-06-24T20:28:34Z</when></TimeStamp><ExtendedData><Data name="com_exlyo_mapmarker_piniconcode"><value>-1</value></Data><Data name="com_exlyo_mapmarker_customfields"><value>[]</value></Data></ExtendedData><styleUrl>#mm_marker_color_2307</styleUrl></Placemark><Style id="mm_marker_color_2104"><IconStyle><color>ff3aef39</color><colorMode>normal</colorMode><scale>1</scale></IconStyle><LineStyle><color>ff3aef39</color><width>4</width></LineStyle><PolyStyle><color>ff3aef39</color></PolyStyle></Style><Placemark id="2104"><name></name><description><![CDATA[<pre id="com.exlyo.mapmarker.description_p_tag"></pre>]]></description><phoneNumber></phoneNumber><LineString><coordinates> -42.18990635184215,-21.40830887133591 -42.18839446689855,-21.409399733438665 -42.187611526481454,-21.409947674924783 -42.187319948670925,-21.410128645973302 -42.187319948670925,-21.410128645973302</coordinates></LineString><TimeStamp><when>2026-06-25T12:22:08Z</when></TimeStamp><ExtendedData><Data name="com_exlyo_mapmarker_piniconcode"><value>-1</value></Data><Data name="com_exlyo_mapmarker_customfields"><value>[]</value></Data></ExtendedData><styleUrl>#mm_marker_color_2104</styleUrl></Placemark><Style id="mm_marker_color_2116"><IconStyle><color>ff3aef39</color><colorMode>normal</colorMode><scale>1</scale></IconStyle><LineStyle><color>ff3aef39</color><width>4</width></LineStyle><PolyStyle><color>ff3aef39</color></PolyStyle></Style><Placemark id="2116"><name>Caixa de Emenda</name><description><![CDATA[<pre id="com.exlyo.mapmarker.description_p_tag"></pre>]]></description><phoneNumber></phoneNumber><Point><coordinates>-42.20214132520174,-21.423465494354836</coordinates></Point><TimeStamp><when>2026-06-24T19:20:25Z</when></TimeStamp><ExtendedData><Data name="com_exlyo_mapmarker_piniconcode"><value>-13</value></Data><Data name="com_exlyo_mapmarker_customfields"><value>[]</value></Data></ExtendedData><styleUrl>#mm_marker_color_2116</styleUrl></Placemark><Style id="mm_marker_color_2118"><IconStyle><color>ff3aef39</color><colorMode>normal</colorMode><scale>1</scale></IconStyle><LineStyle><color>ff3aef39</color><width>4</width></LineStyle><PolyStyle><color>ff3aef39</color></PolyStyle></Style><Placemark id="2118"><name>Caixa de Emenda</name><description><![CDATA[<pre id="com.exlyo.mapmarker.description_p_tag"></pre>]]></description><phoneNumber></phoneNumber><Point><coordinates>-42.20467913207239,-21.4219625596789</coordinates></Point><TimeStamp><when>2026-06-24T19:21:12Z</when></TimeStamp><ExtendedData><Data name="com_exlyo_mapmarker_piniconcode"><value>-13</value></Data><Data name="com_exlyo_mapmarker_customfields"><value>[]</value></Data></ExtendedData><styleUrl>#mm_marker_color_2118</styleUrl></Placemark><Style id="mm_marker_color_2120"><IconStyle><color>ff3aef39</color><colorMode>normal</colorMode><scale>1</scale></IconStyle><LineStyle><color>ff3aef39</color><width>4</width></LineStyle><PolyStyle><color>ff3aef39</color></PolyStyle></Style><Placemark id="2120"><name>Caixa de Emenda</name><description><![CDATA[<pre id="com.exlyo.mapmarker.description_p_tag"></pre>]]></description><phoneNumber></phoneNumber><Point><coordinates>-42.20573745153337,-21.42604017854552</coordinates></Point><TimeStamp><when>2026-06-24T19:21:35Z</when></TimeStamp><ExtendedData><Data name="com_exlyo_mapmarker_piniconcode"><value>-13</value></Data><Data name="com_exlyo_mapmarker_customfields"><value>[]</value></Data></ExtendedData><styleUrl>#mm_marker_color_2120</styleUrl></Placemark><Style id="mm_marker_color_2122"><IconStyle><color>ff3aef39</color><colorMode>normal</colorMode><scale>1</scale></IconStyle><LineStyle><color>ff3aef39</color><width>4</width></LineStyle><PolyStyle><color>ff3aef39</color></PolyStyle></Style><Placemark id="2122"><name>Caixa de Emenda</name><description><![CDATA[<pre id="com.exlyo.mapmarker.description_p_tag"></pre>]]></description><phoneNumber></phoneNumber><Point><coordinates>-42.20321584343088,-21.430513626371678</coordinates></Point><TimeStamp><when>2026-06-24T19:22:11Z</when></TimeStamp><ExtendedData><Data name="com_exlyo_mapmarker_piniconcode"><value>-13</value></Data><Data name="com_exlyo_mapmarker_customfields"><value>[]</value></Data></ExtendedData><styleUrl>#mm_marker_color_2122</styleUrl></Placemark><Style id="mm_marker_color_2174"><IconStyle><color>ff3aef39</color><colorMode>normal</colorMode><scale>1</scale></IconStyle><LineStyle><color>ff3aef39</color><width>4</width></LineStyle><PolyStyle><color>ff3aef39</color></PolyStyle></Style><Placemark id="2174"><name>Caixa de Emenda</name><description><![CDATA[<pre id="com.exlyo.mapmarker.description_p_tag"></pre>]]></description><phoneNumber></phoneNumber><Point><coordinates>-42.20257165051816,-21.416550706558315</coordinates></Point><TimeStamp><when>2026-06-24T19:22:36Z</when></TimeStamp><ExtendedData><Data name="com_exlyo_mapmarker_piniconcode"><value>-13</value></Data><Data name="com_exlyo_mapmarker_customfields"><value>[]</value></Data></ExtendedData><styleUrl>#mm_marker_color_2174</styleUrl></Placemark><Style id="mm_marker_color_2177"><IconStyle><color>ff3aef39</color><colorMode>normal</colorMode><scale>1</scale></IconStyle><LineStyle><color>ff3aef39</color><width>4</width></LineStyle><PolyStyle><color>ff3aef39</color></PolyStyle></Style><Placemark id="2177"><name>Caixa de Emenda</name><description><![CDATA[<pre id="com.exlyo.mapmarker.description_p_tag"></pre>]]></description><phoneNumber></phoneNumber><Point><coordinates>-42.20042801365183,-21.41506278112926</coordinates></Point><TimeStamp><when>2026-06-24T19:22:59Z</when></TimeStamp><ExtendedData><Data name="com_exlyo_mapmarker_piniconcode"><value>-13</value></Data><Data name="com_exlyo_mapmarker_customfields"><value>[]</value></Data></ExtendedData><styleUrl>#mm_marker_color_2177</styleUrl></Placemark><Style id="mm_marker_color_2219"><IconStyle><color>ff3aef39</color><colorMode>normal</colorMode><scale>1</scale></IconStyle><LineStyle><color>ff3aef39</color><width>4</width></LineStyle><PolyStyle><color>ff3aef39</color></PolyStyle></Style><Placemark id="2219"><name>Caixa de Emenda</name><description><![CDATA[<pre id="com.exlyo.mapmarker.description_p_tag"></pre>]]></description><phoneNumber></phoneNumber><Point><coordinates>-42.19818178459286,-21.414379134634512</coordinates></Point><TimeStamp><when>2026-06-24T19:23:26Z</when></TimeStamp><ExtendedData><Data name="com_exlyo_mapmarker_piniconcode"><value>-13</value></Data><Data name="com_exlyo_mapmarker_customfields"><value>[]</value></Data></ExtendedData><styleUrl>#mm_marker_color_2219</styleUrl></Placemark><Style id="mm_marker_color_2222"><IconStyle><color>ff3aef39</color><colorMode>normal</colorMode><scale>1</scale></IconStyle><LineStyle><color>ff3aef39</color><width>4</width></LineStyle><PolyStyle><color>ff3aef39</color></PolyStyle></Style><Placemark id="2222"><name>Caixa de Emenda</name><description><![CDATA[<pre id="com.exlyo.mapmarker.description_p_tag"></pre>]]></description><phoneNumber></phoneNumber><Point><coordinates>-42.196410719373134,-21.41227288010423</coordinates></Point><TimeStamp><when>2026-06-24T19:23:47Z</when></TimeStamp><ExtendedData><Data name="com_exlyo_mapmarker_piniconcode"><value>-13</value></Data><Data name="com_exlyo_mapmarker_customfields"><value>[]</value></Data></ExtendedData><styleUrl>#mm_marker_color_2222</styleUrl></Placemark><Style id="mm_marker_color_2224"><IconStyle><color>ff3aef39</color><colorMode>normal</colorMode><scale>1</scale></IconStyle><LineStyle><color>ff3aef39</color><width>4</width></LineStyle><PolyStyle><color>ff3aef39</color></PolyStyle></Style><Placemark id="2224"><name>Caixa de Emenda</name><description><![CDATA[<pre id="com.exlyo.mapmarker.description_p_tag"></pre>]]></description><phoneNumber></phoneNumber><Point><coordinates>-42.19506082210217,-21.41452993928376</coordinates></Point><TimeStamp><when>2026-06-24T19:24:05Z</when></TimeStamp><ExtendedData><Data name="com_exlyo_mapmarker_piniconcode"><value>-13</value></Data><Data name="com_exlyo_mapmarker_customfields"><value>[]</value></Data></ExtendedData><styleUrl>#mm_marker_color_2224</styleUrl></Placemark><Style id="mm_marker_color_2242"><IconStyle><color>ff3aef39</color><colorMode>normal</colorMode><scale>1</scale></IconStyle><LineStyle><color>ff3aef39</color><width>4</width></LineStyle><PolyStyle><color>ff3aef39</color></PolyStyle></Style><Placemark id="2242"><name>Caixa de Emenda</name><description><![CDATA[<pre id="com.exlyo.mapmarker.description_p_tag"></pre>]]></description><phoneNumber></phoneNumber><Point><coordinates>-42.1919992550918,-21.409734275223457</coordinates></Point><TimeStamp><when>2026-06-24T19:24:46Z</when></TimeStamp><ExtendedData><Data name="com_exlyo_mapmarker_piniconcode"><value>-13</value></Data><Data name="com_exlyo_mapmarker_customfields"><value>[]</value></Data></ExtendedData><styleUrl>#mm_marker_color_2242</styleUrl></Placemark><Style id="mm_marker_color_2244"><IconStyle><color>ff3aef39</color><colorMode>normal</colorMode><scale>1</scale></IconStyle><LineStyle><color>ff3aef39</color><width>4</width></LineStyle><PolyStyle><color>ff3aef39</color></PolyStyle></Style><Placemark id="2244"><name>Caixa de Emenda</name><description><![CDATA[<pre id="com.exlyo.mapmarker.description_p_tag"></pre>]]></description><phoneNumber></phoneNumber><Point><coordinates>-42.192631007015514,-21.406778378721725</coordinates></Point><TimeStamp><when>2026-06-24T19:25:16Z</when></TimeStamp><ExtendedData><Data name="com_exlyo_mapmarker_piniconcode"><value>-13</value></Data><Data name="com_exlyo_mapmarker_customfields"><value>[]</value></Data></ExtendedData><styleUrl>#mm_marker_color_2244</styleUrl></Placemark><Style id="mm_marker_color_2256"><IconStyle><color>ff3aef39</color><colorMode>normal</colorMode><scale>1</scale></IconStyle><LineStyle><color>ff3aef39</color><width>4</width></LineStyle><PolyStyle><color>ff3aef39</color></PolyStyle></Style><Placemark id="2256"><name>Caixa de Emenda</name><description><![CDATA[<pre id="com.exlyo.mapmarker.description_p_tag"></pre>]]></description><phoneNumber></phoneNumber><Point><coordinates>-42.18989881493943,-21.40829655071864</coordinates></Point><TimeStamp><when>2026-06-24T19:26:01Z</when></TimeStamp><ExtendedData><Data name="com_exlyo_mapmarker_piniconcode"><value>-13</value></Data><Data name="com_exlyo_mapmarker_customfields"><value>[]</value></Data></ExtendedData><styleUrl>#mm_marker_color_2256</styleUrl></Placemark><Style id="mm_marker_color_2263"><IconStyle><color>ff3aef39</color><colorMode>normal</colorMode><scale>1</scale></IconStyle><LineStyle><color>ff3aef39</color><width>4</width></LineStyle><PolyStyle><color>ff3aef39</color></PolyStyle></Style><Placemark id="2263"><name>Caixa de Emenda</name><description><![CDATA[<pre id="com.exlyo.mapmarker.description_p_tag"></pre>]]></description><phoneNumber></phoneNumber><Point><coordinates>-42.187652585880365,-21.40453628129996</coordinates></Point><TimeStamp><when>2026-06-24T19:26:26Z</when></TimeStamp><ExtendedData><Data name="com_exlyo_mapmarker_piniconcode"><value>-13</value></Data><Data name="com_exlyo_mapmarker_customfields"><value>[]</value></Data></ExtendedData><styleUrl>#mm_marker_color_2263</styleUrl></Placemark><Style id="mm_marker_color_2300"><IconStyle><color>ff3aef39</color><colorMode>normal</colorMode><scale>1</scale></IconStyle><LineStyle><color>ff3aef39</color><width>4</width></LineStyle><PolyStyle><color>ff3aef39</color></PolyStyle></Style><Placemark id="2300"><name>Caixa de Emenda</name><description><![CDATA[<pre id="com.exlyo.mapmarker.description_p_tag"></pre>]]></description><phoneNumber></phoneNumber><Point><coordinates>-42.19630354836912,-21.415891893364368</coordinates></Point><TimeStamp><when>2026-06-24T20:27:47Z</when></TimeStamp><ExtendedData><Data name="com_exlyo_mapmarker_piniconcode"><value>-13</value></Data><Data name="com_exlyo_mapmarker_customfields"><value>[]</value></Data></ExtendedData><styleUrl>#mm_marker_color_2300</styleUrl></Placemark><Style id="mm_marker_color_2827"><IconStyle><color>ff3aef39</color><colorMode>normal</colorMode><scale>1</scale></IconStyle><LineStyle><color>ff3aef39</color><width>4</width></LineStyle><PolyStyle><color>ff3aef39</color></PolyStyle></Style><Placemark id="2827"><name>Caixa de Emenda</name><description><![CDATA[<pre id="com.exlyo.mapmarker.description_p_tag"></pre>]]></description><phoneNumber></phoneNumber><Point><coordinates>-42.18730964982832,-21.410102238496528</coordinates></Point><TimeStamp><when>2026-06-24T20:30:53Z</when></TimeStamp><ExtendedData><Data name="com_exlyo_mapmarker_piniconcode"><value>-13</value></Data><Data name="com_exlyo_mapmarker_customfields"><value>[]</value></Data></ExtendedData><styleUrl>#mm_marker_color_2827</styleUrl></Placemark><Style id="mm_marker_color_2110"><IconStyle><color>ff3aef39</color><colorMode>normal</colorMode><scale>1</scale></IconStyle><LineStyle><color>ff3aef39</color><width>4</width></LineStyle><PolyStyle><color>ff3aef39</color></PolyStyle></Style><Placemark id="2110"><name>Marcador 2</name><description><![CDATA[<pre id="com.exlyo.mapmarker.description_p_tag"></pre>]]></description><phoneNumber></phoneNumber><LineString><coordinates> -42.19216113176733,-21.404456332560365 -42.19230152108364,-21.40434573487592 -42.192722689032614,-21.40508472690611 -42.19304666437799,-21.405743281281236 -42.193170854927246,-21.406070043800728 -42.19258769930626,-21.40679897294318 -42.19170216669666,-21.40778427828133 -42.19228532231836,-21.408357360983857 -42.191432187243436,-21.409307466828686 -42.19170216669807,-21.409599032462975 -42.19220972807261,-21.40985540866077 -42.19298186931219,-21.41021735076234 -42.1933328426029,-21.410398321477047 -42.194067186719025,-21.410936205333638 -42.194974317686,-21.411056851908103 -42.195552073718815,-21.411117175158036 -42.19581125399509,-21.411117175158036 -42.19618382564223,-21.411906402049386 -42.19658879482402,-21.41272075908634 -42.196804778387644,-21.413253607530464 -42.19719354880209,-21.413535111584302 -42.19785769826024,-21.414083037562545 -42.198494849772764,-21.41462090785439 -42.199164398819654,-21.415093427785013 -42.1997313556741,-21.415440276548594 -42.20014712403398,-21.414887328854217 -42.20116224678283,-21.41541514260791 -42.20174000281538,-21.4157066960543 -42.20252834282269,-21.41641547010906 -42.20256074035721,-21.41654113890882 -42.202987307895256,-21.416817609887747 -42.20340307625526,-21.41721472183268 -42.20364605776421,-21.417611832698043 -42.203851242149675,-21.418285410684458 -42.204067225713366,-21.419260585250587 -42.204596385444006,-21.421507483306858 -42.20470977681495,-21.421954848144644 -42.205303731614855,-21.423673922747167 -42.20550351641124,-21.42429720795461 -42.20586528888028,-21.425217051424987 -42.205951682305745,-21.425619166968634 -42.20575729709883,-21.426041387097673 -42.20549811682312,-21.426342972156693 -42.204634182569855,-21.426750110998142 -42.20370005365821,-21.427187407007708 -42.20297650872111,-21.42760962260172 -42.20274972597962,-21.427870993548048 -42.20259853748525,-21.428147443078128 -42.20242035104551,-21.428795840831366 -42.203208691052524,-21.430504782351655 -42.203208691052524,-21.430504782351655</coordinates></LineString><TimeStamp><when>2026-06-24T19:15:18Z</when></TimeStamp><ExtendedData><Data name="com_exlyo_mapmarker_piniconcode"><value>-1</value></Data><Data name="com_exlyo_mapmarker_customfields"><value>[]</value></Data></ExtendedData><styleUrl>#mm_marker_color_2110</styleUrl></Placemark><Style id="mm_marker_color_2112"><IconStyle><color>ff3aef39</color><colorMode>normal</colorMode><scale>1</scale></IconStyle><LineStyle><color>ff3aef39</color><width>4</width></LineStyle><PolyStyle><color>ff3aef39</color></PolyStyle></Style><Placemark id="2112"><name>Marcador 2</name><description><![CDATA[<pre id="com.exlyo.mapmarker.description_p_tag"></pre>]]></description><phoneNumber></phoneNumber><LineString><coordinates> -42.19638806824886,-21.412260973406656 -42.19572931838072,-21.412441941590224 -42.195875107286234,-21.413331698565894 -42.195923703588015,-21.413899732671318 -42.1953999434469,-21.414201342803057 -42.1950327713893,-21.414513005951708 -42.1950327713893,-21.414513005951708</coordinates></LineString><TimeStamp><when>2026-06-24T19:16:57Z</when></TimeStamp><ExtendedData><Data name="com_exlyo_mapmarker_piniconcode"><value>-1</value></Data><Data name="com_exlyo_mapmarker_customfields"><value>[]</value></Data></ExtendedData><styleUrl>#mm_marker_color_2112</styleUrl></Placemark><Style id="mm_marker_color_2285"><IconStyle><color>ff3aef39</color><colorMode>normal</colorMode><scale>1</scale></IconStyle><LineStyle><color>ff3aef39</color><width>4</width></LineStyle><PolyStyle><color>ff3aef39</color></PolyStyle></Style><Placemark id="2285"><name>POP</name><description><![CDATA[<pre id="com.exlyo.mapmarker.description_p_tag"></pre>]]></description><phoneNumber></phoneNumber><Point><coordinates>-42.19217343325118,-21.404465467640595</coordinates></Point><TimeStamp><when>2026-06-24T19:29:11Z</when></TimeStamp><ExtendedData><Data name="com_exlyo_mapmarker_piniconcode"><value>-4</value></Data><Data name="com_exlyo_mapmarker_customfields"><value>[]</value></Data></ExtendedData><styleUrl>#mm_marker_color_2285</styleUrl></Placemark><Style id="mm_marker_color_2294"><IconStyle><color>ff3aef39</color><colorMode>normal</colorMode><scale>1</scale></IconStyle><LineStyle><color>ff3aef39</color><width>4</width></LineStyle><PolyStyle><color>ff3aef39</color></PolyStyle></Style><Placemark id="2294"><name>POP-Forte Telecom</name><description><![CDATA[<pre id="com.exlyo.mapmarker.description_p_tag"></pre>]]></description><phoneNumber></phoneNumber><Point><coordinates>-42.20040741415977,-21.41611463826097</coordinates></Point><TimeStamp><when>2026-06-24T20:10:35Z</when></TimeStamp><ExtendedData><Data name="com_exlyo_mapmarker_piniconcode"><value>-4</value></Data><Data name="com_exlyo_mapmarker_customfields"><value>[]</value></Data></ExtendedData><styleUrl>#mm_marker_color_2294</styleUrl></Placemark><Style id="mm_marker_color_2296"><IconStyle><color>ff3aef39</color><colorMode>normal</colorMode><scale>1</scale></IconStyle><LineStyle><color>ff3aef39</color><width>4</width></LineStyle><PolyStyle><color>ff3aef39</color></PolyStyle></Style><Placemark id="2296"><name>POP-K2 Telecom</name><description><![CDATA[<pre id="com.exlyo.mapmarker.description_p_tag"></pre>]]></description><phoneNumber></phoneNumber><Point><coordinates>-42.197454248262396,-21.41484655761494</coordinates></Point><TimeStamp><when>2026-06-24T20:26:35Z</when></TimeStamp><ExtendedData><Data name="com_exlyo_mapmarker_piniconcode"><value>-4</value></Data><Data name="com_exlyo_mapmarker_customfields"><value>[]</value></Data></ExtendedData><styleUrl>#mm_marker_color_2296</styleUrl></Placemark></Folder></Document></kml>