<?xml version='1.0' encoding='UTF-8' ?>
<kml xmlns="http://www.opengis.net/kml/2.2" xmlns:gx="http://www.google.com/kml/ext/2.2"><Document><name>2025/01/24 @ 08:27:52</name><Style id="mm_folder_color_38"><IconStyle><color>ff3aef39</color><colorMode>normal</colorMode><scale>1</scale></IconStyle><LineStyle><color>ff3aef39</color><width>4</width></LineStyle><PolyStyle><color>ff3aef39</color></PolyStyle></Style><Folder id="38"><styleUrl>#mm_folder_color_38</styleUrl><name>Padua FO-Principal </name><ExtendedData><Data name="com_exlyo_mapmarker_piniconcode"><value>-1</value></Data><Data name="com_exlyo_mapmarker_customfields"><value>[]</value></Data></ExtendedData><Style id="mm_marker_color_3030"><IconStyle><color>ff3aef39</color><colorMode>normal</colorMode><scale>1</scale></IconStyle><LineStyle><color>ff3aef39</color><width>4</width></LineStyle><PolyStyle><color>ff3aef39</color></PolyStyle></Style><Placemark id="3030"><name></name><description><![CDATA[<pre id="com.exlyo.mapmarker.description_p_tag"></pre>]]></description><phoneNumber></phoneNumber><LineString><coordinates> -42.20589348983964,-21.526211447728006 -42.205329523968736,-21.52693950267157 -42.204650463022034,-21.527656847355747 -42.20353979554142,-21.528952341465395 -42.20297007491658,-21.52962149712025 -42.20237733527681,-21.52989451174186 -42.202003276280685,-21.529862392401213</coordinates></LineString><TimeStamp><when>2025-09-22T14:29:36Z</when></TimeStamp><ExtendedData><Data name="com_exlyo_mapmarker_piniconcode"><value>-1</value></Data><Data name="com_exlyo_mapmarker_customfields"><value>[]</value></Data></ExtendedData><styleUrl>#mm_marker_color_3030</styleUrl></Placemark><Style id="mm_marker_color_3285"><IconStyle><color>ff3aef39</color><colorMode>normal</colorMode><scale>1</scale></IconStyle><LineStyle><color>ff3aef39</color><width>4</width></LineStyle><PolyStyle><color>ff3aef39</color></PolyStyle></Style><Placemark id="3285"><name></name><description><![CDATA[<pre id="com.exlyo.mapmarker.description_p_tag"></pre>]]></description><phoneNumber></phoneNumber><LineString><coordinates> -42.20198025726611,-21.529889158518873 -42.201496857948065,-21.529926631075327 -42.20135874385732,-21.529889158518873 -42.201312705827064,-21.530092580851996 -42.200909873062024,-21.5306171950276 -42.200414964236536,-21.530981211913318 -42.19983373410413,-21.53139875957039 -42.19940788232406,-21.531714596103242 -42.199022313820294,-21.531891250135608 -42.19869429285461,-21.532265970098983 -42.19827995058201,-21.532651395338224 -42.198113062722285,-21.532619276607353 -42.197077207040834,-21.532838754459945 -42.19664560050699,-21.53220173245955 -42.19586870874612,-21.531355934224795 -42.19575936842422,-21.53124887080583</coordinates></LineString><TimeStamp><when>2025-09-22T14:30:54Z</when></TimeStamp><ExtendedData><Data name="com_exlyo_mapmarker_piniconcode"><value>-1</value></Data><Data name="com_exlyo_mapmarker_customfields"><value>[]</value></Data></ExtendedData><styleUrl>#mm_marker_color_3285</styleUrl></Placemark><Style id="mm_marker_color_2856"><IconStyle><color>ff3aef39</color><colorMode>normal</colorMode><scale>1</scale></IconStyle><LineStyle><color>ff3aef39</color><width>4</width></LineStyle><PolyStyle><color>ff3aef39</color></PolyStyle></Style><Placemark id="2856"><name>Caixa de Emenda</name><description><![CDATA[<pre id="com.exlyo.mapmarker.description_p_tag"></pre>]]></description><phoneNumber></phoneNumber><Point><coordinates>-42.18463090562658,-21.53897507532963</coordinates></Point><TimeStamp><when>2026-06-25T13:39:46Z</when></TimeStamp><ExtendedData><Data name="com_exlyo_mapmarker_piniconcode"><value>-13</value></Data><Data name="com_exlyo_mapmarker_customfields"><value>[]</value></Data></ExtendedData><styleUrl>#mm_marker_color_2856</styleUrl></Placemark><Style id="mm_marker_color_2859"><IconStyle><color>ff3aef39</color><colorMode>normal</colorMode><scale>1</scale></IconStyle><LineStyle><color>ff3aef39</color><width>4</width></LineStyle><PolyStyle><color>ff3aef39</color></PolyStyle></Style><Placemark id="2859"><name>Caixa de Emenda</name><description><![CDATA[<pre id="com.exlyo.mapmarker.description_p_tag"></pre>]]></description><phoneNumber></phoneNumber><Point><coordinates>-42.19571103202589,-21.531197607452686</coordinates></Point><TimeStamp><when>2026-06-25T13:40:31Z</when></TimeStamp><ExtendedData><Data name="com_exlyo_mapmarker_piniconcode"><value>-13</value></Data><Data name="com_exlyo_mapmarker_customfields"><value>[]</value></Data></ExtendedData><styleUrl>#mm_marker_color_2859</styleUrl></Placemark><Style id="mm_marker_color_2861"><IconStyle><color>ff3aef39</color><colorMode>normal</colorMode><scale>1</scale></IconStyle><LineStyle><color>ff3aef39</color><width>4</width></LineStyle><PolyStyle><color>ff3aef39</color></PolyStyle></Style><Placemark id="2861"><name>Caixa de Emenda</name><description><![CDATA[<pre id="com.exlyo.mapmarker.description_p_tag"></pre>]]></description><phoneNumber></phoneNumber><Point><coordinates>-42.2043826485969,-21.528013690417776</coordinates></Point><TimeStamp><when>2026-06-25T13:42:24Z</when></TimeStamp><ExtendedData><Data name="com_exlyo_mapmarker_piniconcode"><value>-13</value></Data><Data name="com_exlyo_mapmarker_customfields"><value>[]</value></Data></ExtendedData><styleUrl>#mm_marker_color_2861</styleUrl></Placemark><Style id="mm_marker_color_3574"><IconStyle><color>ff3aef39</color><colorMode>normal</colorMode><scale>1</scale></IconStyle><LineStyle><color>ff3aef39</color><width>4</width></LineStyle><PolyStyle><color>ff3aef39</color></PolyStyle></Style><Placemark id="3574"><name>Marcador 11</name><description><![CDATA[<pre id="com.exlyo.mapmarker.description_p_tag"></pre>]]></description><phoneNumber></phoneNumber><LineString><coordinates> -42.19573647767814,-21.53120500422784 -42.194702894419855,-21.530379813892118 -42.194702894419855,-21.530379813892118 -42.19386463398215,-21.529827160862215 -42.193254250168174,-21.53044037847992 -42.193254250168174,-21.53044037847992 -42.19243226663195,-21.531303421110945 -42.191797467465555,-21.53224216341239 -42.19122777590595,-21.533385301084852 -42.18963263953861,-21.534006074063665 -42.18780148809661,-21.534619274034586 -42.18723179653693,-21.534793392072856 -42.186548166665276,-21.535610987025457 -42.18554713721024,-21.536716246957425 -42.18522159917615,-21.537125039595146 -42.1845949384607,-21.539017583102492 -42.18455424620642,-21.53922197632498 -42.18459493846084,-21.540016836121207 -42.18403338535209,-21.540675430940954 -42.183276509422704,-21.541326452768534 -42.18246266433733,-21.54190934192716 -42.181787172916714,-21.542840445726654 -42.18155929629287,-21.54305997339458 -42.18155929629287,-21.54305997339458</coordinates></LineString><TimeStamp><when>2025-10-28T19:45:07Z</when></TimeStamp><ExtendedData><Data name="com_exlyo_mapmarker_piniconcode"><value>-1</value></Data><Data name="com_exlyo_mapmarker_customfields"><value>[]</value></Data></ExtendedData><styleUrl>#mm_marker_color_3574</styleUrl></Placemark><Style id="mm_marker_color_3251"><IconStyle><color>ff3aef39</color><colorMode>normal</colorMode><scale>1</scale></IconStyle><LineStyle><color>ff3aef39</color><width>4</width></LineStyle><PolyStyle><color>ff3aef39</color></PolyStyle></Style><Placemark id="3251"><name>Marcador 15</name><description><![CDATA[<pre id="com.exlyo.mapmarker.description_p_tag"></pre>]]></description><phoneNumber></phoneNumber><LineString><coordinates> -42.2035513445735,-21.52892973390869 -42.20423765480518,-21.5290264181381 -42.20423765480518,-21.5290264181381</coordinates></LineString><TimeStamp><when>2025-09-18T19:27:52Z</when></TimeStamp><ExtendedData><Data name="com_exlyo_mapmarker_piniconcode"><value>-1</value></Data><Data name="com_exlyo_mapmarker_customfields"><value>[]</value></Data></ExtendedData><styleUrl>#mm_marker_color_3251</styleUrl></Placemark><Style id="mm_marker_color_2854"><IconStyle><color>ff3aef39</color><colorMode>normal</colorMode><scale>1</scale></IconStyle><LineStyle><color>ff3aef39</color><width>4</width></LineStyle><PolyStyle><color>ff3aef39</color></PolyStyle></Style><Placemark id="2854"><name>POP</name><description><![CDATA[<pre id="com.exlyo.mapmarker.description_p_tag"></pre>]]></description><phoneNumber></phoneNumber><Point><coordinates>-42.1815314397825,-21.543075126515472</coordinates></Point><TimeStamp><when>2026-06-25T13:39:03Z</when></TimeStamp><ExtendedData><Data name="com_exlyo_mapmarker_piniconcode"><value>-4</value></Data><Data name="com_exlyo_mapmarker_customfields"><value>[]</value></Data></ExtendedData><styleUrl>#mm_marker_color_2854</styleUrl></Placemark><Style id="mm_marker_color_3302"><IconStyle><color>ff3aef39</color><colorMode>normal</colorMode><scale>1</scale></IconStyle><LineStyle><color>ff3aef39</color><width>4</width></LineStyle><PolyStyle><color>ff3aef39</color></PolyStyle></Style><Placemark id="3302"><name>RT</name><description><![CDATA[<pre id="com.exlyo.mapmarker.description_p_tag"></pre>]]></description><phoneNumber></phoneNumber><Point><coordinates>-42.20356097494569,-21.52893760828432</coordinates></Point><TimeStamp><when>2025-09-19T11:58:37Z</when></TimeStamp><ExtendedData><Data name="com_exlyo_mapmarker_piniconcode"><value>-1</value></Data><Data name="com_exlyo_mapmarker_customfields"><value>[]</value></Data></ExtendedData><styleUrl>#mm_marker_color_3302</styleUrl></Placemark><Style id="mm_marker_color_3319"><IconStyle><color>ff3aef39</color><colorMode>normal</colorMode><scale>1</scale></IconStyle><LineStyle><color>ff3aef39</color><width>4</width></LineStyle><PolyStyle><color>ff3aef39</color></PolyStyle></Style><Placemark id="3319"><name>RT</name><description><![CDATA[<pre id="com.exlyo.mapmarker.description_p_tag"></pre>]]></description><phoneNumber></phoneNumber><Point><coordinates>-42.20378574154462,-21.52867456542537</coordinates></Point><TimeStamp><when>2025-09-19T11:59:21Z</when></TimeStamp><ExtendedData><Data name="com_exlyo_mapmarker_piniconcode"><value>-1</value></Data><Data name="com_exlyo_mapmarker_customfields"><value>[]</value></Data></ExtendedData><styleUrl>#mm_marker_color_3319</styleUrl></Placemark><Style id="mm_marker_color_3336"><IconStyle><color>ff3aef39</color><colorMode>normal</colorMode><scale>1</scale></IconStyle><LineStyle><color>ff3aef39</color><width>4</width></LineStyle><PolyStyle><color>ff3aef39</color></PolyStyle></Style><Placemark id="3336"><name>RT</name><description><![CDATA[<pre id="com.exlyo.mapmarker.description_p_tag"></pre>]]></description><phoneNumber></phoneNumber><Point><coordinates>-42.2020299038238,-21.52989887729427</coordinates></Point><TimeStamp><when>2025-09-19T12:00:29Z</when></TimeStamp><ExtendedData><Data name="com_exlyo_mapmarker_piniconcode"><value>-1</value></Data><Data name="com_exlyo_mapmarker_customfields"><value>[]</value></Data></ExtendedData><styleUrl>#mm_marker_color_3336</styleUrl></Placemark><Style id="mm_marker_color_2938"><IconStyle><color>ff3aef39</color><colorMode>normal</colorMode><scale>1</scale></IconStyle><LineStyle><color>ff3aef39</color><width>4</width></LineStyle><PolyStyle><color>ff3aef39</color></PolyStyle></Style><Placemark id="2938"><name>RT</name><description><![CDATA[<pre id="com.exlyo.mapmarker.description_p_tag"></pre>]]></description><phoneNumber></phoneNumber><Point><coordinates>-42.19986573519931,-21.53142649223334</coordinates></Point><TimeStamp><when>2025-09-19T12:02:57Z</when></TimeStamp><ExtendedData><Data name="com_exlyo_mapmarker_piniconcode"><value>-1</value></Data><Data name="com_exlyo_mapmarker_customfields"><value>[]</value></Data></ExtendedData><styleUrl>#mm_marker_color_2938</styleUrl></Placemark><Style id="mm_marker_color_2964"><IconStyle><color>ff3aef39</color><colorMode>normal</colorMode><scale>1</scale></IconStyle><LineStyle><color>ff3aef39</color><width>4</width></LineStyle><PolyStyle><color>ff3aef39</color></PolyStyle></Style><Placemark id="2964"><name>RT</name><description><![CDATA[<pre id="com.exlyo.mapmarker.description_p_tag"></pre>]]></description><phoneNumber></phoneNumber><Point><coordinates>-42.199028182153775,-21.531915510036978</coordinates></Point><TimeStamp><when>2025-09-19T12:03:49Z</when></TimeStamp><ExtendedData><Data name="com_exlyo_mapmarker_piniconcode"><value>-1</value></Data><Data name="com_exlyo_mapmarker_customfields"><value>[]</value></Data></ExtendedData><styleUrl>#mm_marker_color_2964</styleUrl></Placemark><Style id="mm_marker_color_3369"><IconStyle><color>ff3aef39</color><colorMode>normal</colorMode><scale>1</scale></IconStyle><LineStyle><color>ff3aef39</color><width>4</width></LineStyle><PolyStyle><color>ff3aef39</color></PolyStyle></Style><Placemark id="3369"><name>RT</name><description><![CDATA[<pre id="com.exlyo.mapmarker.description_p_tag"></pre>]]></description><phoneNumber></phoneNumber><Point><coordinates>-42.198281377004335,-21.53269113055822</coordinates></Point><TimeStamp><when>2025-09-19T12:04:16Z</when></TimeStamp><ExtendedData><Data name="com_exlyo_mapmarker_piniconcode"><value>-1</value></Data><Data name="com_exlyo_mapmarker_customfields"><value>[]</value></Data></ExtendedData><styleUrl>#mm_marker_color_3369</styleUrl></Placemark><Style id="mm_marker_color_3576"><IconStyle><color>ff3aef39</color><colorMode>normal</colorMode><scale>1</scale></IconStyle><LineStyle><color>ff3aef39</color><width>4</width></LineStyle><PolyStyle><color>ff3aef39</color></PolyStyle></Style><Placemark id="3576"><name>RT</name><description><![CDATA[<pre id="com.exlyo.mapmarker.description_p_tag"></pre>]]></description><phoneNumber></phoneNumber><Point><coordinates>-42.20239683935284,-21.531915770031166</coordinates></Point><TimeStamp><when>2025-10-28T20:59:19Z</when></TimeStamp><ExtendedData><Data name="com_exlyo_mapmarker_piniconcode"><value>-1</value></Data><Data name="com_exlyo_mapmarker_customfields"><value>[]</value></Data></ExtendedData><styleUrl>#mm_marker_color_3576</styleUrl></Placemark></Folder></Document></kml>