<?xml version='1.0' encoding='UTF-8' ?>
<kml xmlns="http://www.opengis.net/kml/2.2" xmlns:gx="http://www.google.com/kml/ext/2.2"><Document><name>2025/01/24 @ 08:27:52</name><Style id="mm_folder_color_31"><IconStyle><color>ff00b371</color><colorMode>normal</colorMode><scale>1</scale></IconStyle><LineStyle><color>ff00b371</color><width>4</width></LineStyle><PolyStyle><color>ff00b371</color></PolyStyle></Style><Folder id="31"><styleUrl>#mm_folder_color_31</styleUrl><name>FO- Principal </name><ExtendedData><Data name="com_exlyo_mapmarker_piniconcode"><value>-1</value></Data><Data name="com_exlyo_mapmarker_customfields"><value>[]</value></Data></ExtendedData><Style id="mm_marker_color_2119"><IconStyle><color>ff3aef39</color><colorMode>normal</colorMode><scale>1</scale></IconStyle><LineStyle><color>ff3aef39</color><width>4</width></LineStyle><PolyStyle><color>ff3aef39</color></PolyStyle></Style><Placemark id="2119"><name></name><description><![CDATA[<pre id="com.exlyo.mapmarker.description_p_tag"></pre>]]></description><phoneNumber></phoneNumber><LineString><coordinates> -42.12212726597438,-21.20641732760508 -42.12203547295992,-21.20636195418109 -42.12187888487658,-21.20660861745547 -42.12188428446566,-21.20691065355689 -42.121684499669634,-21.207358672636136 -42.12154950994257,-21.2076003003393 -42.1212795304884,-21.20781675815431 -42.120804366649,-21.208063418998556 -42.120194213082584,-21.208345316601726 -42.119535463214405,-21.20863728140905 -42.119173690745846,-21.20884366997627 -42.118757922386514,-21.209191006182017 -42.11833135484899,-21.209472901632243 -42.11789938772242,-21.20973969504486 -42.11694366045461,-21.210162536447157 -42.11659268716426,-21.210318584753974 -42.115626160718264,-21.211068621088263 -42.11539937797679,-21.21142098583582 -42.11513479811168,-21.212125712807605 -42.11482702153402,-21.212780099126366 -42.11501060756344,-21.21286567250742 -42.11521039235973,-21.21306198772363 -42.115491170992456,-21.21302675167841 -42.11568015661052,-21.213077088883317 -42.11583134510501,-21.213162662092177 -42.11602573031225,-21.213494887021348 -42.11579354798161,-21.21352508925056 -42.11538317921129,-21.213600594796564 -42.11494581249557,-21.213897582902717 -42.114735228521326,-21.214139199904206 -42.114773025644936,-21.214335513426732 -42.1148756178377,-21.214466388963356 -42.11496741085222,-21.214536860358095 -42.115150996881354,-21.214385850185334 -42.11528598660866,-21.214335513426732 -42.115291386197825,-21.214471422635526 -42.11558296400866,-21.21466270205072 -42.11558296400866,-21.21466270205072</coordinates></LineString><TimeStamp><when>2026-06-25T12:43:31Z</when></TimeStamp><ExtendedData><Data name="com_exlyo_mapmarker_piniconcode"><value>-1</value></Data><Data name="com_exlyo_mapmarker_customfields"><value>[]</value></Data></ExtendedData><styleUrl>#mm_marker_color_2119</styleUrl></Placemark><Style id="mm_marker_color_2833"><IconStyle><color>ff3aef39</color><colorMode>normal</colorMode><scale>1</scale></IconStyle><LineStyle><color>ff3aef39</color><width>4</width></LineStyle><PolyStyle><color>ff3aef39</color></PolyStyle></Style><Placemark id="2833"><name></name><description><![CDATA[<pre id="com.exlyo.mapmarker.description_p_tag"></pre>]]></description><phoneNumber></phoneNumber><LineString><coordinates> -42.11480617156666,-21.212829894951568 -42.114206817178484,-21.21351951408491 -42.113818046764685,-21.214098388972218 -42.11354806731051,-21.214712497240715 -42.11341847717253,-21.215875269012372 -42.1132834874454,-21.216720915456545 -42.11317549566384,-21.217264542754886 -42.112991909635106,-21.217692396164903 -42.1129541125117,-21.217949107615528 -42.1129541125117,-21.217949107615528</coordinates></LineString><TimeStamp><when>2026-06-25T12:47:16Z</when></TimeStamp><ExtendedData><Data name="com_exlyo_mapmarker_piniconcode"><value>-1</value></Data><Data name="com_exlyo_mapmarker_customfields"><value>[]</value></Data></ExtendedData><styleUrl>#mm_marker_color_2833</styleUrl></Placemark><Style id="mm_marker_color_2837"><IconStyle><color>ff3aef39</color><colorMode>normal</colorMode><scale>1</scale></IconStyle><LineStyle><color>ff3aef39</color><width>4</width></LineStyle><PolyStyle><color>ff3aef39</color></PolyStyle></Style><Placemark id="2837"><name></name><description><![CDATA[<pre id="com.exlyo.mapmarker.description_p_tag"></pre>]]></description><phoneNumber></phoneNumber><LineString><coordinates> -42.11291514729466,-21.217983082854563 -42.11240479503352,-21.2184291030659 -42.111910391280546,-21.219306272215857 -42.11147978156026,-21.219529280490445 -42.11010820985843,-21.219782022794277 -42.107891367223935,-21.22012396757512 -42.10723747838939,-21.220153701866433 -42.104893047689714,-21.21991582736808 -42.10152791246773,-21.219663085293462 -42.09830631381909,-21.219410342785945 -42.0956907584808,-21.21948467886249 -42.094829539040255,-21.219588749306855 -42.093697194960846,-21.219826624332427 -42.09210234414478,-21.21996042886584 -42.090379905263255,-21.219752288428058 -42.08910402461038,-21.21948467886249 -42.087796246941195,-21.218696714545743 -42.087796246941195,-21.218696714545743</coordinates></LineString><TimeStamp><when>2026-06-25T12:51:41Z</when></TimeStamp><ExtendedData><Data name="com_exlyo_mapmarker_piniconcode"><value>-1</value></Data><Data name="com_exlyo_mapmarker_customfields"><value>[]</value></Data></ExtendedData><styleUrl>#mm_marker_color_2837</styleUrl></Placemark><Style id="mm_marker_color_2111"><IconStyle><color>ff3aef39</color><colorMode>normal</colorMode><scale>1</scale></IconStyle><LineStyle><color>ff3aef39</color><width>4</width></LineStyle><PolyStyle><color>ff3aef39</color></PolyStyle></Style><Placemark id="2111"><name>Caixa de Emenda</name><description><![CDATA[<pre id="com.exlyo.mapmarker.description_p_tag"></pre>]]></description><phoneNumber></phoneNumber><Point><coordinates>-42.11483245197648,-21.212798250312147</coordinates></Point><TimeStamp><when>2026-06-25T12:36:38Z</when></TimeStamp><ExtendedData><Data name="com_exlyo_mapmarker_piniconcode"><value>-13</value></Data><Data name="com_exlyo_mapmarker_customfields"><value>[]</value></Data></ExtendedData><styleUrl>#mm_marker_color_2111</styleUrl></Placemark><Style id="mm_marker_color_2113"><IconStyle><color>ff3aef39</color><colorMode>normal</colorMode><scale>1</scale></IconStyle><LineStyle><color>ff3aef39</color><width>4</width></LineStyle><PolyStyle><color>ff3aef39</color></PolyStyle></Style><Placemark id="2113"><name>Caixa de Emenda</name><description><![CDATA[<pre id="com.exlyo.mapmarker.description_p_tag"></pre>]]></description><phoneNumber></phoneNumber><Point><coordinates>-42.120186918419684,-21.208334233852298</coordinates></Point><TimeStamp><when>2026-06-25T12:38:42Z</when></TimeStamp><ExtendedData><Data name="com_exlyo_mapmarker_piniconcode"><value>-13</value></Data><Data name="com_exlyo_mapmarker_customfields"><value>[]</value></Data></ExtendedData><styleUrl>#mm_marker_color_2113</styleUrl></Placemark><Style id="mm_marker_color_2115"><IconStyle><color>ff3aef39</color><colorMode>normal</colorMode><scale>1</scale></IconStyle><LineStyle><color>ff3aef39</color><width>4</width></LineStyle><PolyStyle><color>ff3aef39</color></PolyStyle></Style><Placemark id="2115"><name>Caixa de Emenda</name><description><![CDATA[<pre id="com.exlyo.mapmarker.description_p_tag"></pre>]]></description><phoneNumber></phoneNumber><Point><coordinates>-42.118314817601,-21.209459921283948</coordinates></Point><TimeStamp><when>2026-06-25T12:39:47Z</when></TimeStamp><ExtendedData><Data name="com_exlyo_mapmarker_piniconcode"><value>-13</value></Data><Data name="com_exlyo_mapmarker_customfields"><value>[]</value></Data></ExtendedData><styleUrl>#mm_marker_color_2115</styleUrl></Placemark><Style id="mm_marker_color_2825"><IconStyle><color>ff3aef39</color><colorMode>normal</colorMode><scale>1</scale></IconStyle><LineStyle><color>ff3aef39</color><width>4</width></LineStyle><PolyStyle><color>ff3aef39</color></PolyStyle></Style><Placemark id="2825"><name>Caixa de Emenda</name><description><![CDATA[<pre id="com.exlyo.mapmarker.description_p_tag"></pre>]]></description><phoneNumber></phoneNumber><Point><coordinates>-42.11592313812125,-21.213293538669397</coordinates></Point><TimeStamp><when>2026-06-25T12:44:26Z</when></TimeStamp><ExtendedData><Data name="com_exlyo_mapmarker_piniconcode"><value>-13</value></Data><Data name="com_exlyo_mapmarker_customfields"><value>[]</value></Data></ExtendedData><styleUrl>#mm_marker_color_2825</styleUrl></Placemark><Style id="mm_marker_color_2829"><IconStyle><color>ff3aef39</color><colorMode>normal</colorMode><scale>1</scale></IconStyle><LineStyle><color>ff3aef39</color><width>4</width></LineStyle><PolyStyle><color>ff3aef39</color></PolyStyle></Style><Placemark id="2829"><name>Caixa de Emenda</name><description><![CDATA[<pre id="com.exlyo.mapmarker.description_p_tag"></pre>]]></description><phoneNumber></phoneNumber><Point><coordinates>-42.11515099688245,-21.214395917535526</coordinates></Point><TimeStamp><when>2026-06-25T12:44:51Z</when></TimeStamp><ExtendedData><Data name="com_exlyo_mapmarker_piniconcode"><value>-13</value></Data><Data name="com_exlyo_mapmarker_customfields"><value>[]</value></Data></ExtendedData><styleUrl>#mm_marker_color_2829</styleUrl></Placemark><Style id="mm_marker_color_2831"><IconStyle><color>ff3aef39</color><colorMode>normal</colorMode><scale>1</scale></IconStyle><LineStyle><color>ff3aef39</color><width>4</width></LineStyle><PolyStyle><color>ff3aef39</color></PolyStyle></Style><Placemark id="2831"><name>Caixa de Emenda</name><description><![CDATA[<pre id="com.exlyo.mapmarker.description_p_tag"></pre>]]></description><phoneNumber></phoneNumber><Point><coordinates>-42.122133413955,-21.206421820068226</coordinates></Point><TimeStamp><when>2026-06-25T12:45:48Z</when></TimeStamp><ExtendedData><Data name="com_exlyo_mapmarker_piniconcode"><value>-13</value></Data><Data name="com_exlyo_mapmarker_customfields"><value>[]</value></Data></ExtendedData><styleUrl>#mm_marker_color_2831</styleUrl></Placemark><Style id="mm_marker_color_2835"><IconStyle><color>ff3aef39</color><colorMode>normal</colorMode><scale>1</scale></IconStyle><LineStyle><color>ff3aef39</color><width>4</width></LineStyle><PolyStyle><color>ff3aef39</color></PolyStyle></Style><Placemark id="2835"><name>Caixa de Emenda</name><description><![CDATA[<pre id="com.exlyo.mapmarker.description_p_tag"></pre>]]></description><phoneNumber></phoneNumber><Point><coordinates>-42.1129541125117,-21.217949107615528</coordinates></Point><TimeStamp><when>2026-06-25T12:47:33Z</when></TimeStamp><ExtendedData><Data name="com_exlyo_mapmarker_piniconcode"><value>-13</value></Data><Data name="com_exlyo_mapmarker_customfields"><value>[]</value></Data></ExtendedData><styleUrl>#mm_marker_color_2835</styleUrl></Placemark><Style id="mm_marker_color_2109"><IconStyle><color>ff3aef39</color><colorMode>normal</colorMode><scale>1</scale></IconStyle><LineStyle><color>ff3aef39</color><width>4</width></LineStyle><PolyStyle><color>ff3aef39</color></PolyStyle></Style><Placemark id="2109"><name>POP-Laje do Muriae</name><description><![CDATA[<pre id="com.exlyo.mapmarker.description_p_tag"></pre>]]></description><phoneNumber></phoneNumber><Point><coordinates>-42.11556555916649,-21.214666868286372</coordinates></Point><TimeStamp><when>2026-06-25T12:28:55Z</when></TimeStamp><ExtendedData><Data name="com_exlyo_mapmarker_piniconcode"><value>-4</value></Data><Data name="com_exlyo_mapmarker_customfields"><value>[]</value></Data></ExtendedData><styleUrl>#mm_marker_color_2109</styleUrl></Placemark></Folder></Document></kml>